lat,lon,name,country,source,label,tile_id,parent_camp,is_center,grid_row,grid_col,manhattan_dist,neg_category
8.140491616960114,34.703518,Jewi,ethiopia,unhcr_hdx,camp,camp_ethiopia_000_r-1c+0,camp_ethiopia_000,False,-1.0,0.0,1.0,
8.15199,34.69190224435904,Jewi,ethiopia,unhcr_hdx,camp,camp_ethiopia_000_r+0c-1,camp_ethiopia_000,False,0.0,-1.0,1.0,
8.15199,34.703518,Jewi,ethiopia,unhcr_hdx,camp,camp_ethiopia_000_r+0c+0,camp_ethiopia_000,True,0.0,0.0,0.0,
8.15199,34.71513375564096,Jewi,ethiopia,unhcr_hdx,camp,camp_ethiopia_000_r+0c+1,camp_ethiopia_000,False,0.0,1.0,1.0,
8.163488383039885,34.703518,Jewi,ethiopia,unhcr_hdx,camp,camp_ethiopia_000_r+1c+0,camp_ethiopia_000,False,1.0,0.0,1.0,
8.271881616960114,34.25092,Kule,ethiopia,unhcr_hdx,camp,camp_ethiopia_001_r-1c+0,camp_ethiopia_001,False,-1.0,0.0,1.0,
8.28338,34.239300396860735,Kule,ethiopia,unhcr_hdx,camp,camp_ethiopia_001_r+0c-1,camp_ethiopia_001,False,0.0,-1.0,1.0,
8.28338,34.25092,Kule,ethiopia,unhcr_hdx,camp,camp_ethiopia_001_r+0c+0,camp_ethiopia_001,True,0.0,0.0,0.0,
8.28338,34.26253960313927,Kule,ethiopia,unhcr_hdx,camp,camp_ethiopia_001_r+0c+1,camp_ethiopia_001,False,0.0,1.0,1.0,
8.294878383039885,34.25092,Kule,ethiopia,unhcr_hdx,camp,camp_ethiopia_001_r+1c+0,camp_ethiopia_001,False,1.0,0.0,1.0,
8.263671616960114,34.27598,Tierkidi,ethiopia,unhcr_hdx,camp,camp_ethiopia_002_r-1c+0,camp_ethiopia_002,False,-1.0,0.0,1.0,
8.27517,34.264360639139035,Tierkidi,ethiopia,unhcr_hdx,camp,camp_ethiopia_002_r+0c-1,camp_ethiopia_002,False,0.0,-1.0,1.0,
8.27517,34.27598,Tierkidi,ethiopia,unhcr_hdx,camp,camp_ethiopia_002_r+0c+0,camp_ethiopia_002,True,0.0,0.0,0.0,
8.27517,34.28759936086096,Tierkidi,ethiopia,unhcr_hdx,camp,camp_ethiopia_002_r+0c+1,camp_ethiopia_002,False,0.0,1.0,1.0,
8.286668383039885,34.27598,Tierkidi,ethiopia,unhcr_hdx,camp,camp_ethiopia_002_r+1c+0,camp_ethiopia_002,False,1.0,0.0,1.0,
8.301507616960114,34.328425,Nguenyiel,ethiopia,unhcr_hdx,camp,camp_ethiopia_003_r-1c+0,camp_ethiopia_003,False,-1.0,0.0,1.0,
8.313006,34.31680452052505,Nguenyiel,ethiopia,unhcr_hdx,camp,camp_ethiopia_003_r+0c-1,camp_ethiopia_003,False,0.0,-1.0,1.0,
8.313006,34.328425,Nguenyiel,ethiopia,unhcr_hdx,camp,camp_ethiopia_003_r+0c+0,camp_ethiopia_003,True,0.0,0.0,0.0,
8.313006,34.34004547947496,Nguenyiel,ethiopia,unhcr_hdx,camp,camp_ethiopia_003_r+0c+1,camp_ethiopia_003,False,0.0,1.0,1.0,
8.324504383039885,34.328425,Nguenyiel,ethiopia,unhcr_hdx,camp,camp_ethiopia_003_r+1c+0,camp_ethiopia_003,False,1.0,0.0,1.0,
11.563501616960114,41.431,Aysaita,ethiopia,unhcr_hdx,camp,camp_ethiopia_004_r-1c+0,camp_ethiopia_004,False,-1.0,0.0,1.0,
11.575,41.419262918683174,Aysaita,ethiopia,unhcr_hdx,camp,camp_ethiopia_004_r+0c-1,camp_ethiopia_004,False,0.0,-1.0,1.0,
11.575,41.431,Aysaita,ethiopia,unhcr_hdx,camp,camp_ethiopia_004_r+0c+0,camp_ethiopia_004,True,0.0,0.0,0.0,
11.575,41.44273708131682,Aysaita,ethiopia,unhcr_hdx,camp,camp_ethiopia_004_r+0c+1,camp_ethiopia_004,False,0.0,1.0,1.0,
11.586498383039885,41.431,Aysaita,ethiopia,unhcr_hdx,camp,camp_ethiopia_004_r+1c+0,camp_ethiopia_004,False,1.0,0.0,1.0,
13.829501616960114,40.007,Barahle,ethiopia,unhcr_hdx,camp,camp_ethiopia_005_r-1c+0,camp_ethiopia_005,False,-1.0,0.0,1.0,
13.841,39.995157757803625,Barahle,ethiopia,unhcr_hdx,camp,camp_ethiopia_005_r+0c-1,camp_ethiopia_005,False,0.0,-1.0,1.0,
13.841,40.007,Barahle,ethiopia,unhcr_hdx,camp,camp_ethiopia_005_r+0c+0,camp_ethiopia_005,True,0.0,0.0,0.0,
13.841,40.01884224219637,Barahle,ethiopia,unhcr_hdx,camp,camp_ethiopia_005_r+0c+1,camp_ethiopia_005,False,0.0,1.0,1.0,
13.852498383039885,40.007,Barahle,ethiopia,unhcr_hdx,camp,camp_ethiopia_005_r+1c+0,camp_ethiopia_005,False,1.0,0.0,1.0,
14.157148616960114,37.724604,Shimelba,ethiopia,unhcr_hdx,camp,camp_ethiopia_006_r-1c+0,camp_ethiopia_006,False,-1.0,0.0,1.0,
14.168647,37.71274485513398,Shimelba,ethiopia,unhcr_hdx,camp,camp_ethiopia_006_r+0c-1,camp_ethiopia_006,False,0.0,-1.0,1.0,
14.168647,37.724604,Shimelba,ethiopia,unhcr_hdx,camp,camp_ethiopia_006_r+0c+0,camp_ethiopia_006,True,0.0,0.0,0.0,
14.168647,37.73646314486602,Shimelba,ethiopia,unhcr_hdx,camp,camp_ethiopia_006_r+0c+1,camp_ethiopia_006,False,0.0,1.0,1.0,
14.180145383039886,37.724604,Shimelba,ethiopia,unhcr_hdx,camp,camp_ethiopia_006_r+1c+0,camp_ethiopia_006,False,1.0,0.0,1.0,
14.094723616960115,37.95275,Hitsats,ethiopia,unhcr_hdx,camp,camp_ethiopia_007_r-1c+0,camp_ethiopia_007,False,-1.0,0.0,1.0,
14.106222,37.94089410914358,Hitsats,ethiopia,unhcr_hdx,camp,camp_ethiopia_007_r+0c-1,camp_ethiopia_007,False,0.0,-1.0,1.0,
14.106222,37.95275,Hitsats,ethiopia,unhcr_hdx,camp,camp_ethiopia_007_r+0c+0,camp_ethiopia_007,True,0.0,0.0,0.0,
14.106222,37.964605890856426,Hitsats,ethiopia,unhcr_hdx,camp,camp_ethiopia_007_r+0c+1,camp_ethiopia_007,False,0.0,1.0,1.0,
14.117720383039886,37.95275,Hitsats,ethiopia,unhcr_hdx,camp,camp_ethiopia_007_r+1c+0,camp_ethiopia_007,False,1.0,0.0,1.0,
13.577090616960115,38.133042,Adi Harush,ethiopia,unhcr_hdx,camp,camp_ethiopia_008_r-1c+0,camp_ethiopia_008,False,-1.0,0.0,1.0,
13.588589,38.12121248289445,Adi Harush,ethiopia,unhcr_hdx,camp,camp_ethiopia_008_r+0c-1,camp_ethiopia_008,False,0.0,-1.0,1.0,
13.588589,38.133042,Adi Harush,ethiopia,unhcr_hdx,camp,camp_ethiopia_008_r+0c+0,camp_ethiopia_008,True,0.0,0.0,0.0,
13.588589,38.14487151710556,Adi Harush,ethiopia,unhcr_hdx,camp,camp_ethiopia_008_r+0c+1,camp_ethiopia_008,False,0.0,1.0,1.0,
13.600087383039886,38.133042,Adi Harush,ethiopia,unhcr_hdx,camp,camp_ethiopia_008_r+1c+0,camp_ethiopia_008,False,1.0,0.0,1.0,
13.636982616960115,37.157075,Mai Aini,ethiopia,unhcr_hdx,camp,camp_ethiopia_009_r-1c+0,camp_ethiopia_009,False,-1.0,0.0,1.0,
13.648481,37.14524248674037,Mai Aini,ethiopia,unhcr_hdx,camp,camp_ethiopia_009_r+0c-1,camp_ethiopia_009,False,0.0,-1.0,1.0,
13.648481,37.157075,Mai Aini,ethiopia,unhcr_hdx,camp,camp_ethiopia_009_r+0c+0,camp_ethiopia_009,True,0.0,0.0,0.0,
13.648481,37.168907513259626,Mai Aini,ethiopia,unhcr_hdx,camp,camp_ethiopia_009_r+0c+1,camp_ethiopia_009,False,0.0,1.0,1.0,
13.659979383039886,37.157075,Mai Aini,ethiopia,unhcr_hdx,camp,camp_ethiopia_009_r+1c+0,camp_ethiopia_009,False,1.0,0.0,1.0,
9.369831616960115,34.423832,Tongo,ethiopia,unhcr_hdx,camp,camp_ethiopia_010_r-1c+0,camp_ethiopia_010,False,-1.0,0.0,1.0,
9.38133,34.41217774514121,Tongo,ethiopia,unhcr_hdx,camp,camp_ethiopia_010_r+0c-1,camp_ethiopia_010,False,0.0,-1.0,1.0,
9.38133,34.423832,Tongo,ethiopia,unhcr_hdx,camp,camp_ethiopia_010_r+0c+0,camp_ethiopia_010,True,0.0,0.0,0.0,
9.38133,34.43548625485879,Tongo,ethiopia,unhcr_hdx,camp,camp_ethiopia_010_r+0c+1,camp_ethiopia_010,False,0.0,1.0,1.0,
9.392828383039886,34.423832,Tongo,ethiopia,unhcr_hdx,camp,camp_ethiopia_010_r+1c+0,camp_ethiopia_010,False,1.0,0.0,1.0,
9.514661616960115,34.49781,Gure-Shombola,ethiopia,unhcr_hdx,camp,camp_ethiopia_011_r-1c+0,camp_ethiopia_011,False,-1.0,0.0,1.0,
9.52616,34.48615083877792,Gure-Shombola,ethiopia,unhcr_hdx,camp,camp_ethiopia_011_r+0c-1,camp_ethiopia_011,False,0.0,-1.0,1.0,
9.52616,34.49781,Gure-Shombola,ethiopia,unhcr_hdx,camp,camp_ethiopia_011_r+0c+0,camp_ethiopia_011,True,0.0,0.0,0.0,
9.52616,34.509469161222086,Gure-Shombola,ethiopia,unhcr_hdx,camp,camp_ethiopia_011_r+0c+1,camp_ethiopia_011,False,0.0,1.0,1.0,
9.537658383039886,34.49781,Gure-Shombola,ethiopia,unhcr_hdx,camp,camp_ethiopia_011_r+1c+0,camp_ethiopia_011,False,1.0,0.0,1.0,
10.358501616960114,34.62,Sherkole,ethiopia,unhcr_hdx,camp,camp_ethiopia_012_r-1c+0,camp_ethiopia_012,False,-1.0,0.0,1.0,
10.37,34.608310681951004,Sherkole,ethiopia,unhcr_hdx,camp,camp_ethiopia_012_r+0c-1,camp_ethiopia_012,False,0.0,-1.0,1.0,
10.37,34.62,Sherkole,ethiopia,unhcr_hdx,camp,camp_ethiopia_012_r+0c+0,camp_ethiopia_012,True,0.0,0.0,0.0,
10.37,34.63168931804899,Sherkole,ethiopia,unhcr_hdx,camp,camp_ethiopia_012_r+0c+1,camp_ethiopia_012,False,0.0,1.0,1.0,
10.381498383039885,34.62,Sherkole,ethiopia,unhcr_hdx,camp,camp_ethiopia_012_r+1c+0,camp_ethiopia_012,False,1.0,0.0,1.0,
10.225537616960114,34.613565,Tsore,ethiopia,unhcr_hdx,camp,camp_ethiopia_013_r-1c+0,camp_ethiopia_013,False,-1.0,0.0,1.0,
10.237036,34.60188061243215,Tsore,ethiopia,unhcr_hdx,camp,camp_ethiopia_013_r+0c-1,camp_ethiopia_013,False,0.0,-1.0,1.0,
10.237036,34.613565,Tsore,ethiopia,unhcr_hdx,camp,camp_ethiopia_013_r+0c+0,camp_ethiopia_013,True,0.0,0.0,0.0,
10.237036,34.625249387567855,Tsore,ethiopia,unhcr_hdx,camp,camp_ethiopia_013_r+0c+1,camp_ethiopia_013,False,0.0,1.0,1.0,
10.248534383039885,34.613565,Tsore,ethiopia,unhcr_hdx,camp,camp_ethiopia_013_r+1c+0,camp_ethiopia_013,False,1.0,0.0,1.0,
7.636751616960115,34.26808,Pugnido,ethiopia,unhcr_hdx,camp,camp_ethiopia_014_r-1c+0,camp_ethiopia_014,False,-1.0,0.0,1.0,
7.64825,34.256478407017866,Pugnido,ethiopia,unhcr_hdx,camp,camp_ethiopia_014_r+0c-1,camp_ethiopia_014,False,0.0,-1.0,1.0,
7.64825,34.26808,Pugnido,ethiopia,unhcr_hdx,camp,camp_ethiopia_014_r+0c+0,camp_ethiopia_014,True,0.0,0.0,0.0,
7.64825,34.27968159298213,Pugnido,ethiopia,unhcr_hdx,camp,camp_ethiopia_014_r+0c+1,camp_ethiopia_014,False,0.0,1.0,1.0,
7.659748383039885,34.26808,Pugnido,ethiopia,unhcr_hdx,camp,camp_ethiopia_014_r+1c+0,camp_ethiopia_014,False,1.0,0.0,1.0,
7.667681616960115,34.24729,Pugnido 2,ethiopia,unhcr_hdx,camp,camp_ethiopia_015_r-1c+0,camp_ethiopia_015,False,-1.0,0.0,1.0,
7.67918,34.23568756424944,Pugnido 2,ethiopia,unhcr_hdx,camp,camp_ethiopia_015_r+0c-1,camp_ethiopia_015,False,0.0,-1.0,1.0,
7.67918,34.24729,Pugnido 2,ethiopia,unhcr_hdx,camp,camp_ethiopia_015_r+0c+0,camp_ethiopia_015,True,0.0,0.0,0.0,
7.67918,34.25889243575056,Pugnido 2,ethiopia,unhcr_hdx,camp,camp_ethiopia_015_r+0c+1,camp_ethiopia_015,False,0.0,1.0,1.0,
7.690678383039884,34.24729,Pugnido 2,ethiopia,unhcr_hdx,camp,camp_ethiopia_015_r+1c+0,camp_ethiopia_015,False,1.0,0.0,1.0,
9.767104616960115,34.779412,Bambasi,ethiopia,unhcr_hdx,camp,camp_ethiopia_016_r-1c+0,camp_ethiopia_016,False,-1.0,0.0,1.0,
9.778603,34.76774409862024,Bambasi,ethiopia,unhcr_hdx,camp,camp_ethiopia_016_r+0c-1,camp_ethiopia_016,False,0.0,-1.0,1.0,
9.778603,34.779412,Bambasi,ethiopia,unhcr_hdx,camp,camp_ethiopia_016_r+0c+0,camp_ethiopia_016,True,0.0,0.0,0.0,
9.778603,34.79107990137976,Bambasi,ethiopia,unhcr_hdx,camp,camp_ethiopia_016_r+0c+1,camp_ethiopia_016,False,0.0,1.0,1.0,
9.790101383039886,34.779412,Bambasi,ethiopia,unhcr_hdx,camp,camp_ethiopia_016_r+1c+0,camp_ethiopia_016,False,1.0,0.0,1.0,
6.4808206169601155,35.132353,Okugo,ethiopia,unhcr_hdx,camp,camp_ethiopia_017_r-1c+0,camp_ethiopia_017,False,-1.0,0.0,1.0,
6.492319,35.120780402151986,Okugo,ethiopia,unhcr_hdx,camp,camp_ethiopia_017_r+0c-1,camp_ethiopia_017,False,0.0,-1.0,1.0,
6.492319,35.132353,Okugo,ethiopia,unhcr_hdx,camp,camp_ethiopia_017_r+0c+0,camp_ethiopia_017,True,0.0,0.0,0.0,
6.492319,35.14392559784802,Okugo,ethiopia,unhcr_hdx,camp,camp_ethiopia_017_r+0c+1,camp_ethiopia_017,False,0.0,1.0,1.0,
6.503817383039885,35.132353,Okugo,ethiopia,unhcr_hdx,camp,camp_ethiopia_017_r+1c+0,camp_ethiopia_017,False,1.0,0.0,1.0,
9.768501616960114,43.219,Aw-barre,ethiopia,unhcr_hdx,camp,camp_ethiopia_018_r-1c+0,camp_ethiopia_018,False,-1.0,0.0,1.0,
9.78,43.20733204958607,Aw-barre,ethiopia,unhcr_hdx,camp,camp_ethiopia_018_r+0c-1,camp_ethiopia_018,False,0.0,-1.0,1.0,
9.78,43.219,Aw-barre,ethiopia,unhcr_hdx,camp,camp_ethiopia_018_r+0c+0,camp_ethiopia_018,True,0.0,0.0,0.0,
9.78,43.23066795041393,Aw-barre,ethiopia,unhcr_hdx,camp,camp_ethiopia_018_r+0c+1,camp_ethiopia_018,False,0.0,1.0,1.0,
9.791498383039885,43.219,Aw-barre,ethiopia,unhcr_hdx,camp,camp_ethiopia_018_r+1c+0,camp_ethiopia_018,False,1.0,0.0,1.0,
9.688501616960114,43.13,Sheder,ethiopia,unhcr_hdx,camp,camp_ethiopia_019_r-1c+0,camp_ethiopia_019,False,-1.0,0.0,1.0,
9.7,43.11833484572139,Sheder,ethiopia,unhcr_hdx,camp,camp_ethiopia_019_r+0c-1,camp_ethiopia_019,False,0.0,-1.0,1.0,
9.7,43.13,Sheder,ethiopia,unhcr_hdx,camp,camp_ethiopia_019_r+0c+0,camp_ethiopia_019,True,0.0,0.0,0.0,
9.7,43.14166515427861,Sheder,ethiopia,unhcr_hdx,camp,camp_ethiopia_019_r+0c+1,camp_ethiopia_019,False,0.0,1.0,1.0,
9.711498383039885,43.13,Sheder,ethiopia,unhcr_hdx,camp,camp_ethiopia_019_r+1c+0,camp_ethiopia_019,False,1.0,0.0,1.0,
9.088781616960114,43.1751,Kebribeyah,ethiopia,unhcr_hdx,camp,camp_ethiopia_020_r-1c+0,camp_ethiopia_020,False,-1.0,0.0,1.0,
9.10028,43.16345504227117,Kebribeyah,ethiopia,unhcr_hdx,camp,camp_ethiopia_020_r+0c-1,camp_ethiopia_020,False,0.0,-1.0,1.0,
9.10028,43.1751,Kebribeyah,ethiopia,unhcr_hdx,camp,camp_ethiopia_020_r+0c+0,camp_ethiopia_020,True,0.0,0.0,0.0,
9.10028,43.186744957728834,Kebribeyah,ethiopia,unhcr_hdx,camp,camp_ethiopia_020_r+0c+1,camp_ethiopia_020,False,0.0,1.0,1.0,
9.111778383039885,43.1751,Kebribeyah,ethiopia,unhcr_hdx,camp,camp_ethiopia_020_r+1c+0,camp_ethiopia_020,False,1.0,0.0,1.0,
4.358379616960115,41.862199,Helaweyn,ethiopia,unhcr_hdx,camp,camp_ethiopia_021_r-1c+0,camp_ethiopia_021,False,-1.0,0.0,1.0,
4.369878,41.850667093104626,Helaweyn,ethiopia,unhcr_hdx,camp,camp_ethiopia_021_r+0c-1,camp_ethiopia_021,False,0.0,-1.0,1.0,
4.369878,41.862199,Helaweyn,ethiopia,unhcr_hdx,camp,camp_ethiopia_021_r+0c+0,camp_ethiopia_021,True,0.0,0.0,0.0,
4.369878,41.87373090689537,Helaweyn,ethiopia,unhcr_hdx,camp,camp_ethiopia_021_r+0c+1,camp_ethiopia_021,False,0.0,1.0,1.0,
4.381376383039885,41.862199,Helaweyn,ethiopia,unhcr_hdx,camp,camp_ethiopia_021_r+1c+0,camp_ethiopia_021,False,1.0,0.0,1.0,
4.292652616960115,41.917883,Buramino,ethiopia,unhcr_hdx,camp,camp_ethiopia_022_r-1c+0,camp_ethiopia_022,False,-1.0,0.0,1.0,
4.304151,41.90635209633872,Buramino,ethiopia,unhcr_hdx,camp,camp_ethiopia_022_r+0c-1,camp_ethiopia_022,False,0.0,-1.0,1.0,
4.304151,41.917883,Buramino,ethiopia,unhcr_hdx,camp,camp_ethiopia_022_r+0c+0,camp_ethiopia_022,True,0.0,0.0,0.0,
4.304151,41.929413903661285,Buramino,ethiopia,unhcr_hdx,camp,camp_ethiopia_022_r+0c+1,camp_ethiopia_022,False,0.0,1.0,1.0,
4.315649383039885,41.917883,Buramino,ethiopia,unhcr_hdx,camp,camp_ethiopia_022_r+1c+0,camp_ethiopia_022,False,1.0,0.0,1.0,
4.5317116169601155,41.541801,Bokolmanyo,ethiopia,unhcr_hdx,camp,camp_ethiopia_023_r-1c+0,camp_ethiopia_023,False,-1.0,0.0,1.0,
4.54321,41.53026637377784,Bokolmanyo,ethiopia,unhcr_hdx,camp,camp_ethiopia_023_r+0c-1,camp_ethiopia_023,False,0.0,-1.0,1.0,
4.54321,41.541801,Bokolmanyo,ethiopia,unhcr_hdx,camp,camp_ethiopia_023_r+0c+0,camp_ethiopia_023,True,0.0,0.0,0.0,
4.54321,41.55333562622216,Bokolmanyo,ethiopia,unhcr_hdx,camp,camp_ethiopia_023_r+0c+1,camp_ethiopia_023,False,0.0,1.0,1.0,
4.554708383039885,41.541801,Bokolmanyo,ethiopia,unhcr_hdx,camp,camp_ethiopia_023_r+1c+0,camp_ethiopia_023,False,1.0,0.0,1.0,
4.511101616960115,41.7226,Melkadida,ethiopia,unhcr_hdx,camp,camp_ethiopia_024_r-1c+0,camp_ethiopia_024,False,-1.0,0.0,1.0,
4.5226,41.71106570271588,Melkadida,ethiopia,unhcr_hdx,camp,camp_ethiopia_024_r+0c-1,camp_ethiopia_024,False,0.0,-1.0,1.0,
4.5226,41.7226,Melkadida,ethiopia,unhcr_hdx,camp,camp_ethiopia_024_r+0c+0,camp_ethiopia_024,True,0.0,0.0,0.0,
4.5226,41.73413429728412,Melkadida,ethiopia,unhcr_hdx,camp,camp_ethiopia_024_r+0c+1,camp_ethiopia_024,False,0.0,1.0,1.0,
4.534098383039884,41.7226,Melkadida,ethiopia,unhcr_hdx,camp,camp_ethiopia_024_r+1c+0,camp_ethiopia_024,False,1.0,0.0,1.0,
4.469502616960115,41.7469,Kobe,ethiopia,unhcr_hdx,camp,camp_ethiopia_025_r-1c+0,camp_ethiopia_025,False,-1.0,0.0,1.0,
4.481001,41.73536636203794,Kobe,ethiopia,unhcr_hdx,camp,camp_ethiopia_025_r+0c-1,camp_ethiopia_025,False,0.0,-1.0,1.0,
4.481001,41.7469,Kobe,ethiopia,unhcr_hdx,camp,camp_ethiopia_025_r+0c+0,camp_ethiopia_025,True,0.0,0.0,0.0,
4.481001,41.75843363796206,Kobe,ethiopia,unhcr_hdx,camp,camp_ethiopia_025_r+0c+1,camp_ethiopia_025,False,0.0,1.0,1.0,
4.492499383039885,41.7469,Kobe,ethiopia,unhcr_hdx,camp,camp_ethiopia_025_r+1c+0,camp_ethiopia_025,False,1.0,0.0,1.0,
15.072501616960114,21.937,Iridimi,chad,unhcr_known,camp,camp_chad_000_r-1c+0,camp_chad_000,False,-1.0,0.0,1.0,
15.084,21.92509130698919,Iridimi,chad,unhcr_known,camp,camp_chad_000_r+0c-1,camp_chad_000,False,0.0,-1.0,1.0,
15.084,21.937,Iridimi,chad,unhcr_known,camp,camp_chad_000_r+0c+0,camp_chad_000,True,0.0,0.0,0.0,
15.084,21.94890869301081,Iridimi,chad,unhcr_known,camp,camp_chad_000_r+0c+1,camp_chad_000,False,0.0,1.0,1.0,
15.095498383039885,21.937,Iridimi,chad,unhcr_known,camp,camp_chad_000_r+1c+0,camp_chad_000,False,1.0,0.0,1.0,
14.588501616960114,21.95,Touloum,chad,unhcr_known,camp,camp_chad_001_r-1c+0,camp_chad_001,False,-1.0,0.0,1.0,
14.6,21.93811793523238,Touloum,chad,unhcr_known,camp,camp_chad_001_r+0c-1,camp_chad_001,False,0.0,-1.0,1.0,
14.6,21.95,Touloum,chad,unhcr_known,camp,camp_chad_001_r+0c+0,camp_chad_001,True,0.0,0.0,0.0,
14.6,21.961882064767618,Touloum,chad,unhcr_known,camp,camp_chad_001_r+0c+1,camp_chad_001,False,0.0,1.0,1.0,
14.611498383039885,21.95,Touloum,chad,unhcr_known,camp,camp_chad_001_r+1c+0,camp_chad_001,False,1.0,0.0,1.0,
14.258501616960114,21.51,Am Nabak,chad,unhcr_known,camp,camp_chad_002_r-1c+0,camp_chad_002,False,-1.0,0.0,1.0,
14.27,21.498135538122188,Am Nabak,chad,unhcr_known,camp,camp_chad_002_r+0c-1,camp_chad_002,False,0.0,-1.0,1.0,
14.27,21.51,Am Nabak,chad,unhcr_known,camp,camp_chad_002_r+0c+0,camp_chad_002,True,0.0,0.0,0.0,
14.27,21.521864461877815,Am Nabak,chad,unhcr_known,camp,camp_chad_002_r+0c+1,camp_chad_002,False,0.0,1.0,1.0,
14.281498383039885,21.51,Am Nabak,chad,unhcr_known,camp,camp_chad_002_r+1c+0,camp_chad_002,False,1.0,0.0,1.0,
13.671501616960114,21.467,Farchana,chad,unhcr_known,camp,camp_chad_003_r-1c+0,camp_chad_003,False,-1.0,0.0,1.0,
13.683,21.45516575332989,Farchana,chad,unhcr_known,camp,camp_chad_003_r+0c-1,camp_chad_003,False,0.0,-1.0,1.0,
13.683,21.467,Farchana,chad,unhcr_known,camp,camp_chad_003_r+0c+0,camp_chad_003,True,0.0,0.0,0.0,
13.683,21.478834246670107,Farchana,chad,unhcr_known,camp,camp_chad_003_r+0c+1,camp_chad_003,False,0.0,1.0,1.0,
13.694498383039885,21.467,Farchana,chad,unhcr_known,camp,camp_chad_003_r+1c+0,camp_chad_003,False,1.0,0.0,1.0,
13.188501616960114,21.35,Gaga,chad,unhcr_known,camp,camp_chad_004_r-1c+0,camp_chad_004,False,-1.0,0.0,1.0,
13.2,21.33818957250825,Gaga,chad,unhcr_known,camp,camp_chad_004_r+0c-1,camp_chad_004,False,0.0,-1.0,1.0,
13.2,21.35,Gaga,chad,unhcr_known,camp,camp_chad_004_r+0c+0,camp_chad_004,True,0.0,0.0,0.0,
13.2,21.361810427491754,Gaga,chad,unhcr_known,camp,camp_chad_004_r+0c+1,camp_chad_004,False,0.0,1.0,1.0,
13.211498383039885,21.35,Gaga,chad,unhcr_known,camp,camp_chad_004_r+1c+0,camp_chad_004,False,1.0,0.0,1.0,
13.071501616960115,21.283,Bredjing,chad,unhcr_known,camp,camp_chad_005_r-1c+0,camp_chad_005,False,-1.0,0.0,1.0,
13.083,21.271195201859406,Bredjing,chad,unhcr_known,camp,camp_chad_005_r+0c-1,camp_chad_005,False,0.0,-1.0,1.0,
13.083,21.283,Bredjing,chad,unhcr_known,camp,camp_chad_005_r+0c+0,camp_chad_005,True,0.0,0.0,0.0,
13.083,21.294804798140596,Bredjing,chad,unhcr_known,camp,camp_chad_005_r+0c+1,camp_chad_005,False,0.0,1.0,1.0,
13.094498383039886,21.283,Bredjing,chad,unhcr_known,camp,camp_chad_005_r+1c+0,camp_chad_005,False,1.0,0.0,1.0,
13.038501616960115,21.3,Treguine,chad,unhcr_known,camp,camp_chad_006_r-1c+0,camp_chad_006,False,-1.0,0.0,1.0,
13.05,21.288196779758426,Treguine,chad,unhcr_known,camp,camp_chad_006_r+0c-1,camp_chad_006,False,0.0,-1.0,1.0,
13.05,21.3,Treguine,chad,unhcr_known,camp,camp_chad_006_r+0c+0,camp_chad_006,True,0.0,0.0,0.0,
13.05,21.311803220241575,Treguine,chad,unhcr_known,camp,camp_chad_006_r+0c+1,camp_chad_006,False,0.0,1.0,1.0,
13.061498383039886,21.3,Treguine,chad,unhcr_known,camp,camp_chad_006_r+1c+0,camp_chad_006,False,1.0,0.0,1.0,
12.888501616960115,21.467,Djabal,chad,unhcr_known,camp,camp_chad_007_r-1c+0,camp_chad_007,False,-1.0,0.0,1.0,
12.9,21.45520389741774,Djabal,chad,unhcr_known,camp,camp_chad_007_r+0c-1,camp_chad_007,False,0.0,-1.0,1.0,
12.9,21.467,Djabal,chad,unhcr_known,camp,camp_chad_007_r+0c+0,camp_chad_007,True,0.0,0.0,0.0,
12.9,21.47879610258226,Djabal,chad,unhcr_known,camp,camp_chad_007_r+0c+1,camp_chad_007,False,0.0,1.0,1.0,
12.911498383039886,21.467,Djabal,chad,unhcr_known,camp,camp_chad_007_r+1c+0,camp_chad_007,False,1.0,0.0,1.0,
11.605501616960115,21.383,Goz Amer,chad,unhcr_known,camp,camp_chad_008_r-1c+0,camp_chad_008,False,-1.0,0.0,1.0,
11.617,21.371261153084134,Goz Amer,chad,unhcr_known,camp,camp_chad_008_r+0c-1,camp_chad_008,False,0.0,-1.0,1.0,
11.617,21.383,Goz Amer,chad,unhcr_known,camp,camp_chad_008_r+0c+0,camp_chad_008,True,0.0,0.0,0.0,
11.617,21.394738846915864,Goz Amer,chad,unhcr_known,camp,camp_chad_008_r+0c+1,camp_chad_008,False,0.0,1.0,1.0,
11.628498383039886,21.383,Goz Amer,chad,unhcr_known,camp,camp_chad_008_r+1c+0,camp_chad_008,False,1.0,0.0,1.0,
13.271501616960114,21.333,Kounoungou,chad,unhcr_known,camp,camp_chad_009_r-1c+0,camp_chad_009,False,-1.0,0.0,1.0,
13.283,21.32118554589822,Kounoungou,chad,unhcr_known,camp,camp_chad_009_r+0c-1,camp_chad_009,False,0.0,-1.0,1.0,
13.283,21.333,Kounoungou,chad,unhcr_known,camp,camp_chad_009_r+0c+0,camp_chad_009,True,0.0,0.0,0.0,
13.283,21.344814454101776,Kounoungou,chad,unhcr_known,camp,camp_chad_009_r+0c+1,camp_chad_009,False,0.0,1.0,1.0,
13.294498383039885,21.333,Kounoungou,chad,unhcr_known,camp,camp_chad_009_r+1c+0,camp_chad_009,False,1.0,0.0,1.0,
15.305501616960115,22.217,Oure Cassoni,chad,unhcr_known,camp,camp_chad_010_r-1c+0,camp_chad_010,False,-1.0,0.0,1.0,
15.317,22.205078141621648,Oure Cassoni,chad,unhcr_known,camp,camp_chad_010_r+0c-1,camp_chad_010,False,0.0,-1.0,1.0,
15.317,22.217,Oure Cassoni,chad,unhcr_known,camp,camp_chad_010_r+0c+0,camp_chad_010,True,0.0,0.0,0.0,
15.317,22.22892185837835,Oure Cassoni,chad,unhcr_known,camp,camp_chad_010_r+0c+1,camp_chad_010,False,0.0,1.0,1.0,
15.328498383039886,22.217,Oure Cassoni,chad,unhcr_known,camp,camp_chad_010_r+1c+0,camp_chad_010,False,1.0,0.0,1.0,
14.738501616960114,21.95,Mile,chad,unhcr_known,camp,camp_chad_011_r-1c+0,camp_chad_011,False,-1.0,0.0,1.0,
14.75,21.93810978612578,Mile,chad,unhcr_known,camp,camp_chad_011_r+0c-1,camp_chad_011,False,0.0,-1.0,1.0,
14.75,21.95,Mile,chad,unhcr_known,camp,camp_chad_011_r+0c+0,camp_chad_011,True,0.0,0.0,0.0,
14.75,21.96189021387422,Mile,chad,unhcr_known,camp,camp_chad_011_r+0c+1,camp_chad_011,False,0.0,1.0,1.0,
14.761498383039886,21.95,Mile,chad,unhcr_known,camp,camp_chad_011_r+1c+0,camp_chad_011,False,1.0,0.0,1.0,
8.488501616960114,16.617,Amboko,chad,unhcr_known,camp,camp_chad_012_r-1c+0,camp_chad_012,False,-1.0,0.0,1.0,
8.5,16.605373914447846,Amboko,chad,unhcr_known,camp,camp_chad_012_r+0c-1,camp_chad_012,False,0.0,-1.0,1.0,
8.5,16.617,Amboko,chad,unhcr_known,camp,camp_chad_012_r+0c+0,camp_chad_012,True,0.0,0.0,0.0,
8.5,16.628626085552156,Amboko,chad,unhcr_known,camp,camp_chad_012_r+0c+1,camp_chad_012,False,0.0,1.0,1.0,
8.511498383039886,16.617,Amboko,chad,unhcr_known,camp,camp_chad_012_r+1c+0,camp_chad_012,False,1.0,0.0,1.0,
8.438501616960114,16.65,Gondje,chad,unhcr_known,camp,camp_chad_013_r-1c+0,camp_chad_013,False,-1.0,0.0,1.0,
8.45,16.63837542610527,Gondje,chad,unhcr_known,camp,camp_chad_013_r+0c-1,camp_chad_013,False,0.0,-1.0,1.0,
8.45,16.65,Gondje,chad,unhcr_known,camp,camp_chad_013_r+0c+0,camp_chad_013,True,0.0,0.0,0.0,
8.45,16.661624573894727,Gondje,chad,unhcr_known,camp,camp_chad_013_r+0c+1,camp_chad_013,False,0.0,1.0,1.0,
8.461498383039885,16.65,Gondje,chad,unhcr_known,camp,camp_chad_013_r+1c+0,camp_chad_013,False,1.0,0.0,1.0,
8.321501616960115,16.733,Dosseye,chad,unhcr_known,camp,camp_chad_014_r-1c+0,camp_chad_014,False,-1.0,0.0,1.0,
8.333,16.72137892727264,Dosseye,chad,unhcr_known,camp,camp_chad_014_r+0c-1,camp_chad_014,False,0.0,-1.0,1.0,
8.333,16.733,Dosseye,chad,unhcr_known,camp,camp_chad_014_r+0c+0,camp_chad_014,True,0.0,0.0,0.0,
8.333,16.744621072727362,Dosseye,chad,unhcr_known,camp,camp_chad_014_r+0c+1,camp_chad_014,False,0.0,1.0,1.0,
8.344498383039886,16.733,Dosseye,chad,unhcr_known,camp,camp_chad_014_r+1c+0,camp_chad_014,False,1.0,0.0,1.0,
8.271501616960114,16.617,Belom,chad,unhcr_known,camp,camp_chad_015_r-1c+0,camp_chad_015,False,-1.0,0.0,1.0,
8.283,16.605380408080077,Belom,chad,unhcr_known,camp,camp_chad_015_r+0c-1,camp_chad_015,False,0.0,-1.0,1.0,
8.283,16.617,Belom,chad,unhcr_known,camp,camp_chad_015_r+0c+0,camp_chad_015,True,0.0,0.0,0.0,
8.283,16.628619591919925,Belom,chad,unhcr_known,camp,camp_chad_015_r+0c+1,camp_chad_015,False,0.0,1.0,1.0,
8.294498383039885,16.617,Belom,chad,unhcr_known,camp,camp_chad_015_r+1c+0,camp_chad_015,False,1.0,0.0,1.0,
8.805501616960115,17.05,Moyo,chad,unhcr_known,camp,camp_chad_016_r-1c+0,camp_chad_016,False,-1.0,0.0,1.0,
8.817,17.038364115081286,Moyo,chad,unhcr_known,camp,camp_chad_016_r+0c-1,camp_chad_016,False,0.0,-1.0,1.0,
8.817,17.05,Moyo,chad,unhcr_known,camp,camp_chad_016_r+0c+0,camp_chad_016,True,0.0,0.0,0.0,
8.817,17.061635884918715,Moyo,chad,unhcr_known,camp,camp_chad_016_r+0c+1,camp_chad_016,False,0.0,1.0,1.0,
8.828498383039886,17.05,Moyo,chad,unhcr_known,camp,camp_chad_016_r+1c+0,camp_chad_016,False,1.0,0.0,1.0,
13.788501616960115,14.5,Dar es Salam,chad,unhcr_known,camp,camp_chad_017_r-1c+0,camp_chad_017,False,-1.0,0.0,1.0,
13.8,14.48815984228159,Dar es Salam,chad,unhcr_known,camp,camp_chad_017_r+0c-1,camp_chad_017,False,0.0,-1.0,1.0,
13.8,14.5,Dar es Salam,chad,unhcr_known,camp,camp_chad_017_r+0c+0,camp_chad_017,True,0.0,0.0,0.0,
13.8,14.51184015771841,Dar es Salam,chad,unhcr_known,camp,camp_chad_017_r+0c+1,camp_chad_017,False,0.0,1.0,1.0,
13.811498383039886,14.5,Dar es Salam,chad,unhcr_known,camp,camp_chad_017_r+1c+0,camp_chad_017,False,1.0,0.0,1.0,
13.638501616960115,14.717,Baga Sola,chad,unhcr_known,camp,camp_chad_018_r-1c+0,camp_chad_018,False,-1.0,0.0,1.0,
13.65,14.705167410563094,Baga Sola,chad,unhcr_known,camp,camp_chad_018_r+0c-1,camp_chad_018,False,0.0,-1.0,1.0,
13.65,14.717,Baga Sola,chad,unhcr_known,camp,camp_chad_018_r+0c+0,camp_chad_018,True,0.0,0.0,0.0,
13.65,14.728832589436907,Baga Sola,chad,unhcr_known,camp,camp_chad_018_r+0c+1,camp_chad_018,False,0.0,1.0,1.0,
13.661498383039886,14.717,Baga Sola,chad,unhcr_known,camp,camp_chad_018_r+1c+0,camp_chad_018,False,1.0,0.0,1.0,
37.031501616960114,35.49,Adana,turkey,unhcr_hdx,camp,camp_turkey_000_r-1c+0,camp_turkey_000,False,-1.0,0.0,1.0,
37.043,35.47559431359466,Adana,turkey,unhcr_hdx,camp,camp_turkey_000_r+0c-1,camp_turkey_000,False,0.0,-1.0,1.0,
37.043,35.49,Adana,turkey,unhcr_hdx,camp,camp_turkey_000_r+0c+0,camp_turkey_000,True,0.0,0.0,0.0,
37.043,35.50440568640534,Adana,turkey,unhcr_hdx,camp,camp_turkey_000_r+0c+1,camp_turkey_000,False,0.0,1.0,1.0,
37.054498383039885,35.49,Adana,turkey,unhcr_hdx,camp,camp_turkey_000_r+1c+0,camp_turkey_000,False,1.0,0.0,1.0,
37.534501616960114,38.229,Adiyaman,turkey,unhcr_hdx,camp,camp_turkey_001_r-1c+0,camp_turkey_001,False,-1.0,0.0,1.0,
37.546,38.214497666543004,Adiyaman,turkey,unhcr_hdx,camp,camp_turkey_001_r+0c-1,camp_turkey_001,False,0.0,-1.0,1.0,
37.546,38.229,Adiyaman,turkey,unhcr_hdx,camp,camp_turkey_001_r+0c+0,camp_turkey_001,True,0.0,0.0,0.0,
37.546,38.243502333456995,Adiyaman,turkey,unhcr_hdx,camp,camp_turkey_001_r+0c+1,camp_turkey_001,False,0.0,1.0,1.0,
37.557498383039885,38.229,Adiyaman,turkey,unhcr_hdx,camp,camp_turkey_001_r+1c+0,camp_turkey_001,False,1.0,0.0,1.0,
36.11850161696012,36.239,Altinozu 1,syria,unhcr_hdx,camp,camp_syria_000_r-1c+0,camp_syria_000,False,-1.0,0.0,1.0,
36.13,36.22476371217517,Altinozu 1,syria,unhcr_hdx,camp,camp_syria_000_r+0c-1,camp_syria_000,False,0.0,-1.0,1.0,
36.13,36.239,Altinozu 1,syria,unhcr_hdx,camp,camp_syria_000_r+0c+0,camp_syria_000,True,0.0,0.0,0.0,
36.13,36.253236287824826,Altinozu 1,syria,unhcr_hdx,camp,camp_syria_000_r+0c+1,camp_syria_000,False,0.0,1.0,1.0,
36.14149838303989,36.239,Altinozu 1,syria,unhcr_hdx,camp,camp_syria_000_r+1c+0,camp_syria_000,False,1.0,0.0,1.0,
36.171501616960114,36.364,Altinozu 2,syria,unhcr_hdx,camp,camp_syria_001_r-1c+0,camp_syria_001,False,-1.0,0.0,1.0,
36.183,36.34975408607746,Altinozu 2,syria,unhcr_hdx,camp,camp_syria_001_r+0c-1,camp_syria_001,False,0.0,-1.0,1.0,
36.183,36.364,Altinozu 2,syria,unhcr_hdx,camp,camp_syria_001_r+0c+0,camp_syria_001,True,0.0,0.0,0.0,
36.183,36.378245913922534,Altinozu 2,syria,unhcr_hdx,camp,camp_syria_001_r+0c+1,camp_syria_001,False,0.0,1.0,1.0,
36.194498383039885,36.364,Altinozu 2,syria,unhcr_hdx,camp,camp_syria_001_r+1c+0,camp_syria_001,False,1.0,0.0,1.0,
36.223501616960114,36.352,Apaydin,syria,unhcr_hdx,camp,camp_syria_002_r-1c+0,camp_syria_002,False,-1.0,0.0,1.0,
36.235,36.33774461708149,Apaydin,syria,unhcr_hdx,camp,camp_syria_002_r+0c-1,camp_syria_002,False,0.0,-1.0,1.0,
36.235,36.352,Apaydin,syria,unhcr_hdx,camp,camp_syria_002_r+0c+0,camp_syria_002,True,0.0,0.0,0.0,
36.235,36.3662553829185,Apaydin,syria,unhcr_hdx,camp,camp_syria_002_r+0c+1,camp_syria_002,False,0.0,1.0,1.0,
36.246498383039885,36.352,Apaydin,syria,unhcr_hdx,camp,camp_syria_002_r+1c+0,camp_syria_002,False,1.0,0.0,1.0,
36.802501616960114,39.924,Ceylanpinar,syria,unhcr_hdx,camp,camp_syria_003_r-1c+0,camp_syria_003,False,-1.0,0.0,1.0,
36.814,39.90963752336566,Ceylanpinar,syria,unhcr_hdx,camp,camp_syria_003_r+0c-1,camp_syria_003,False,0.0,-1.0,1.0,
36.814,39.924,Ceylanpinar,syria,unhcr_hdx,camp,camp_syria_003_r+0c+0,camp_syria_003,True,0.0,0.0,0.0,
36.814,39.93836247663434,Ceylanpinar,syria,unhcr_hdx,camp,camp_syria_003_r+0c+1,camp_syria_003,False,0.0,1.0,1.0,
36.825498383039886,39.924,Ceylanpinar,syria,unhcr_hdx,camp,camp_syria_003_r+1c+0,camp_syria_003,False,1.0,0.0,1.0,
37.35183461696011,40.271111,Derik,turkey,unhcr_hdx,camp,camp_turkey_002_r-1c+0,camp_turkey_002,False,-1.0,0.0,1.0,
37.363333,40.25664404301573,Derik,turkey,unhcr_hdx,camp,camp_turkey_002_r+0c-1,camp_turkey_002,False,0.0,-1.0,1.0,
37.363333,40.271111,Derik,turkey,unhcr_hdx,camp,camp_turkey_002_r+0c+0,camp_turkey_002,True,0.0,0.0,0.0,
37.363333,40.28557795698426,Derik,turkey,unhcr_hdx,camp,camp_turkey_002_r+0c+1,camp_turkey_002,False,0.0,1.0,1.0,
37.37483138303988,40.271111,Derik,turkey,unhcr_hdx,camp,camp_turkey_002_r+1c+0,camp_turkey_002,False,1.0,0.0,1.0,
36.86150161696011,38.932,Harran Kokenli,syria,unhcr_hdx,camp,camp_syria_004_r-1c+0,camp_syria_004,False,-1.0,0.0,1.0,
36.873,38.91762643747271,Harran Kokenli,syria,unhcr_hdx,camp,camp_syria_004_r+0c-1,camp_syria_004,False,0.0,-1.0,1.0,
36.873,38.932,Harran Kokenli,syria,unhcr_hdx,camp,camp_syria_004_r+0c+0,camp_syria_004,True,0.0,0.0,0.0,
36.873,38.94637356252729,Harran Kokenli,syria,unhcr_hdx,camp,camp_syria_004_r+0c+1,camp_syria_004,False,0.0,1.0,1.0,
36.88449838303988,38.932,Harran Kokenli,syria,unhcr_hdx,camp,camp_syria_004_r+1c+0,camp_syria_004,False,1.0,0.0,1.0,
36.97288561696011,36.61815,Islahiye,syria,unhcr_hdx,camp,camp_syria_005_r-1c+0,camp_syria_005,False,-1.0,0.0,1.0,
36.984384,36.60375542043202,Islahiye,syria,unhcr_hdx,camp,camp_syria_005_r+0c-1,camp_syria_005,False,0.0,-1.0,1.0,
36.984384,36.61815,Islahiye,syria,unhcr_hdx,camp,camp_syria_005_r+0c+0,camp_syria_005,True,0.0,0.0,0.0,
36.984384,36.63254457956798,Islahiye,syria,unhcr_hdx,camp,camp_syria_005_r+0c+1,camp_syria_005,False,0.0,1.0,1.0,
36.995882383039884,36.61815,Islahiye,syria,unhcr_hdx,camp,camp_syria_005_r+1c+0,camp_syria_005,False,1.0,0.0,1.0,
36.88650161696012,36.589,Islahiye II,syria,unhcr_hdx,camp,camp_syria_006_r-1c+0,camp_syria_006,False,-1.0,0.0,1.0,
36.898,36.57462173029559,Islahiye II,syria,unhcr_hdx,camp,camp_syria_006_r+0c-1,camp_syria_006,False,0.0,-1.0,1.0,
36.898,36.589,Islahiye II,syria,unhcr_hdx,camp,camp_syria_006_r+0c+0,camp_syria_006,True,0.0,0.0,0.0,
36.898,36.60337826970441,Islahiye II,syria,unhcr_hdx,camp,camp_syria_006_r+0c+1,camp_syria_006,False,0.0,1.0,1.0,
36.90949838303989,36.589,Islahiye II,syria,unhcr_hdx,camp,camp_syria_006_r+1c+0,camp_syria_006,False,1.0,0.0,1.0,
37.552501616960114,36.973,Kahmanaras-Turkoglu,turkey,unhcr_hdx,camp,camp_turkey_003_r-1c+0,camp_turkey_003,False,-1.0,0.0,1.0,
37.564,36.95849416319188,Kahmanaras-Turkoglu,turkey,unhcr_hdx,camp,camp_turkey_003_r+0c-1,camp_turkey_003,False,0.0,-1.0,1.0,
37.564,36.973,Kahmanaras-Turkoglu,turkey,unhcr_hdx,camp,camp_turkey_003_r+0c+0,camp_turkey_003,True,0.0,0.0,0.0,
37.564,36.98750583680812,Kahmanaras-Turkoglu,turkey,unhcr_hdx,camp,camp_turkey_003_r+0c+1,camp_turkey_003,False,0.0,1.0,1.0,
37.575498383039886,36.973,Kahmanaras-Turkoglu,turkey,unhcr_hdx,camp,camp_turkey_003_r+1c+0,camp_turkey_003,False,1.0,0.0,1.0,
36.86450161696011,38.028,Karkamis,syria,unhcr_hdx,camp,camp_syria_007_r-1c+0,camp_syria_007,False,-1.0,0.0,1.0,
36.876,38.01362587291868,Karkamis,syria,unhcr_hdx,camp,camp_syria_007_r+0c-1,camp_syria_007,False,0.0,-1.0,1.0,
36.876,38.028,Karkamis,syria,unhcr_hdx,camp,camp_syria_007_r+0c+0,camp_syria_007,True,0.0,0.0,0.0,
36.876,38.04237412708132,Karkamis,syria,unhcr_hdx,camp,camp_syria_007_r+0c+1,camp_syria_007,False,0.0,1.0,1.0,
36.88749838303988,38.028,Karkamis,syria,unhcr_hdx,camp,camp_syria_007_r+1c+0,camp_syria_007,False,1.0,0.0,1.0,
36.649501616960116,37.363,Kilis-Elbeyli,syria,unhcr_hdx,camp,camp_syria_008_r-1c+0,camp_syria_008,False,-1.0,0.0,1.0,
36.661,37.34866612131577,Kilis-Elbeyli,syria,unhcr_hdx,camp,camp_syria_008_r+0c-1,camp_syria_008,False,0.0,-1.0,1.0,
36.661,37.363,Kilis-Elbeyli,syria,unhcr_hdx,camp,camp_syria_008_r+0c+0,camp_syria_008,True,0.0,0.0,0.0,
36.661,37.377333878684226,Kilis-Elbeyli,syria,unhcr_hdx,camp,camp_syria_008_r+0c+1,camp_syria_008,False,0.0,1.0,1.0,
36.67249838303989,37.363,Kilis-Elbeyli,syria,unhcr_hdx,camp,camp_syria_008_r+1c+0,camp_syria_008,False,1.0,0.0,1.0,
36.634501616960115,37.087,Kilis-Oncupinar,syria,unhcr_hdx,camp,camp_syria_009_r-1c+0,camp_syria_009,False,-1.0,0.0,1.0,
36.646,37.07266891341144,Kilis-Oncupinar,syria,unhcr_hdx,camp,camp_syria_009_r+0c-1,camp_syria_009,False,0.0,-1.0,1.0,
36.646,37.087,Kilis-Oncupinar,syria,unhcr_hdx,camp,camp_syria_009_r+0c+0,camp_syria_009,True,0.0,0.0,0.0,
36.646,37.101331086588566,Kilis-Oncupinar,syria,unhcr_hdx,camp,camp_syria_009_r+0c+1,camp_syria_009,False,0.0,1.0,1.0,
36.657498383039886,37.087,Kilis-Oncupinar,syria,unhcr_hdx,camp,camp_syria_009_r+1c+0,camp_syria_009,False,1.0,0.0,1.0,
38.32850161696012,38.153,Malatya-Beydagi,turkey,unhcr_hdx,camp,camp_turkey_004_r-1c+0,camp_turkey_004,False,-1.0,0.0,1.0,
38.34,38.13834011799914,Malatya-Beydagi,turkey,unhcr_hdx,camp,camp_turkey_004_r+0c-1,camp_turkey_004,False,0.0,-1.0,1.0,
38.34,38.153,Malatya-Beydagi,turkey,unhcr_hdx,camp,camp_turkey_004_r+0c+0,camp_turkey_004,True,0.0,0.0,0.0,
38.34,38.167659882000855,Malatya-Beydagi,turkey,unhcr_hdx,camp,camp_turkey_004_r+0c+1,camp_turkey_004,False,0.0,1.0,1.0,
38.35149838303989,38.153,Malatya-Beydagi,turkey,unhcr_hdx,camp,camp_turkey_004_r+1c+0,camp_turkey_004,False,1.0,0.0,1.0,
37.399501616960116,41.389,Midyat 1,turkey,unhcr_hdx,camp,camp_turkey_005_r-1c+0,camp_turkey_005,False,-1.0,0.0,1.0,
37.411,41.374523842352225,Midyat 1,turkey,unhcr_hdx,camp,camp_turkey_005_r+0c-1,camp_turkey_005,False,0.0,-1.0,1.0,
37.411,41.389,Midyat 1,turkey,unhcr_hdx,camp,camp_turkey_005_r+0c+0,camp_turkey_005,True,0.0,0.0,0.0,
37.411,41.40347615764778,Midyat 1,turkey,unhcr_hdx,camp,camp_turkey_005_r+0c+1,camp_turkey_005,False,0.0,1.0,1.0,
37.42249838303989,41.389,Midyat 1,turkey,unhcr_hdx,camp,camp_turkey_005_r+1c+0,camp_turkey_005,False,1.0,0.0,1.0,
37.03155861696011,37.903607,Nizip 1,syria,unhcr_hdx,camp,camp_syria_010_r-1c+0,camp_syria_010,False,-1.0,0.0,1.0,
37.043057,37.88920130277835,Nizip 1,syria,unhcr_hdx,camp,camp_syria_010_r+0c-1,camp_syria_010,False,0.0,-1.0,1.0,
37.043057,37.903607,Nizip 1,syria,unhcr_hdx,camp,camp_syria_010_r+0c+0,camp_syria_010,True,0.0,0.0,0.0,
37.043057,37.91801269722165,Nizip 1,syria,unhcr_hdx,camp,camp_syria_010_r+0c+1,camp_syria_010,False,0.0,1.0,1.0,
37.05455538303988,37.903607,Nizip 1,syria,unhcr_hdx,camp,camp_syria_010_r+1c+0,camp_syria_010,False,1.0,0.0,1.0,
37.12350161696011,36.205,Osmaniye,syria,unhcr_hdx,camp,camp_syria_011_r-1c+0,camp_syria_011,False,-1.0,0.0,1.0,
37.135,36.190576815921716,Osmaniye,syria,unhcr_hdx,camp,camp_syria_011_r+0c-1,camp_syria_011,False,0.0,-1.0,1.0,
37.135,36.205,Osmaniye,syria,unhcr_hdx,camp,camp_syria_011_r+0c+0,camp_syria_011,True,0.0,0.0,0.0,
37.135,36.21942318407828,Osmaniye,syria,unhcr_hdx,camp,camp_syria_011_r+0c+1,camp_syria_011,False,0.0,1.0,1.0,
37.146498383039884,36.205,Osmaniye,syria,unhcr_hdx,camp,camp_syria_011_r+1c+0,camp_syria_011,False,1.0,0.0,1.0,
36.902501616960116,38.561,Suruc,syria,unhcr_hdx,camp,camp_syria_012_r-1c+0,camp_syria_012,False,-1.0,0.0,1.0,
36.914,38.546618714646634,Suruc,syria,unhcr_hdx,camp,camp_syria_012_r+0c-1,camp_syria_012,False,0.0,-1.0,1.0,
36.914,38.561,Suruc,syria,unhcr_hdx,camp,camp_syria_012_r+0c+0,camp_syria_012,True,0.0,0.0,0.0,
36.914,38.575381285353366,Suruc,syria,unhcr_hdx,camp,camp_syria_012_r+0c+1,camp_syria_012,False,0.0,1.0,1.0,
36.92549838303989,38.561,Suruc,syria,unhcr_hdx,camp,camp_syria_012_r+1c+0,camp_syria_012,False,1.0,0.0,1.0,
35.89550161696011,36.052,Yayladagi 1,syria,unhcr_hdx,camp,camp_syria_013_r-1c+0,camp_syria_013,False,-1.0,0.0,1.0,
35.907,36.03780393952402,Yayladagi 1,syria,unhcr_hdx,camp,camp_syria_013_r+0c-1,camp_syria_013,False,0.0,-1.0,1.0,
35.907,36.052,Yayladagi 1,syria,unhcr_hdx,camp,camp_syria_013_r+0c+0,camp_syria_013,True,0.0,0.0,0.0,
35.907,36.06619606047598,Yayladagi 1,syria,unhcr_hdx,camp,camp_syria_013_r+0c+1,camp_syria_013,False,0.0,1.0,1.0,
35.91849838303988,36.052,Yayladagi 1,syria,unhcr_hdx,camp,camp_syria_013_r+1c+0,camp_syria_013,False,1.0,0.0,1.0,
36.74149961696011,38.952426,Akcakale,syria,unhcr_hdx,camp,camp_syria_014_r-1c+0,camp_syria_014,False,-1.0,0.0,1.0,
36.752998,38.9380749514729,Akcakale,syria,unhcr_hdx,camp,camp_syria_014_r+0c-1,camp_syria_014,False,0.0,-1.0,1.0,
36.752998,38.952426,Akcakale,syria,unhcr_hdx,camp,camp_syria_014_r+0c+0,camp_syria_014,True,0.0,0.0,0.0,
36.752998,38.966777048527106,Akcakale,syria,unhcr_hdx,camp,camp_syria_014_r+0c+1,camp_syria_014,False,0.0,1.0,1.0,
36.764496383039884,38.952426,Akcakale,syria,unhcr_hdx,camp,camp_syria_014_r+1c+0,camp_syria_014,False,1.0,0.0,1.0,
36.92338561696011,40.02404,Viransehir,syria,unhcr_hdx,camp,camp_syria_015_r-1c+0,camp_syria_015,False,-1.0,0.0,1.0,
36.934884,40.00965477487907,Viransehir,syria,unhcr_hdx,camp,camp_syria_015_r+0c-1,camp_syria_015,False,0.0,-1.0,1.0,
36.934884,40.02404,Viransehir,syria,unhcr_hdx,camp,camp_syria_015_r+0c+0,camp_syria_015,True,0.0,0.0,0.0,
36.934884,40.03842522512093,Viransehir,syria,unhcr_hdx,camp,camp_syria_015_r+0c+1,camp_syria_015,False,0.0,1.0,1.0,
36.94638238303988,40.02404,Viransehir,syria,unhcr_hdx,camp,camp_syria_015_r+1c+0,camp_syria_015,False,1.0,0.0,1.0,
3.371501616960115,31.358,Bidi Bidi,uganda,unhcr_known,camp,camp_uganda_000_r-1c+0,camp_uganda_000,False,-1.0,0.0,1.0,
3.383,31.346481544675708,Bidi Bidi,uganda,unhcr_known,camp,camp_uganda_000_r+0c-1,camp_uganda_000,False,0.0,-1.0,1.0,
3.383,31.358,Bidi Bidi,uganda,unhcr_known,camp,camp_uganda_000_r+0c+0,camp_uganda_000,True,0.0,0.0,0.0,
3.383,31.369518455324293,Bidi Bidi,uganda,unhcr_known,camp,camp_uganda_000_r+0c+1,camp_uganda_000,False,0.0,1.0,1.0,
3.394498383039885,31.358,Bidi Bidi,uganda,unhcr_known,camp,camp_uganda_000_r+1c+0,camp_uganda_000,False,1.0,0.0,1.0,
3.460501616960115,31.637,Palorinya,uganda,unhcr_known,camp,camp_uganda_001_r-1c+0,camp_uganda_001,False,-1.0,0.0,1.0,
3.472,31.625480473020147,Palorinya,uganda,unhcr_known,camp,camp_uganda_001_r+0c-1,camp_uganda_001,False,0.0,-1.0,1.0,
3.472,31.637,Palorinya,uganda,unhcr_known,camp,camp_uganda_001_r+0c+0,camp_uganda_001,True,0.0,0.0,0.0,
3.472,31.648519526979854,Palorinya,uganda,unhcr_known,camp,camp_uganda_001_r+0c+1,camp_uganda_001,False,0.0,1.0,1.0,
3.483498383039885,31.637,Palorinya,uganda,unhcr_known,camp,camp_uganda_001_r+1c+0,camp_uganda_001,False,1.0,0.0,1.0,
3.1555016169601147,31.25,Rhino Camp,uganda,unhcr_known,camp,camp_uganda_002_r-1c+0,camp_uganda_002,False,-1.0,0.0,1.0,
3.167,31.238484029187397,Rhino Camp,uganda,unhcr_known,camp,camp_uganda_002_r+0c-1,camp_uganda_002,False,0.0,-1.0,1.0,
3.167,31.25,Rhino Camp,uganda,unhcr_known,camp,camp_uganda_002_r+0c+0,camp_uganda_002,True,0.0,0.0,0.0,
3.167,31.261515970812603,Rhino Camp,uganda,unhcr_known,camp,camp_uganda_002_r+0c+1,camp_uganda_002,False,0.0,1.0,1.0,
3.178498383039885,31.25,Rhino Camp,uganda,unhcr_known,camp,camp_uganda_002_r+1c+0,camp_uganda_002,False,1.0,0.0,1.0,
3.2885016169601147,31.15,Imvepi,uganda,unhcr_known,camp,camp_uganda_003_r-1c+0,camp_uganda_003,False,-1.0,0.0,1.0,
3.3,31.138482518864247,Imvepi,uganda,unhcr_known,camp,camp_uganda_003_r+0c-1,camp_uganda_003,False,0.0,-1.0,1.0,
3.3,31.15,Imvepi,uganda,unhcr_known,camp,camp_uganda_003_r+0c+0,camp_uganda_003,True,0.0,0.0,0.0,
3.3,31.16151748113575,Imvepi,uganda,unhcr_known,camp,camp_uganda_003_r+0c+1,camp_uganda_003,False,0.0,1.0,1.0,
3.311498383039885,31.15,Imvepi,uganda,unhcr_known,camp,camp_uganda_003_r+1c+0,camp_uganda_003,False,1.0,0.0,1.0,
3.3685016169601147,31.78,Adjumani,uganda,unhcr_known,camp,camp_uganda_004_r-1c+0,camp_uganda_004,False,-1.0,0.0,1.0,
3.38,31.76848158031127,Adjumani,uganda,unhcr_known,camp,camp_uganda_004_r+0c-1,camp_uganda_004,False,0.0,-1.0,1.0,
3.38,31.78,Adjumani,uganda,unhcr_known,camp,camp_uganda_004_r+0c+0,camp_uganda_004,True,0.0,0.0,0.0,
3.38,31.79151841968873,Adjumani,uganda,unhcr_known,camp,camp_uganda_004_r+0c+1,camp_uganda_004,False,0.0,1.0,1.0,
3.391498383039885,31.78,Adjumani,uganda,unhcr_known,camp,camp_uganda_004_r+1c+0,camp_uganda_004,False,1.0,0.0,1.0,
2.0385016169601147,32.167,Kiryandongo,uganda,unhcr_known,camp,camp_uganda_005_r-1c+0,camp_uganda_005,False,-1.0,0.0,1.0,
2.05,32.15549425317776,Kiryandongo,uganda,unhcr_known,camp,camp_uganda_005_r+0c-1,camp_uganda_005,False,0.0,-1.0,1.0,
2.05,32.167,Kiryandongo,uganda,unhcr_known,camp,camp_uganda_005_r+0c+0,camp_uganda_005,True,0.0,0.0,0.0,
2.05,32.178505746822246,Kiryandongo,uganda,unhcr_known,camp,camp_uganda_005_r+0c+1,camp_uganda_005,False,0.0,1.0,1.0,
2.061498383039885,32.167,Kiryandongo,uganda,unhcr_known,camp,camp_uganda_005_r+1c+0,camp_uganda_005,False,1.0,0.0,1.0,
9.755501616960114,33.433,Maban (Doro),south_sudan,unhcr_known,camp,camp_south_sudan_000_r-1c+0,camp_south_sudan_000,False,-1.0,0.0,1.0,
9.767,33.42133250559718,Maban (Doro),south_sudan,unhcr_known,camp,camp_south_sudan_000_r+0c-1,camp_south_sudan_000,False,0.0,-1.0,1.0,
9.767,33.433,Maban (Doro),south_sudan,unhcr_known,camp,camp_south_sudan_000_r+0c+0,camp_south_sudan_000,True,0.0,0.0,0.0,
9.767,33.44466749440282,Maban (Doro),south_sudan,unhcr_known,camp,camp_south_sudan_000_r+0c+1,camp_south_sudan_000,False,0.0,1.0,1.0,
9.778498383039885,33.433,Maban (Doro),south_sudan,unhcr_known,camp,camp_south_sudan_000_r+1c+0,camp_south_sudan_000,False,1.0,0.0,1.0,
9.738501616960114,33.4,Maban (Yusuf Batil),south_sudan,unhcr_known,camp,camp_south_sudan_001_r-1c+0,camp_south_sudan_001,False,-1.0,0.0,1.0,
9.75,33.38833310095939,Maban (Yusuf Batil),south_sudan,unhcr_known,camp,camp_south_sudan_001_r+0c-1,camp_south_sudan_001,False,0.0,-1.0,1.0,
9.75,33.4,Maban (Yusuf Batil),south_sudan,unhcr_known,camp,camp_south_sudan_001_r+0c+0,camp_south_sudan_001,True,0.0,0.0,0.0,
9.75,33.411666899040604,Maban (Yusuf Batil),south_sudan,unhcr_known,camp,camp_south_sudan_001_r+0c+1,camp_south_sudan_001,False,0.0,1.0,1.0,
9.761498383039886,33.4,Maban (Yusuf Batil),south_sudan,unhcr_known,camp,camp_south_sudan_001_r+1c+0,camp_south_sudan_001,False,1.0,0.0,1.0,
9.721501616960115,33.45,Maban (Gendrassa),south_sudan,unhcr_known,camp,camp_south_sudan_002_r-1c+0,camp_south_sudan_002,False,-1.0,0.0,1.0,
9.733,33.43833369523388,Maban (Gendrassa),south_sudan,unhcr_known,camp,camp_south_sudan_002_r+0c-1,camp_south_sudan_002,False,0.0,-1.0,1.0,
9.733,33.45,Maban (Gendrassa),south_sudan,unhcr_known,camp,camp_south_sudan_002_r+0c+0,camp_south_sudan_002,True,0.0,0.0,0.0,
9.733,33.461666304766126,Maban (Gendrassa),south_sudan,unhcr_known,camp,camp_south_sudan_002_r+0c+1,camp_south_sudan_002,False,0.0,1.0,1.0,
9.744498383039886,33.45,Maban (Gendrassa),south_sudan,unhcr_known,camp,camp_south_sudan_002_r+1c+0,camp_south_sudan_002,False,1.0,0.0,1.0,
9.788501616960115,33.417,Maban (Kaya),south_sudan,unhcr_known,camp,camp_south_sudan_003_r-1c+0,camp_south_sudan_003,False,-1.0,0.0,1.0,
9.8,33.40533134678788,Maban (Kaya),south_sudan,unhcr_known,camp,camp_south_sudan_003_r+0c-1,camp_south_sudan_003,False,0.0,-1.0,1.0,
9.8,33.417,Maban (Kaya),south_sudan,unhcr_known,camp,camp_south_sudan_003_r+0c+0,camp_south_sudan_003,True,0.0,0.0,0.0,
9.8,33.42866865321212,Maban (Kaya),south_sudan,unhcr_known,camp,camp_south_sudan_003_r+0c+1,camp_south_sudan_003,False,0.0,1.0,1.0,
9.811498383039886,33.417,Maban (Kaya),south_sudan,unhcr_known,camp,camp_south_sudan_003_r+1c+0,camp_south_sudan_003,False,1.0,0.0,1.0,
9.221501616960115,29.833,Bentiu POC,south_sudan,unhcr_known,camp,camp_south_sudan_004_r-1c+0,camp_south_sudan_004,False,-1.0,0.0,1.0,
9.233,29.821350688673547,Bentiu POC,south_sudan,unhcr_known,camp,camp_south_sudan_004_r+0c-1,camp_south_sudan_004,False,0.0,-1.0,1.0,
9.233,29.833,Bentiu POC,south_sudan,unhcr_known,camp,camp_south_sudan_004_r+0c+0,camp_south_sudan_004,True,0.0,0.0,0.0,
9.233,29.84464931132645,Bentiu POC,south_sudan,unhcr_known,camp,camp_south_sudan_004_r+0c+1,camp_south_sudan_004,False,0.0,1.0,1.0,
9.244498383039886,29.833,Bentiu POC,south_sudan,unhcr_known,camp,camp_south_sudan_004_r+1c+0,camp_south_sudan_004,False,1.0,0.0,1.0,
9.521501616960114,31.65,Malakal POC,south_sudan,unhcr_known,camp,camp_south_sudan_005_r-1c+0,camp_south_sudan_005,False,-1.0,0.0,1.0,
9.533,31.638340605116518,Malakal POC,south_sudan,unhcr_known,camp,camp_south_sudan_005_r+0c-1,camp_south_sudan_005,False,0.0,-1.0,1.0,
9.533,31.65,Malakal POC,south_sudan,unhcr_known,camp,camp_south_sudan_005_r+0c+0,camp_south_sudan_005,True,0.0,0.0,0.0,
9.533,31.66165939488348,Malakal POC,south_sudan,unhcr_known,camp,camp_south_sudan_005_r+0c+1,camp_south_sudan_005,False,0.0,1.0,1.0,
9.544498383039885,31.65,Malakal POC,south_sudan,unhcr_known,camp,camp_south_sudan_005_r+1c+0,camp_south_sudan_005,False,1.0,0.0,1.0,
4.8215016169601155,31.617,Juba POC (UN House),south_sudan,unhcr_known,camp,camp_south_sudan_006_r-1c+0,camp_south_sudan_006,False,-1.0,0.0,1.0,
4.833,31.605460588571145,Juba POC (UN House),south_sudan,unhcr_known,camp,camp_south_sudan_006_r+0c-1,camp_south_sudan_006,False,0.0,-1.0,1.0,
4.833,31.617,Juba POC (UN House),south_sudan,unhcr_known,camp,camp_south_sudan_006_r+0c+0,camp_south_sudan_006,True,0.0,0.0,0.0,
4.833,31.628539411428857,Juba POC (UN House),south_sudan,unhcr_known,camp,camp_south_sudan_006_r+0c+1,camp_south_sudan_006,False,0.0,1.0,1.0,
4.844498383039885,31.617,Juba POC (UN House),south_sudan,unhcr_known,camp,camp_south_sudan_006_r+1c+0,camp_south_sudan_006,False,1.0,0.0,1.0,
7.6885016169601155,28.0,Wau POC,south_sudan,unhcr_known,camp,camp_south_sudan_007_r-1c+0,camp_south_sudan_007,False,-1.0,0.0,1.0,
7.7,27.98839699498115,Wau POC,south_sudan,unhcr_known,camp,camp_south_sudan_007_r+0c-1,camp_south_sudan_007,False,0.0,-1.0,1.0,
7.7,28.0,Wau POC,south_sudan,unhcr_known,camp,camp_south_sudan_007_r+0c+0,camp_south_sudan_007,True,0.0,0.0,0.0,
7.7,28.01160300501885,Wau POC,south_sudan,unhcr_known,camp,camp_south_sudan_007_r+0c+1,camp_south_sudan_007,False,0.0,1.0,1.0,
7.711498383039885,28.0,Wau POC,south_sudan,unhcr_known,camp,camp_south_sudan_007_r+1c+0,camp_south_sudan_007,False,1.0,0.0,1.0,
9.438501616960114,29.617,Ajuong Thok,south_sudan,unhcr_known,camp,camp_south_sudan_008_r-1c+0,camp_south_sudan_008,False,-1.0,0.0,1.0,
9.45,29.60534342862782,Ajuong Thok,south_sudan,unhcr_known,camp,camp_south_sudan_008_r+0c-1,camp_south_sudan_008,False,0.0,-1.0,1.0,
9.45,29.617,Ajuong Thok,south_sudan,unhcr_known,camp,camp_south_sudan_008_r+0c+0,camp_south_sudan_008,True,0.0,0.0,0.0,
9.45,29.628656571372183,Ajuong Thok,south_sudan,unhcr_known,camp,camp_south_sudan_008_r+0c+1,camp_south_sudan_008,False,0.0,1.0,1.0,
9.461498383039885,29.617,Ajuong Thok,south_sudan,unhcr_known,camp,camp_south_sudan_008_r+1c+0,camp_south_sudan_008,False,1.0,0.0,1.0,
9.471501616960115,29.583,Pamir,south_sudan,unhcr_known,camp,camp_south_sudan_009_r-1c+0,camp_south_sudan_009,False,-1.0,0.0,1.0,
9.483,29.571342309120364,Pamir,south_sudan,unhcr_known,camp,camp_south_sudan_009_r+0c-1,camp_south_sudan_009,False,0.0,-1.0,1.0,
9.483,29.583,Pamir,south_sudan,unhcr_known,camp,camp_south_sudan_009_r+0c+0,camp_south_sudan_009,True,0.0,0.0,0.0,
9.483,29.594657690879632,Pamir,south_sudan,unhcr_known,camp,camp_south_sudan_009_r+0c+1,camp_south_sudan_009,False,0.0,1.0,1.0,
9.494498383039886,29.583,Pamir,south_sudan,unhcr_known,camp,camp_south_sudan_009_r+1c+0,camp_south_sudan_009,False,1.0,0.0,1.0,
36.378501616960115,40.73,Al Hol,syria,unhcr_known,camp,camp_syria_016_r-1c+0,camp_syria_016,False,-1.0,0.0,1.0,
36.39,40.71571624744989,Al Hol,syria,unhcr_known,camp,camp_syria_016_r+0c-1,camp_syria_016,False,0.0,-1.0,1.0,
36.39,40.73,Al Hol,syria,unhcr_known,camp,camp_syria_016_r+0c+0,camp_syria_016,True,0.0,0.0,0.0,
36.39,40.7442837525501,Al Hol,syria,unhcr_known,camp,camp_syria_016_r+0c+1,camp_syria_016,False,0.0,1.0,1.0,
36.401498383039886,40.73,Al Hol,syria,unhcr_known,camp,camp_syria_016_r+1c+0,camp_syria_016,False,1.0,0.0,1.0,
36.36250161696012,38.86,Ain Issa,syria,unhcr_known,camp,camp_syria_017_r-1c+0,camp_syria_017,False,-1.0,0.0,1.0,
36.374,38.84571918599324,Ain Issa,syria,unhcr_known,camp,camp_syria_017_r+0c-1,camp_syria_017,False,0.0,-1.0,1.0,
36.374,38.86,Ain Issa,syria,unhcr_known,camp,camp_syria_017_r+0c+0,camp_syria_017,True,0.0,0.0,0.0,
36.374,38.87428081400676,Ain Issa,syria,unhcr_known,camp,camp_syria_017_r+0c+1,camp_syria_017,False,0.0,1.0,1.0,
36.38549838303989,38.86,Ain Issa,syria,unhcr_known,camp,camp_syria_017_r+1c+0,camp_syria_017,False,1.0,0.0,1.0,
36.57550161696012,37.05,Azaz,syria,unhcr_known,camp,camp_syria_018_r-1c+0,camp_syria_018,False,-1.0,0.0,1.0,
36.587,37.0356798755918,Azaz,syria,unhcr_known,camp,camp_syria_018_r+0c-1,camp_syria_018,False,0.0,-1.0,1.0,
36.587,37.05,Azaz,syria,unhcr_known,camp,camp_syria_018_r+0c+0,camp_syria_018,True,0.0,0.0,0.0,
36.587,37.06432012440819,Azaz,syria,unhcr_known,camp,camp_syria_018_r+0c+1,camp_syria_018,False,0.0,1.0,1.0,
36.59849838303989,37.05,Azaz,syria,unhcr_known,camp,camp_syria_018_r+1c+0,camp_syria_018,False,1.0,0.0,1.0,
36.500501616960115,36.87,Afrin,syria,unhcr_known,camp,camp_syria_019_r-1c+0,camp_syria_019,False,-1.0,0.0,1.0,
36.512,36.85569376450254,Afrin,syria,unhcr_known,camp,camp_syria_019_r+0c-1,camp_syria_019,False,0.0,-1.0,1.0,
36.512,36.87,Afrin,syria,unhcr_known,camp,camp_syria_019_r+0c+0,camp_syria_019,True,0.0,0.0,0.0,
36.512,36.884306235497455,Afrin,syria,unhcr_known,camp,camp_syria_019_r+0c+1,camp_syria_019,False,0.0,1.0,1.0,
36.523498383039886,36.87,Afrin,syria,unhcr_known,camp,camp_syria_019_r+1c+0,camp_syria_019,False,1.0,0.0,1.0,
36.35550161696011,40.617,Areesha,syria,unhcr_known,camp,camp_syria_020_r-1c+0,camp_syria_020,False,-1.0,0.0,1.0,
36.367,40.602720470875674,Areesha,syria,unhcr_known,camp,camp_syria_020_r+0c-1,camp_syria_020,False,0.0,-1.0,1.0,
36.367,40.617,Areesha,syria,unhcr_known,camp,camp_syria_020_r+0c+0,camp_syria_020,True,0.0,0.0,0.0,
36.367,40.63127952912432,Areesha,syria,unhcr_known,camp,camp_syria_020_r+0c+1,camp_syria_020,False,0.0,1.0,1.0,
36.37849838303988,40.617,Areesha,syria,unhcr_known,camp,camp_syria_020_r+1c+0,camp_syria_020,False,1.0,0.0,1.0,
37.00550161696012,41.7,Roj,syria,unhcr_known,camp,camp_syria_021_r-1c+0,camp_syria_021,False,-1.0,0.0,1.0,
37.017,41.68559924417238,Roj,syria,unhcr_known,camp,camp_syria_021_r+0c-1,camp_syria_021,False,0.0,-1.0,1.0,
37.017,41.7,Roj,syria,unhcr_known,camp,camp_syria_021_r+0c+0,camp_syria_021,True,0.0,0.0,0.0,
37.017,41.714400755827626,Roj,syria,unhcr_known,camp,camp_syria_021_r+0c+1,camp_syria_021,False,0.0,1.0,1.0,
37.02849838303989,41.7,Roj,syria,unhcr_known,camp,camp_syria_021_r+1c+0,camp_syria_021,False,1.0,0.0,1.0,
36.805501616960115,40.167,Washokani,syria,unhcr_known,camp,camp_syria_022_r-1c+0,camp_syria_022,False,-1.0,0.0,1.0,
36.817,40.15263696045629,Washokani,syria,unhcr_known,camp,camp_syria_022_r+0c-1,camp_syria_022,False,0.0,-1.0,1.0,
36.817,40.167,Washokani,syria,unhcr_known,camp,camp_syria_022_r+0c+0,camp_syria_022,True,0.0,0.0,0.0,
36.817,40.18136303954371,Washokani,syria,unhcr_known,camp,camp_syria_022_r+0c+1,camp_syria_022,False,0.0,1.0,1.0,
36.828498383039886,40.167,Washokani,syria,unhcr_known,camp,camp_syria_022_r+1c+0,camp_syria_022,False,1.0,0.0,1.0,
36.29850161696012,36.65,Atme,syria,unhcr_known,camp,camp_syria_023_r-1c+0,camp_syria_023,False,-1.0,0.0,1.0,
36.31,36.6357309169654,Atme,syria,unhcr_known,camp,camp_syria_023_r+0c-1,camp_syria_023,False,0.0,-1.0,1.0,
36.31,36.65,Atme,syria,unhcr_known,camp,camp_syria_023_r+0c+0,camp_syria_023,True,0.0,0.0,0.0,
36.31,36.6642690830346,Atme,syria,unhcr_known,camp,camp_syria_023_r+0c+1,camp_syria_023,False,0.0,1.0,1.0,
36.32149838303989,36.65,Atme,syria,unhcr_known,camp,camp_syria_023_r+1c+0,camp_syria_023,False,1.0,0.0,1.0,
36.35550161696011,36.7,Sarmada,syria,unhcr_known,camp,camp_syria_024_r-1c+0,camp_syria_024,False,-1.0,0.0,1.0,
36.367,36.68572047087568,Sarmada,syria,unhcr_known,camp,camp_syria_024_r+0c-1,camp_syria_024,False,0.0,-1.0,1.0,
36.367,36.7,Sarmada,syria,unhcr_known,camp,camp_syria_024_r+0c+0,camp_syria_024,True,0.0,0.0,0.0,
36.367,36.714279529124326,Sarmada,syria,unhcr_known,camp,camp_syria_024_r+0c+1,camp_syria_024,False,0.0,1.0,1.0,
36.37849838303988,36.7,Sarmada,syria,unhcr_known,camp,camp_syria_024_r+1c+0,camp_syria_024,False,1.0,0.0,1.0,
36.07150161696011,36.683,Maarat Misrin,syria,unhcr_known,camp,camp_syria_025_r-1c+0,camp_syria_025,False,-1.0,0.0,1.0,
36.083,36.66877222747069,Maarat Misrin,syria,unhcr_known,camp,camp_syria_025_r+0c-1,camp_syria_025,False,0.0,-1.0,1.0,
36.083,36.683,Maarat Misrin,syria,unhcr_known,camp,camp_syria_025_r+0c+0,camp_syria_025,True,0.0,0.0,0.0,
36.083,36.69722777252931,Maarat Misrin,syria,unhcr_known,camp,camp_syria_025_r+0c+1,camp_syria_025,False,0.0,1.0,1.0,
36.094498383039884,36.683,Maarat Misrin,syria,unhcr_known,camp,camp_syria_025_r+1c+0,camp_syria_025,False,1.0,0.0,1.0,
36.43850161696012,36.783,Dana,syria,unhcr_known,camp,camp_syria_026_r-1c+0,camp_syria_026,False,-1.0,0.0,1.0,
36.45,36.76870520719959,Dana,syria,unhcr_known,camp,camp_syria_026_r+0c-1,camp_syria_026,False,0.0,-1.0,1.0,
36.45,36.783,Dana,syria,unhcr_known,camp,camp_syria_026_r+0c+0,camp_syria_026,True,0.0,0.0,0.0,
36.45,36.797294792800415,Dana,syria,unhcr_known,camp,camp_syria_026_r+0c+1,camp_syria_026,False,0.0,1.0,1.0,
36.46149838303989,36.783,Dana,syria,unhcr_known,camp,camp_syria_026_r+1c+0,camp_syria_026,False,1.0,0.0,1.0,
36.22150161696011,36.583,Deir Ballut,syria,unhcr_known,camp,camp_syria_027_r-1c+0,camp_syria_027,False,-1.0,0.0,1.0,
36.233,36.56874498172356,Deir Ballut,syria,unhcr_known,camp,camp_syria_027_r+0c-1,camp_syria_027,False,0.0,-1.0,1.0,
36.233,36.583,Deir Ballut,syria,unhcr_known,camp,camp_syria_027_r+0c+0,camp_syria_027,True,0.0,0.0,0.0,
36.233,36.597255018276435,Deir Ballut,syria,unhcr_known,camp,camp_syria_027_r+0c+1,camp_syria_027,False,0.0,1.0,1.0,
36.24449838303988,36.583,Deir Ballut,syria,unhcr_known,camp,camp_syria_027_r+1c+0,camp_syria_027,False,1.0,0.0,1.0,
13.171501616960114,43.717,Kharaz,yemen,unhcr_known,camp,camp_yemen_000_r-1c+0,camp_yemen_000,False,-1.0,0.0,1.0,
13.183,43.70519039383966,Kharaz,yemen,unhcr_known,camp,camp_yemen_000_r+0c-1,camp_yemen_000,False,0.0,-1.0,1.0,
13.183,43.717,Kharaz,yemen,unhcr_known,camp,camp_yemen_000_r+0c+0,camp_yemen_000,True,0.0,0.0,0.0,
13.183,43.72880960616034,Kharaz,yemen,unhcr_known,camp,camp_yemen_000_r+0c+1,camp_yemen_000,False,0.0,1.0,1.0,
13.194498383039885,43.717,Kharaz,yemen,unhcr_known,camp,camp_yemen_000_r+1c+0,camp_yemen_000,False,1.0,0.0,1.0,
16.038501616960115,43.567,Al-Mazrak 1,yemen,unhcr_known,camp,camp_yemen_001_r-1c+0,camp_yemen_001,False,-1.0,0.0,1.0,
16.05,43.55503524008238,Al-Mazrak 1,yemen,unhcr_known,camp,camp_yemen_001_r+0c-1,camp_yemen_001,False,0.0,-1.0,1.0,
16.05,43.567,Al-Mazrak 1,yemen,unhcr_known,camp,camp_yemen_001_r+0c+0,camp_yemen_001,True,0.0,0.0,0.0,
16.05,43.57896475991762,Al-Mazrak 1,yemen,unhcr_known,camp,camp_yemen_001_r+0c+1,camp_yemen_001,False,0.0,1.0,1.0,
16.061498383039886,43.567,Al-Mazrak 1,yemen,unhcr_known,camp,camp_yemen_001_r+1c+0,camp_yemen_001,False,1.0,0.0,1.0,
16.055501616960115,43.55,Al-Mazrak 2,yemen,unhcr_known,camp,camp_yemen_002_r-1c+0,camp_yemen_002,False,-1.0,0.0,1.0,
16.067,43.5380342181643,Al-Mazrak 2,yemen,unhcr_known,camp,camp_yemen_002_r+0c-1,camp_yemen_002,False,0.0,-1.0,1.0,
16.067,43.55,Al-Mazrak 2,yemen,unhcr_known,camp,camp_yemen_002_r+0c+0,camp_yemen_002,True,0.0,0.0,0.0,
16.067,43.561965781835696,Al-Mazrak 2,yemen,unhcr_known,camp,camp_yemen_002_r+0c+1,camp_yemen_002,False,0.0,1.0,1.0,
16.078498383039886,43.55,Al-Mazrak 2,yemen,unhcr_known,camp,camp_yemen_002_r+1c+0,camp_yemen_002,False,1.0,0.0,1.0,
14.105501616960115,42.767,Markazi,yemen,unhcr_known,camp,camp_yemen_003_r-1c+0,camp_yemen_003,False,-1.0,0.0,1.0,
14.117,42.755143548454654,Markazi,yemen,unhcr_known,camp,camp_yemen_003_r+0c-1,camp_yemen_003,False,0.0,-1.0,1.0,
14.117,42.767,Markazi,yemen,unhcr_known,camp,camp_yemen_003_r+0c+0,camp_yemen_003,True,0.0,0.0,0.0,
14.117,42.77885645154535,Markazi,yemen,unhcr_known,camp,camp_yemen_003_r+0c+1,camp_yemen_003,False,0.0,1.0,1.0,
14.128498383039886,42.767,Markazi,yemen,unhcr_known,camp,camp_yemen_003_r+1c+0,camp_yemen_003,False,1.0,0.0,1.0,
15.421501616960114,50.15,Mayfa IDP camp,yemen,unhcr_known,camp,camp_yemen_004_r-1c+0,camp_yemen_004,False,-1.0,0.0,1.0,
15.433,50.138071502724124,Mayfa IDP camp,yemen,unhcr_known,camp,camp_yemen_004_r+0c-1,camp_yemen_004,False,0.0,-1.0,1.0,
15.433,50.15,Mayfa IDP camp,yemen,unhcr_known,camp,camp_yemen_004_r+0c+0,camp_yemen_004,True,0.0,0.0,0.0,
15.433,50.16192849727587,Mayfa IDP camp,yemen,unhcr_known,camp,camp_yemen_004_r+0c+1,camp_yemen_004,False,0.0,1.0,1.0,
15.444498383039885,50.15,Mayfa IDP camp,yemen,unhcr_known,camp,camp_yemen_004_r+1c+0,camp_yemen_004,False,1.0,0.0,1.0,
15.455501616960115,44.35,Dharawan,yemen,unhcr_known,camp,camp_yemen_005_r-1c+0,camp_yemen_005,False,-1.0,0.0,1.0,
15.467,44.33806954616893,Dharawan,yemen,unhcr_known,camp,camp_yemen_005_r+0c-1,camp_yemen_005,False,0.0,-1.0,1.0,
15.467,44.35,Dharawan,yemen,unhcr_known,camp,camp_yemen_005_r+0c+0,camp_yemen_005,True,0.0,0.0,0.0,
15.467,44.36193045383107,Dharawan,yemen,unhcr_known,camp,camp_yemen_005_r+0c+1,camp_yemen_005,False,0.0,1.0,1.0,
15.478498383039886,44.35,Dharawan,yemen,unhcr_known,camp,camp_yemen_005_r+1c+0,camp_yemen_005,False,1.0,0.0,1.0,
12.29275499790802,39.57317659628079,neg_rural_ethiopia_0000,ethiopia,negative,non-camp,neg_rural_0000,,,,,,rural
13.265290099781785,43.45052043589046,neg_rural_ethiopia_0001,ethiopia,negative,non-camp,neg_rural_0001,,,,,,rural
4.4820977272290925,47.62433527455134,neg_rural_ethiopia_0002,ethiopia,negative,non-camp,neg_rural_0002,,,,,,rural
12.145495175869156,44.78096457915431,neg_rural_ethiopia_0003,ethiopia,negative,non-camp,neg_rural_0003,,,,,,rural
4.872025639442022,39.74578906843351,neg_rural_ethiopia_0004,ethiopia,negative,non-camp,neg_rural_0004,,,,,,rural
7.660469298432359,46.89147483272903,neg_rural_ethiopia_0005,ethiopia,negative,non-camp,neg_rural_0005,,,,,,rural
10.798010229726836,45.331424199062454,neg_rural_ethiopia_0006,ethiopia,negative,non-camp,neg_rural_0006,,,,,,rural
8.494829144526035,36.398580826771656,neg_rural_ethiopia_0007,ethiopia,negative,non-camp,neg_rural_0007,,,,,,rural
9.772179202811943,33.94725884156263,neg_rural_ethiopia_0008,ethiopia,negative,non-camp,neg_rural_0008,,,,,,rural
12.909482166194769,42.464965986830975,neg_rural_ethiopia_0009,ethiopia,negative,non-camp,neg_rural_0009,,,,,,rural
12.110428133580946,38.30788952194803,neg_rural_ethiopia_0010,ethiopia,negative,non-camp,neg_rural_0010,,,,,,rural
14.55332030029744,46.386816819832966,neg_rural_ethiopia_0011,ethiopia,negative,non-camp,neg_rural_0011,,,,,,rural
12.343626381377524,35.90958061777952,neg_rural_ethiopia_0012,ethiopia,negative,non-camp,neg_rural_0012,,,,,,rural
8.762624332823624,33.64705648680843,neg_rural_ethiopia_0013,ethiopia,negative,non-camp,neg_rural_0013,,,,,,rural
5.172786263856125,43.23573429863682,neg_rural_ethiopia_0014,ethiopia,negative,non-camp,neg_rural_0014,,,,,,rural
11.957317171380819,47.50264598651315,neg_rural_ethiopia_0015,ethiopia,negative,non-camp,neg_rural_0015,,,,,,rural
7.143733365007366,38.546895590523036,neg_rural_ethiopia_0016,ethiopia,negative,non-camp,neg_rural_0016,,,,,,rural
8.795196271559034,35.832070386264284,neg_rural_ethiopia_0017,ethiopia,negative,non-camp,neg_rural_0017,,,,,,rural
4.892798096304569,40.12557389338901,neg_rural_ethiopia_0018,ethiopia,negative,non-camp,neg_rural_0018,,,,,,rural
6.007188420594659,43.03720992023766,neg_rural_ethiopia_0019,ethiopia,negative,non-camp,neg_rural_0019,,,,,,rural
8.42287554784308,45.48017294086756,neg_rural_ethiopia_0020,ethiopia,negative,non-camp,neg_rural_0020,,,,,,rural
11.446046022005843,37.67549962073062,neg_rural_ethiopia_0021,ethiopia,negative,non-camp,neg_rural_0021,,,,,,rural
12.962665118030861,45.061465362452026,neg_rural_ethiopia_0022,ethiopia,negative,non-camp,neg_rural_0022,,,,,,rural
7.852126575056705,37.314921558953664,neg_rural_ethiopia_0023,ethiopia,negative,non-camp,neg_rural_0023,,,,,,rural
11.241873340672468,35.08628725413965,neg_rural_ethiopia_0024,ethiopia,negative,non-camp,neg_rural_0024,,,,,,rural
5.696945246438995,33.100434046265086,neg_rural_ethiopia_0025,ethiopia,negative,non-camp,neg_rural_0025,,,,,,rural
12.44176109749957,42.96276284888049,neg_rural_ethiopia_0026,ethiopia,negative,non-camp,neg_rural_0026,,,,,,rural
11.502350200416592,44.70093546532952,neg_rural_ethiopia_0027,ethiopia,negative,non-camp,neg_rural_0027,,,,,,rural
8.672942260935526,41.521117939293404,neg_rural_ethiopia_0028,ethiopia,negative,non-camp,neg_rural_0028,,,,,,rural
5.0062675084867845,34.707951103039605,neg_rural_ethiopia_0029,ethiopia,negative,non-camp,neg_rural_0029,,,,,,rural
11.079950030972519,40.05644309214699,neg_rural_ethiopia_0030,ethiopia,negative,non-camp,neg_rural_0030,,,,,,rural
9.89456286346886,44.46498286124039,neg_rural_ethiopia_0031,ethiopia,negative,non-camp,neg_rural_0031,,,,,,rural
10.692913496806788,41.29369100986994,neg_rural_ethiopia_0032,ethiopia,negative,non-camp,neg_rural_0032,,,,,,rural
9.825290276964802,37.54925147093918,neg_rural_ethiopia_0033,ethiopia,negative,non-camp,neg_rural_0033,,,,,,rural
3.7540969191856237,39.54076083848544,neg_rural_ethiopia_0034,ethiopia,negative,non-camp,neg_rural_0034,,,,,,rural
5.8655778906963905,39.117929655869546,neg_rural_ethiopia_0035,ethiopia,negative,non-camp,neg_rural_0035,,,,,,rural
13.205601311851229,36.49909228798011,neg_rural_ethiopia_0036,ethiopia,negative,non-camp,neg_rural_0036,,,,,,rural
4.069898502007368,37.21075838032995,neg_rural_ethiopia_0037,ethiopia,negative,non-camp,neg_rural_0037,,,,,,rural
6.7733922767391945,42.918747720903426,neg_rural_ethiopia_0038,ethiopia,negative,non-camp,neg_rural_0038,,,,,,rural
9.800299430401289,44.7484731365962,neg_rural_ethiopia_0039,ethiopia,negative,non-camp,neg_rural_0039,,,,,,rural
11.032962578361683,39.08580292160106,neg_rural_ethiopia_0040,ethiopia,negative,non-camp,neg_rural_0040,,,,,,rural
12.75309421981274,35.49459379861556,neg_rural_ethiopia_0041,ethiopia,negative,non-camp,neg_rural_0041,,,,,,rural
3.6609617203080567,34.34071791163463,neg_rural_ethiopia_0042,ethiopia,negative,non-camp,neg_rural_0042,,,,,,rural
11.699908938353214,39.918158453770815,neg_rural_ethiopia_0043,ethiopia,negative,non-camp,neg_rural_0043,,,,,,rural
5.253012741096084,40.50567162655045,neg_rural_ethiopia_0044,ethiopia,negative,non-camp,neg_rural_0044,,,,,,rural
5.150066060174305,43.43480562616604,neg_rural_ethiopia_0045,ethiopia,negative,non-camp,neg_rural_0045,,,,,,rural
8.526335606345613,38.705318391447236,neg_rural_ethiopia_0046,ethiopia,negative,non-camp,neg_rural_0046,,,,,,rural
6.864373904309101,42.44423889678333,neg_rural_ethiopia_0047,ethiopia,negative,non-camp,neg_rural_0047,,,,,,rural
7.557226895258456,34.30474878974152,neg_rural_ethiopia_0048,ethiopia,negative,non-camp,neg_rural_0048,,,,,,rural
4.755887815364721,47.418464968242716,neg_rural_ethiopia_0049,ethiopia,negative,non-camp,neg_rural_0049,,,,,,rural
13.839592136230406,43.48560700716125,neg_rural_ethiopia_0050,ethiopia,negative,non-camp,neg_rural_0050,,,,,,rural
6.454845857169881,47.52764566021586,neg_rural_ethiopia_0051,ethiopia,negative,non-camp,neg_rural_0051,,,,,,rural
12.347847886566981,43.74335283738493,neg_rural_ethiopia_0052,ethiopia,negative,non-camp,neg_rural_0052,,,,,,rural
8.563163659632131,37.07362342767739,neg_rural_ethiopia_0053,ethiopia,negative,non-camp,neg_rural_0053,,,,,,rural
4.507532155143707,46.52903594815763,neg_rural_ethiopia_0054,ethiopia,negative,non-camp,neg_rural_0054,,,,,,rural
8.63686957018819,36.02545047192846,neg_rural_ethiopia_0055,ethiopia,negative,non-camp,neg_rural_0055,,,,,,rural
6.915441611490998,41.67829353412844,neg_rural_ethiopia_0056,ethiopia,negative,non-camp,neg_rural_0056,,,,,,rural
5.431119275971772,45.839214261385635,neg_rural_ethiopia_0057,ethiopia,negative,non-camp,neg_rural_0057,,,,,,rural
12.115389397806565,43.78194433926406,neg_rural_ethiopia_0058,ethiopia,negative,non-camp,neg_rural_0058,,,,,,rural
8.364749027015941,42.39963261053665,neg_rural_ethiopia_0059,ethiopia,negative,non-camp,neg_rural_0059,,,,,,rural
10.111285662807331,42.7376990233223,neg_rural_ethiopia_0060,ethiopia,negative,non-camp,neg_rural_0060,,,,,,rural
4.370265249897326,39.227111032559144,neg_rural_ethiopia_0061,ethiopia,negative,non-camp,neg_rural_0061,,,,,,rural
3.8781468576731446,40.399862288667784,neg_rural_ethiopia_0062,ethiopia,negative,non-camp,neg_rural_0062,,,,,,rural
7.190105329703703,35.1578628329907,neg_rural_ethiopia_0063,ethiopia,negative,non-camp,neg_rural_0063,,,,,,rural
4.588100099132118,41.804668582665684,neg_rural_ethiopia_0064,ethiopia,negative,non-camp,neg_rural_0064,,,,,,rural
5.360113208488821,46.86680177565196,neg_rural_ethiopia_0065,ethiopia,negative,non-camp,neg_rural_0065,,,,,,rural
10.076392495157538,38.19304706802256,neg_rural_ethiopia_0066,ethiopia,negative,non-camp,neg_rural_0066,,,,,,rural
10.189618997121478,33.332058065445466,neg_rural_ethiopia_0067,ethiopia,negative,non-camp,neg_rural_0067,,,,,,rural
14.413845360144208,40.2245515541435,neg_rural_ethiopia_0068,ethiopia,negative,non-camp,neg_rural_0068,,,,,,rural
12.393627761105789,34.23094999883658,neg_rural_ethiopia_0069,ethiopia,negative,non-camp,neg_rural_0069,,,,,,rural
8.991704221330462,40.35060491531782,neg_rural_ethiopia_0070,ethiopia,negative,non-camp,neg_rural_0070,,,,,,rural
14.175625967662553,41.56592078564113,neg_rural_ethiopia_0071,ethiopia,negative,non-camp,neg_rural_0071,,,,,,rural
8.8403932181444,36.994634946378405,neg_rural_ethiopia_0072,ethiopia,negative,non-camp,neg_rural_0072,,,,,,rural
7.209727779465925,40.80008603707307,neg_rural_ethiopia_0073,ethiopia,negative,non-camp,neg_rural_0073,,,,,,rural
8.443092678904986,33.314181198204956,neg_rural_ethiopia_0074,ethiopia,negative,non-camp,neg_rural_0074,,,,,,rural
12.894094208993172,46.432411577596504,neg_rural_ethiopia_0075,ethiopia,negative,non-camp,neg_rural_0075,,,,,,rural
5.0114620325940376,41.30054215308574,neg_rural_ethiopia_0076,ethiopia,negative,non-camp,neg_rural_0076,,,,,,rural
4.647535265646246,43.07360139559718,neg_rural_ethiopia_0077,ethiopia,negative,non-camp,neg_rural_0077,,,,,,rural
9.077392148489084,38.83171806114328,neg_urban_ethiopia_0000,ethiopia,negative,non-camp,neg_urban_0000,,,,,,urban
9.116713097090356,38.608786740544126,neg_urban_ethiopia_0001,ethiopia,negative,non-camp,neg_urban_0001,,,,,,urban
7.582877036722157,36.663468520223425,neg_urban_ethiopia_0002,ethiopia,negative,non-camp,neg_urban_0002,,,,,,urban
7.6997468889809335,36.78353202219048,neg_urban_ethiopia_0003,ethiopia,negative,non-camp,neg_urban_0003,,,,,,urban
9.130970529943149,38.68417000141618,neg_urban_ethiopia_0004,ethiopia,negative,non-camp,neg_urban_0004,,,,,,urban
7.843043782225108,36.75473042173044,neg_urban_ethiopia_0005,ethiopia,negative,non-camp,neg_urban_0005,,,,,,urban
7.592147432604337,36.98697568521762,neg_urban_ethiopia_0006,ethiopia,negative,non-camp,neg_urban_0006,,,,,,urban
7.559258814329526,36.66616782298124,neg_urban_ethiopia_0007,ethiopia,negative,non-camp,neg_urban_0007,,,,,,urban
9.1972552030601,38.89100381585177,neg_urban_ethiopia_0008,ethiopia,negative,non-camp,neg_urban_0008,,,,,,urban
9.109498887004502,38.89068529671627,neg_urban_ethiopia_0009,ethiopia,negative,non-camp,neg_urban_0009,,,,,,urban
9.02678900973912,38.68373445865909,neg_urban_ethiopia_0010,ethiopia,negative,non-camp,neg_urban_0010,,,,,,urban
7.7779244755599555,36.88819805474039,neg_urban_ethiopia_0011,ethiopia,negative,non-camp,neg_urban_0011,,,,,,urban
8.874008000502146,38.83884426008565,neg_urban_ethiopia_0012,ethiopia,negative,non-camp,neg_urban_0012,,,,,,urban
8.934485785732232,38.90725273419216,neg_urban_ethiopia_0013,ethiopia,negative,non-camp,neg_urban_0013,,,,,,urban
7.544192855668134,36.949200561964965,neg_urban_ethiopia_0014,ethiopia,negative,non-camp,neg_urban_0014,,,,,,urban
8.895182353984817,38.63453659093678,neg_urban_ethiopia_0015,ethiopia,negative,non-camp,neg_urban_0015,,,,,,urban
9.154842334701486,38.64071647965724,neg_urban_ethiopia_0016,ethiopia,negative,non-camp,neg_urban_0016,,,,,,urban
7.611716522244034,36.929865741766825,neg_urban_ethiopia_0017,ethiopia,negative,non-camp,neg_urban_0017,,,,,,urban
9.020266827032843,38.62180310091845,neg_urban_ethiopia_0018,ethiopia,negative,non-camp,neg_urban_0018,,,,,,urban
7.505017063574952,36.732676170799586,neg_urban_ethiopia_0019,ethiopia,negative,non-camp,neg_urban_0019,,,,,,urban
9.083957122500628,38.61385970166627,neg_urban_ethiopia_0020,ethiopia,negative,non-camp,neg_urban_0020,,,,,,urban
9.022278775383427,38.81993447683144,neg_urban_ethiopia_0021,ethiopia,negative,non-camp,neg_urban_0021,,,,,,urban
7.571919234597621,36.93948482942561,neg_urban_ethiopia_0022,ethiopia,negative,non-camp,neg_urban_0022,,,,,,urban
7.757546566661688,36.91603424140959,neg_urban_ethiopia_0023,ethiopia,negative,non-camp,neg_urban_0023,,,,,,urban
7.5445513693141235,36.98392251836234,neg_urban_ethiopia_0024,ethiopia,negative,non-camp,neg_urban_0024,,,,,,urban
8.983128149776979,38.67834152904114,neg_urban_ethiopia_0025,ethiopia,negative,non-camp,neg_urban_0025,,,,,,urban
9.07863111659489,38.91402437253691,neg_urban_ethiopia_0026,ethiopia,negative,non-camp,neg_urban_0026,,,,,,urban
8.94312064167754,38.90293103455233,neg_urban_ethiopia_0027,ethiopia,negative,non-camp,neg_urban_0027,,,,,,urban
9.039871295237656,38.79823104020519,neg_urban_ethiopia_0028,ethiopia,negative,non-camp,neg_urban_0028,,,,,,urban
8.878123065350271,38.62052225494301,neg_urban_ethiopia_0029,ethiopia,negative,non-camp,neg_urban_0029,,,,,,urban
7.847843488371545,36.86457531916437,neg_urban_ethiopia_0030,ethiopia,negative,non-camp,neg_urban_0030,,,,,,urban
9.175888359776076,38.85956992962067,neg_urban_ethiopia_0031,ethiopia,negative,non-camp,neg_urban_0031,,,,,,urban
9.122514841730787,38.57642124223172,neg_urban_ethiopia_0032,ethiopia,negative,non-camp,neg_urban_0032,,,,,,urban
8.879291838835664,38.86859430135779,neg_urban_ethiopia_0033,ethiopia,negative,non-camp,neg_urban_0033,,,,,,urban
8.923750667107916,38.76107705261566,neg_urban_ethiopia_0034,ethiopia,negative,non-camp,neg_urban_0034,,,,,,urban
7.7181656954520035,36.962386023359365,neg_urban_ethiopia_0035,ethiopia,negative,non-camp,neg_urban_0035,,,,,,urban
7.648525764938524,36.78470625562658,neg_urban_ethiopia_0036,ethiopia,negative,non-camp,neg_urban_0036,,,,,,urban
7.653317551094463,36.88469516920879,neg_urban_ethiopia_0037,ethiopia,negative,non-camp,neg_urban_0037,,,,,,urban
7.663402877547467,36.739222242662485,neg_urban_ethiopia_0038,ethiopia,negative,non-camp,neg_urban_0038,,,,,,urban
7.585198450679129,36.91856514088764,neg_urban_ethiopia_0039,ethiopia,negative,non-camp,neg_urban_0039,,,,,,urban
7.537900108747484,36.67396118850386,neg_urban_ethiopia_0040,ethiopia,negative,non-camp,neg_urban_0040,,,,,,urban
7.7139961189523225,36.70262236790937,neg_urban_ethiopia_0041,ethiopia,negative,non-camp,neg_urban_0041,,,,,,urban
8.951720482612666,38.62179389586961,neg_urban_ethiopia_0042,ethiopia,negative,non-camp,neg_urban_0042,,,,,,urban
7.831549370095482,36.7095914201847,neg_urban_ethiopia_0043,ethiopia,negative,non-camp,neg_urban_0043,,,,,,urban
8.89530082226914,38.611576422919526,neg_urban_ethiopia_0044,ethiopia,negative,non-camp,neg_urban_0044,,,,,,urban
8.847613285881119,38.589942347299136,neg_urban_ethiopia_0045,ethiopia,negative,non-camp,neg_urban_0045,,,,,,urban
8.859217495745783,38.78281177379995,neg_urban_ethiopia_0046,ethiopia,negative,non-camp,neg_urban_0046,,,,,,urban
9.085057229647822,38.71170696445953,neg_urban_ethiopia_0047,ethiopia,negative,non-camp,neg_urban_0047,,,,,,urban
7.681629445328003,36.96500177920446,neg_urban_ethiopia_0048,ethiopia,negative,non-camp,neg_urban_0048,,,,,,urban
9.146407385655994,38.585651022324605,neg_urban_ethiopia_0049,ethiopia,negative,non-camp,neg_urban_0049,,,,,,urban
8.925228153597581,38.6597795272996,neg_urban_ethiopia_0050,ethiopia,negative,non-camp,neg_urban_0050,,,,,,urban
9.045643754627397,38.71985447325315,neg_urban_ethiopia_0051,ethiopia,negative,non-camp,neg_urban_0051,,,,,,urban
8.974501089845445,38.75855106153835,neg_urban_ethiopia_0052,ethiopia,negative,non-camp,neg_urban_0052,,,,,,urban
8.876601885045337,38.870045079363884,neg_urban_ethiopia_0053,ethiopia,negative,non-camp,neg_urban_0053,,,,,,urban
9.172943072846502,38.60568073096876,neg_urban_ethiopia_0054,ethiopia,negative,non-camp,neg_urban_0054,,,,,,urban
9.14368698257519,38.894955131813944,neg_urban_ethiopia_0055,ethiopia,negative,non-camp,neg_urban_0055,,,,,,urban
9.128729316898493,38.85061191467768,neg_urban_ethiopia_0056,ethiopia,negative,non-camp,neg_urban_0056,,,,,,urban
7.731293979358397,36.93043868764813,neg_urban_ethiopia_0057,ethiopia,negative,non-camp,neg_urban_0057,,,,,,urban
7.692984492941149,36.83512023326855,neg_urban_ethiopia_0058,ethiopia,negative,non-camp,neg_urban_0058,,,,,,urban
9.14872597188412,38.73660777161366,neg_urban_ethiopia_0059,ethiopia,negative,non-camp,neg_urban_0059,,,,,,urban
7.730242777645359,36.7459267943003,neg_urban_ethiopia_0060,ethiopia,negative,non-camp,neg_urban_0060,,,,,,urban
8.890316627943424,38.742035818648546,neg_urban_ethiopia_0061,ethiopia,negative,non-camp,neg_urban_0061,,,,,,urban
8.923725178590393,38.70230425164144,neg_urban_ethiopia_0062,ethiopia,negative,non-camp,neg_urban_0062,,,,,,urban
8.971901281937448,38.68789840318852,neg_urban_ethiopia_0063,ethiopia,negative,non-camp,neg_urban_0063,,,,,,urban
9.08686760436414,38.67687553084566,neg_urban_ethiopia_0064,ethiopia,negative,non-camp,neg_urban_0064,,,,,,urban
9.181588853617523,38.89988528703375,neg_urban_ethiopia_0065,ethiopia,negative,non-camp,neg_urban_0065,,,,,,urban
7.618210033801688,36.842756524338796,neg_urban_ethiopia_0066,ethiopia,negative,non-camp,neg_urban_0066,,,,,,urban
9.145481775958505,38.804931442601635,neg_urban_ethiopia_0067,ethiopia,negative,non-camp,neg_urban_0067,,,,,,urban
9.031780019383666,38.79785034653634,neg_urban_ethiopia_0068,ethiopia,negative,non-camp,neg_urban_0068,,,,,,urban
7.603736021105686,36.914561538431705,neg_urban_ethiopia_0069,ethiopia,negative,non-camp,neg_urban_0069,,,,,,urban
9.09012732637466,38.879858864597324,neg_urban_ethiopia_0070,ethiopia,negative,non-camp,neg_urban_0070,,,,,,urban
8.887557021428556,38.79117670659509,neg_urban_ethiopia_0071,ethiopia,negative,non-camp,neg_urban_0071,,,,,,urban
7.761257626177714,36.68041755877647,neg_urban_ethiopia_0072,ethiopia,negative,non-camp,neg_urban_0072,,,,,,urban
9.176938336172224,38.61946685481361,neg_urban_ethiopia_0073,ethiopia,negative,non-camp,neg_urban_0073,,,,,,urban
7.788318303390635,36.86372552160788,neg_urban_ethiopia_0074,ethiopia,negative,non-camp,neg_urban_0074,,,,,,urban
7.781744677666636,36.93624134203391,neg_urban_ethiopia_0075,ethiopia,negative,non-camp,neg_urban_0075,,,,,,urban
7.591218007382107,36.86242732232899,neg_urban_ethiopia_0076,ethiopia,negative,non-camp,neg_urban_0076,,,,,,urban
7.534217711123184,36.87181965200868,neg_urban_ethiopia_0077,ethiopia,negative,non-camp,neg_urban_0077,,,,,,urban
13.390384757745508,41.576457710507746,neg_barren_ethiopia_0000,ethiopia,negative,non-camp,neg_barren_0000,,,,,,barren
13.244511730193736,44.44885085009882,neg_barren_ethiopia_0001,ethiopia,negative,non-camp,neg_barren_0001,,,,,,barren
5.096452134088504,41.983901622839184,neg_barren_ethiopia_0002,ethiopia,negative,non-camp,neg_barren_0002,,,,,,barren
3.8127216795633703,34.74655348850166,neg_barren_ethiopia_0003,ethiopia,negative,non-camp,neg_barren_0003,,,,,,barren
13.7106547435347,39.26912451185569,neg_barren_ethiopia_0004,ethiopia,negative,non-camp,neg_barren_0004,,,,,,barren
5.713734681674719,37.99456637492357,neg_barren_ethiopia_0005,ethiopia,negative,non-camp,neg_barren_0005,,,,,,barren
6.0284483109525375,37.04802411365264,neg_barren_ethiopia_0006,ethiopia,negative,non-camp,neg_barren_0006,,,,,,barren
12.526874611764095,35.354174729374996,neg_barren_ethiopia_0007,ethiopia,negative,non-camp,neg_barren_0007,,,,,,barren
14.66983136625619,39.5585605579813,neg_barren_ethiopia_0008,ethiopia,negative,non-camp,neg_barren_0008,,,,,,barren
13.958226637810922,41.2848959787935,neg_barren_ethiopia_0009,ethiopia,negative,non-camp,neg_barren_0009,,,,,,barren
6.089699249505674,40.180543461868105,neg_barren_ethiopia_0010,ethiopia,negative,non-camp,neg_barren_0010,,,,,,barren
14.84391893535414,43.756403540054656,neg_barren_ethiopia_0011,ethiopia,negative,non-camp,neg_barren_0011,,,,,,barren
3.8083956556671414,45.74800518786174,neg_barren_ethiopia_0012,ethiopia,negative,non-camp,neg_barren_0012,,,,,,barren
3.820264025221133,41.81386999953831,neg_barren_ethiopia_0013,ethiopia,negative,non-camp,neg_barren_0013,,,,,,barren
3.4424073582580137,39.8047694276262,neg_barren_ethiopia_0014,ethiopia,negative,non-camp,neg_barren_0014,,,,,,barren
4.418102560361078,39.86822122697827,neg_barren_ethiopia_0015,ethiopia,negative,non-camp,neg_barren_0015,,,,,,barren
12.48374371830227,46.76662843273331,neg_barren_ethiopia_0016,ethiopia,negative,non-camp,neg_barren_0016,,,,,,barren
3.781198252703593,47.9455198675636,neg_barren_ethiopia_0017,ethiopia,negative,non-camp,neg_barren_0017,,,,,,barren
4.378632385317342,45.543448694914076,neg_barren_ethiopia_0018,ethiopia,negative,non-camp,neg_barren_0018,,,,,,barren
14.886914005944702,42.975271041598056,neg_barren_ethiopia_0019,ethiopia,negative,non-camp,neg_barren_0019,,,,,,barren
3.7117491859143055,46.44550098344938,neg_barren_ethiopia_0020,ethiopia,negative,non-camp,neg_barren_0020,,,,,,barren
12.273134316067836,35.13532812749953,neg_barren_ethiopia_0021,ethiopia,negative,non-camp,neg_barren_0021,,,,,,barren
4.083209971202859,46.649573406963285,neg_barren_ethiopia_0022,ethiopia,negative,non-camp,neg_barren_0022,,,,,,barren
3.5246528630752176,33.07144751193051,neg_barren_ethiopia_0023,ethiopia,negative,non-camp,neg_barren_0023,,,,,,barren
13.531624087351718,45.01222716289123,neg_barren_ethiopia_0024,ethiopia,negative,non-camp,neg_barren_0024,,,,,,barren
14.370912281555833,33.84847910229891,neg_barren_ethiopia_0025,ethiopia,negative,non-camp,neg_barren_0025,,,,,,barren
6.59811084780385,44.57162598656571,neg_barren_ethiopia_0026,ethiopia,negative,non-camp,neg_barren_0026,,,,,,barren
6.288517813705106,33.592269493206,neg_barren_ethiopia_0027,ethiopia,negative,non-camp,neg_barren_0027,,,,,,barren
11.873611922566553,40.5579648528948,neg_barren_ethiopia_0028,ethiopia,negative,non-camp,neg_barren_0028,,,,,,barren
5.571650828254846,45.75696649642903,neg_barren_ethiopia_0029,ethiopia,negative,non-camp,neg_barren_0029,,,,,,barren
13.975238903900502,35.88562236303356,neg_barren_ethiopia_0030,ethiopia,negative,non-camp,neg_barren_0030,,,,,,barren
13.890041491528656,47.69307177348023,neg_barren_ethiopia_0031,ethiopia,negative,non-camp,neg_barren_0031,,,,,,barren
3.587862585774996,42.23463454891299,neg_barren_ethiopia_0032,ethiopia,negative,non-camp,neg_barren_0032,,,,,,barren
14.49065026708142,43.63367427650931,neg_barren_ethiopia_0033,ethiopia,negative,non-camp,neg_barren_0033,,,,,,barren
11.759162307076013,35.74299843320479,neg_barren_ethiopia_0034,ethiopia,negative,non-camp,neg_barren_0034,,,,,,barren
4.980658534554414,44.75121422512112,neg_barren_ethiopia_0035,ethiopia,negative,non-camp,neg_barren_0035,,,,,,barren
5.373108127907423,35.166953819975745,neg_barren_ethiopia_0036,ethiopia,negative,non-camp,neg_barren_0036,,,,,,barren
4.438728054278233,41.66025823711313,neg_barren_ethiopia_0037,ethiopia,negative,non-camp,neg_barren_0037,,,,,,barren
5.637906686130579,47.09891614543278,neg_barren_ethiopia_0038,ethiopia,negative,non-camp,neg_barren_0038,,,,,,barren
13.19529188942661,39.05051586111149,neg_barren_ethiopia_0039,ethiopia,negative,non-camp,neg_barren_0039,,,,,,barren
11.853942812803627,35.00141914809148,neg_barren_ethiopia_0040,ethiopia,negative,non-camp,neg_barren_0040,,,,,,barren
12.493316769163586,39.40854820522025,neg_barren_ethiopia_0041,ethiopia,negative,non-camp,neg_barren_0041,,,,,,barren
5.587566567740753,39.167163448783555,neg_barren_ethiopia_0042,ethiopia,negative,non-camp,neg_barren_0042,,,,,,barren
12.193165531524429,41.81459372613513,neg_barren_ethiopia_0043,ethiopia,negative,non-camp,neg_barren_0043,,,,,,barren
11.567298248754074,39.26600066235291,neg_barren_ethiopia_0044,ethiopia,negative,non-camp,neg_barren_0044,,,,,,barren
12.220618616699916,41.576868996831735,neg_barren_ethiopia_0045,ethiopia,negative,non-camp,neg_barren_0045,,,,,,barren
5.81980151828745,42.709227233018154,neg_barren_ethiopia_0046,ethiopia,negative,non-camp,neg_barren_0046,,,,,,barren
4.489990181337476,44.801483329789306,neg_barren_ethiopia_0047,ethiopia,negative,non-camp,neg_barren_0047,,,,,,barren
4.887098518785081,42.38018721411586,neg_barren_ethiopia_0048,ethiopia,negative,non-camp,neg_barren_0048,,,,,,barren
13.210412176159497,44.0405853272333,neg_barren_ethiopia_0049,ethiopia,negative,non-camp,neg_barren_0049,,,,,,barren
6.574884159076525,40.54449387774649,neg_barren_ethiopia_0050,ethiopia,negative,non-camp,neg_barren_0050,,,,,,barren
6.157153305902944,37.70676037616302,neg_barren_ethiopia_0051,ethiopia,negative,non-camp,neg_barren_0051,,,,,,barren
5.103306255545558,34.727850865029026,neg_barren_ethiopia_0052,ethiopia,negative,non-camp,neg_barren_0052,,,,,,barren
14.345350598453031,33.82351875360317,neg_barren_ethiopia_0053,ethiopia,negative,non-camp,neg_barren_0053,,,,,,barren
12.59474624960883,35.584916677873906,neg_barren_ethiopia_0054,ethiopia,negative,non-camp,neg_barren_0054,,,,,,barren
14.00306127750137,33.21024265340106,neg_barren_ethiopia_0055,ethiopia,negative,non-camp,neg_barren_0055,,,,,,barren
6.352521037261502,38.573923597873225,neg_barren_ethiopia_0056,ethiopia,negative,non-camp,neg_barren_0056,,,,,,barren
13.514096886186694,34.78508833797342,neg_barren_ethiopia_0057,ethiopia,negative,non-camp,neg_barren_0057,,,,,,barren
14.746705386565653,47.921967088754556,neg_barren_ethiopia_0058,ethiopia,negative,non-camp,neg_barren_0058,,,,,,barren
4.471884324696881,43.30497573749139,neg_barren_ethiopia_0059,ethiopia,negative,non-camp,neg_barren_0059,,,,,,barren
4.7368903232291,42.60332951879239,neg_barren_ethiopia_0060,ethiopia,negative,non-camp,neg_barren_0060,,,,,,barren
12.163621749201928,40.86632454450892,neg_barren_ethiopia_0061,ethiopia,negative,non-camp,neg_barren_0061,,,,,,barren
12.014880973570413,45.53456435825357,neg_barren_ethiopia_0062,ethiopia,negative,non-camp,neg_barren_0062,,,,,,barren
5.316426618414061,45.5760459632257,neg_barren_ethiopia_0063,ethiopia,negative,non-camp,neg_barren_0063,,,,,,barren
3.888081027896566,39.713684198815265,neg_barren_ethiopia_0064,ethiopia,negative,non-camp,neg_barren_0064,,,,,,barren
11.718929880728401,44.319952591921165,neg_barren_ethiopia_0065,ethiopia,negative,non-camp,neg_barren_0065,,,,,,barren
13.060769942154314,35.250094607198605,neg_barren_ethiopia_0066,ethiopia,negative,non-camp,neg_barren_0066,,,,,,barren
14.569786185572474,33.65973633461419,neg_barren_ethiopia_0067,ethiopia,negative,non-camp,neg_barren_0067,,,,,,barren
12.44972851159418,40.3429631360238,neg_barren_ethiopia_0068,ethiopia,negative,non-camp,neg_barren_0068,,,,,,barren
5.100370546757247,34.251730018353236,neg_barren_ethiopia_0069,ethiopia,negative,non-camp,neg_barren_0069,,,,,,barren
14.35084916227648,42.55383050717689,neg_barren_ethiopia_0070,ethiopia,negative,non-camp,neg_barren_0070,,,,,,barren
5.71019062119612,44.43354528559294,neg_barren_ethiopia_0071,ethiopia,negative,non-camp,neg_barren_0071,,,,,,barren
12.706699102862716,41.08291152892518,neg_barren_ethiopia_0072,ethiopia,negative,non-camp,neg_barren_0072,,,,,,barren
14.353918676220932,40.22858762880941,neg_barren_ethiopia_0073,ethiopia,negative,non-camp,neg_barren_0073,,,,,,barren
6.33689748668939,40.56187224355247,neg_barren_ethiopia_0074,ethiopia,negative,non-camp,neg_barren_0074,,,,,,barren
5.423816223030972,45.74411448250583,neg_barren_ethiopia_0075,ethiopia,negative,non-camp,neg_barren_0075,,,,,,barren
13.16242205605803,40.961165615068666,neg_barren_ethiopia_0076,ethiopia,negative,non-camp,neg_barren_0076,,,,,,barren
12.816810490600211,46.75006508827514,neg_barren_ethiopia_0077,ethiopia,negative,non-camp,neg_barren_0077,,,,,,barren
9.017750658243697,38.78388556356096,neg_informal_ethiopia_0000,ethiopia,negative,non-camp,neg_informal_0000,,,,,,informal
9.01916030096627,38.752482313179854,neg_informal_ethiopia_0001,ethiopia,negative,non-camp,neg_informal_0001,,,,,,informal
9.044820732825688,38.780753507242075,neg_informal_ethiopia_0002,ethiopia,negative,non-camp,neg_informal_0002,,,,,,informal
9.059847719155774,38.7507314456293,neg_informal_ethiopia_0003,ethiopia,negative,non-camp,neg_informal_0003,,,,,,informal
9.00030334656989,38.733376977306925,neg_informal_ethiopia_0004,ethiopia,negative,non-camp,neg_informal_0004,,,,,,informal
9.028180594754254,38.7320357709658,neg_informal_ethiopia_0005,ethiopia,negative,non-camp,neg_informal_0005,,,,,,informal
9.076143256318401,38.8403327871964,neg_informal_ethiopia_0006,ethiopia,negative,non-camp,neg_informal_0006,,,,,,informal
9.002069594671836,38.76632112235494,neg_informal_ethiopia_0007,ethiopia,negative,non-camp,neg_informal_0007,,,,,,informal
9.086680143826193,38.76141040711836,neg_informal_ethiopia_0008,ethiopia,negative,non-camp,neg_informal_0008,,,,,,informal
9.07324135029938,38.794008869952734,neg_informal_ethiopia_0009,ethiopia,negative,non-camp,neg_informal_0009,,,,,,informal
9.065410240948236,38.846981511670556,neg_informal_ethiopia_0010,ethiopia,negative,non-camp,neg_informal_0010,,,,,,informal
9.098457808143163,38.77882282454879,neg_informal_ethiopia_0011,ethiopia,negative,non-camp,neg_informal_0011,,,,,,informal
9.074998353793527,38.784649286131305,neg_informal_ethiopia_0012,ethiopia,negative,non-camp,neg_informal_0012,,,,,,informal
9.012386977486424,38.75409469602857,neg_informal_ethiopia_0013,ethiopia,negative,non-camp,neg_informal_0013,,,,,,informal
9.048969974181691,38.84855401694949,neg_informal_ethiopia_0014,ethiopia,negative,non-camp,neg_informal_0014,,,,,,informal
9.046497345619366,38.84779169790738,neg_informal_ethiopia_0015,ethiopia,negative,non-camp,neg_informal_0015,,,,,,informal
9.009368215055998,38.67848192723118,neg_informal_ethiopia_0016,ethiopia,negative,non-camp,neg_informal_0016,,,,,,informal
8.985546171013777,38.750205978698574,neg_informal_ethiopia_0017,ethiopia,negative,non-camp,neg_informal_0017,,,,,,informal
9.012258309061744,38.67369707272012,neg_informal_ethiopia_0018,ethiopia,negative,non-camp,neg_informal_0018,,,,,,informal
9.037270234130673,38.75486984723138,neg_informal_ethiopia_0019,ethiopia,negative,non-camp,neg_informal_0019,,,,,,informal
8.997530562866748,38.74132581963117,neg_informal_ethiopia_0020,ethiopia,negative,non-camp,neg_informal_0020,,,,,,informal
9.007372068275163,38.756545654805564,neg_informal_ethiopia_0021,ethiopia,negative,non-camp,neg_informal_0021,,,,,,informal
9.080087159210663,38.75489637098232,neg_informal_ethiopia_0022,ethiopia,negative,non-camp,neg_informal_0022,,,,,,informal
9.02345351504413,38.81218977733752,neg_informal_ethiopia_0023,ethiopia,negative,non-camp,neg_informal_0023,,,,,,informal
8.930450012493967,38.72146293421164,neg_informal_ethiopia_0024,ethiopia,negative,non-camp,neg_informal_0024,,,,,,informal
9.06772873993644,38.75296072891286,neg_informal_ethiopia_0025,ethiopia,negative,non-camp,neg_informal_0025,,,,,,informal
9.08956348813837,38.817161280885585,neg_informal_ethiopia_0026,ethiopia,negative,non-camp,neg_informal_0026,,,,,,informal
8.95376583633606,38.75527811296319,neg_informal_ethiopia_0027,ethiopia,negative,non-camp,neg_informal_0027,,,,,,informal
9.085334467114407,38.779894365111886,neg_informal_ethiopia_0028,ethiopia,negative,non-camp,neg_informal_0028,,,,,,informal
8.989032025088315,38.70969400677478,neg_informal_ethiopia_0029,ethiopia,negative,non-camp,neg_informal_0029,,,,,,informal
9.018655756217187,38.68875936819395,neg_informal_ethiopia_0030,ethiopia,negative,non-camp,neg_informal_0030,,,,,,informal
8.938481159123576,38.704192693854566,neg_informal_ethiopia_0031,ethiopia,negative,non-camp,neg_informal_0031,,,,,,informal
9.01074316059763,38.76987433700668,neg_informal_ethiopia_0032,ethiopia,negative,non-camp,neg_informal_0032,,,,,,informal
9.029636205701117,38.79079419511312,neg_informal_ethiopia_0033,ethiopia,negative,non-camp,neg_informal_0033,,,,,,informal
9.057487192962304,38.849758003726286,neg_informal_ethiopia_0034,ethiopia,negative,non-camp,neg_informal_0034,,,,,,informal
9.000088101012066,38.72952128404133,neg_informal_ethiopia_0035,ethiopia,negative,non-camp,neg_informal_0035,,,,,,informal
9.021529876028556,38.719691659613034,neg_informal_ethiopia_0036,ethiopia,negative,non-camp,neg_informal_0036,,,,,,informal
8.943436691331307,38.70653784631991,neg_informal_ethiopia_0037,ethiopia,negative,non-camp,neg_informal_0037,,,,,,informal
8.950197903768878,38.67176687809999,neg_informal_ethiopia_0038,ethiopia,negative,non-camp,neg_informal_0038,,,,,,informal
8.975327991650017,38.73345402649518,neg_informal_ethiopia_0039,ethiopia,negative,non-camp,neg_informal_0039,,,,,,informal
9.042038177150529,38.84592092728445,neg_informal_ethiopia_0040,ethiopia,negative,non-camp,neg_informal_0040,,,,,,informal
9.005196312157492,38.724085663694495,neg_informal_ethiopia_0041,ethiopia,negative,non-camp,neg_informal_0041,,,,,,informal
9.0896996798773,38.773509711688064,neg_informal_ethiopia_0042,ethiopia,negative,non-camp,neg_informal_0042,,,,,,informal
8.962534273051668,38.76090648144229,neg_informal_ethiopia_0043,ethiopia,negative,non-camp,neg_informal_0043,,,,,,informal
9.004231794941798,38.729074479416376,neg_informal_ethiopia_0044,ethiopia,negative,non-camp,neg_informal_0044,,,,,,informal
9.06534392090095,38.77993832915148,neg_informal_ethiopia_0045,ethiopia,negative,non-camp,neg_informal_0045,,,,,,informal
9.032249234716867,38.76554415640834,neg_informal_ethiopia_0046,ethiopia,negative,non-camp,neg_informal_0046,,,,,,informal
9.017431436529082,38.69832469332501,neg_informal_ethiopia_0047,ethiopia,negative,non-camp,neg_informal_0047,,,,,,informal
9.009197442514138,38.74838241093757,neg_informal_ethiopia_0048,ethiopia,negative,non-camp,neg_informal_0048,,,,,,informal
9.04383862585842,38.79762573085867,neg_informal_ethiopia_0049,ethiopia,negative,non-camp,neg_informal_0049,,,,,,informal
9.067459747697903,38.831463844311784,neg_informal_ethiopia_0050,ethiopia,negative,non-camp,neg_informal_0050,,,,,,informal
9.090255396921924,38.82875898362293,neg_informal_ethiopia_0051,ethiopia,negative,non-camp,neg_informal_0051,,,,,,informal
8.986217073373759,38.680189415731455,neg_informal_ethiopia_0052,ethiopia,negative,non-camp,neg_informal_0052,,,,,,informal
8.9952922126564,38.76553494281878,neg_informal_ethiopia_0053,ethiopia,negative,non-camp,neg_informal_0053,,,,,,informal
9.043297249286777,38.75358427514181,neg_informal_ethiopia_0054,ethiopia,negative,non-camp,neg_informal_0054,,,,,,informal
9.095977452232923,38.76030026841301,neg_informal_ethiopia_0055,ethiopia,negative,non-camp,neg_informal_0055,,,,,,informal
8.954606661150494,38.676553043391834,neg_informal_ethiopia_0056,ethiopia,negative,non-camp,neg_informal_0056,,,,,,informal
8.975511784241176,38.72160878012571,neg_informal_ethiopia_0057,ethiopia,negative,non-camp,neg_informal_0057,,,,,,informal
9.005096048257489,38.76116003682492,neg_informal_ethiopia_0058,ethiopia,negative,non-camp,neg_informal_0058,,,,,,informal
8.968450437798992,38.67605284508265,neg_informal_ethiopia_0059,ethiopia,negative,non-camp,neg_informal_0059,,,,,,informal
9.020702054152482,38.78020715687836,neg_informal_ethiopia_0060,ethiopia,negative,non-camp,neg_informal_0060,,,,,,informal
9.03941257771781,38.79166096330691,neg_informal_ethiopia_0061,ethiopia,negative,non-camp,neg_informal_0061,,,,,,informal
8.94120703709987,38.75627645637409,neg_informal_ethiopia_0062,ethiopia,negative,non-camp,neg_informal_0062,,,,,,informal
8.930123306251192,38.72081673558129,neg_informal_ethiopia_0063,ethiopia,negative,non-camp,neg_informal_0063,,,,,,informal
8.963309416101064,38.71313270201465,neg_informal_ethiopia_0064,ethiopia,negative,non-camp,neg_informal_0064,,,,,,informal
9.008058113752659,38.75412037062149,neg_informal_ethiopia_0065,ethiopia,negative,non-camp,neg_informal_0065,,,,,,informal
9.032249044096774,38.77424828530283,neg_informal_ethiopia_0066,ethiopia,negative,non-camp,neg_informal_0066,,,,,,informal
8.977986340055107,38.73832583576588,neg_informal_ethiopia_0067,ethiopia,negative,non-camp,neg_informal_0067,,,,,,informal
8.963073574205486,38.76303846175892,neg_informal_ethiopia_0068,ethiopia,negative,non-camp,neg_informal_0068,,,,,,informal
8.934856928984697,38.71607696052396,neg_informal_ethiopia_0069,ethiopia,negative,non-camp,neg_informal_0069,,,,,,informal
9.015045401155747,38.75473740200054,neg_informal_ethiopia_0070,ethiopia,negative,non-camp,neg_informal_0070,,,,,,informal
9.013820537163854,38.84188231935307,neg_informal_ethiopia_0071,ethiopia,negative,non-camp,neg_informal_0071,,,,,,informal
8.948832197481135,38.67312835129016,neg_informal_ethiopia_0072,ethiopia,negative,non-camp,neg_informal_0072,,,,,,informal
8.94106294675622,38.73201492866283,neg_informal_ethiopia_0073,ethiopia,negative,non-camp,neg_informal_0073,,,,,,informal
8.986921205043068,38.72901953827661,neg_informal_ethiopia_0074,ethiopia,negative,non-camp,neg_informal_0074,,,,,,informal
9.014943533308978,38.67047413929119,neg_informal_ethiopia_0075,ethiopia,negative,non-camp,neg_informal_0075,,,,,,informal
8.991911908642697,38.686274348610496,neg_informal_ethiopia_0076,ethiopia,negative,non-camp,neg_informal_0076,,,,,,informal
9.077293738813529,38.835549154179056,neg_informal_ethiopia_0077,ethiopia,negative,non-camp,neg_informal_0077,,,,,,informal
11.510758374904057,23.14489745990523,neg_rural_chad_0000,chad,negative,non-camp,neg_rural_0078,,,,,,rural
14.715863459081511,19.824059504129877,neg_rural_chad_0001,chad,negative,non-camp,neg_rural_0079,,,,,,rural
23.204239033218474,17.27697490807077,neg_rural_chad_0002,chad,negative,non-camp,neg_rural_0080,,,,,,rural
20.458681126580004,16.82274271073368,neg_rural_chad_0003,chad,negative,non-camp,neg_rural_0081,,,,,,rural
20.235408491086268,19.795728165623625,neg_rural_chad_0004,chad,negative,non-camp,neg_rural_0082,,,,,,rural
10.903854680558677,17.82969476760066,neg_rural_chad_0005,chad,negative,non-camp,neg_rural_0083,,,,,,rural
12.525346506160624,14.292481379136232,neg_rural_chad_0006,chad,negative,non-camp,neg_rural_0084,,,,,,rural
7.917654669296157,17.118420241437615,neg_rural_chad_0007,chad,negative,non-camp,neg_rural_0085,,,,,,rural
7.74473670655796,15.212586087336092,neg_rural_chad_0008,chad,negative,non-camp,neg_rural_0086,,,,,,rural
19.050184966822407,20.92620071174818,neg_rural_chad_0009,chad,negative,non-camp,neg_rural_0087,,,,,,rural
19.264671987182695,16.80962289199868,neg_rural_chad_0010,chad,negative,non-camp,neg_rural_0088,,,,,,rural
21.689211508454303,19.723035670739552,neg_rural_chad_0011,chad,negative,non-camp,neg_rural_0089,,,,,,rural
9.45768173136349,14.983357505126776,neg_rural_chad_0012,chad,negative,non-camp,neg_rural_0090,,,,,,rural
18.53645778514452,15.291099650735083,neg_rural_chad_0013,chad,negative,non-camp,neg_rural_0091,,,,,,rural
15.561756152328513,23.913385231529325,neg_rural_chad_0014,chad,negative,non-camp,neg_rural_0092,,,,,,rural
7.5041617517807655,13.644585313981276,neg_rural_chad_0015,chad,negative,non-camp,neg_rural_0093,,,,,,rural
23.339284156707407,19.626246923432763,neg_rural_chad_0016,chad,negative,non-camp,neg_rural_0094,,,,,,rural
9.471828708051396,22.918592163410608,neg_rural_chad_0017,chad,negative,non-camp,neg_rural_0095,,,,,,rural
21.53488860504435,19.11619035006278,neg_rural_chad_0018,chad,negative,non-camp,neg_rural_0096,,,,,,rural
17.39489039807071,16.346661126504227,neg_rural_chad_0019,chad,negative,non-camp,neg_rural_0097,,,,,,rural
8.248820338915802,19.7307969216208,neg_rural_chad_0020,chad,negative,non-camp,neg_rural_0098,,,,,,rural
12.159030643176235,20.457929621333506,neg_rural_chad_0021,chad,negative,non-camp,neg_rural_0099,,,,,,rural
20.828285281250043,13.661230527418255,neg_rural_chad_0022,chad,negative,non-camp,neg_rural_0100,,,,,,rural
16.977377532718496,15.905384082902554,neg_rural_chad_0023,chad,negative,non-camp,neg_rural_0101,,,,,,rural
21.43095485143986,16.141087254096053,neg_rural_chad_0024,chad,negative,non-camp,neg_rural_0102,,,,,,rural
17.218429833099044,19.298785046143607,neg_rural_chad_0025,chad,negative,non-camp,neg_rural_0103,,,,,,rural
13.782625665948576,20.605346640705832,neg_rural_chad_0026,chad,negative,non-camp,neg_rural_0104,,,,,,rural
19.059571851794097,19.439854984713143,neg_rural_chad_0027,chad,negative,non-camp,neg_rural_0105,,,,,,rural
19.582340017327912,23.825381810205634,neg_rural_chad_0028,chad,negative,non-camp,neg_rural_0106,,,,,,rural
14.15255093029189,18.88855953635464,neg_rural_chad_0029,chad,negative,non-camp,neg_rural_0107,,,,,,rural
7.639642745838824,21.852180697948285,neg_rural_chad_0030,chad,negative,non-camp,neg_rural_0108,,,,,,rural
15.76888337340636,17.765833861696752,neg_rural_chad_0031,chad,negative,non-camp,neg_rural_0109,,,,,,rural
8.946092129061228,22.838082120241936,neg_rural_chad_0032,chad,negative,non-camp,neg_rural_0110,,,,,,rural
13.764065913049308,20.65758422914309,neg_rural_chad_0033,chad,negative,non-camp,neg_rural_0111,,,,,,rural
9.831480243454093,23.595117599067073,neg_rural_chad_0034,chad,negative,non-camp,neg_rural_0112,,,,,,rural
10.296852606767512,15.571177185231633,neg_rural_chad_0035,chad,negative,non-camp,neg_rural_0113,,,,,,rural
21.192315597528996,23.079496295814536,neg_rural_chad_0036,chad,negative,non-camp,neg_rural_0114,,,,,,rural
10.836479994448055,18.41700335248094,neg_rural_chad_0037,chad,negative,non-camp,neg_rural_0115,,,,,,rural
19.183253422050903,22.71919117702774,neg_rural_chad_0038,chad,negative,non-camp,neg_rural_0116,,,,,,rural
13.508633647547256,18.914215196524488,neg_rural_chad_0039,chad,negative,non-camp,neg_rural_0117,,,,,,rural
19.314879732420955,21.168861834153937,neg_rural_chad_0040,chad,negative,non-camp,neg_rural_0118,,,,,,rural
19.975191681717618,19.471403110295274,neg_rural_chad_0041,chad,negative,non-camp,neg_rural_0119,,,,,,rural
9.114887699844452,22.98883875294576,neg_rural_chad_0042,chad,negative,non-camp,neg_rural_0120,,,,,,rural
21.297816354529658,21.873965999167048,neg_rural_chad_0043,chad,negative,non-camp,neg_rural_0121,,,,,,rural
9.03879825934328,15.62230427536745,neg_rural_chad_0044,chad,negative,non-camp,neg_rural_0122,,,,,,rural
19.345041845373505,13.713665195947897,neg_rural_chad_0045,chad,negative,non-camp,neg_rural_0123,,,,,,rural
23.117386385653546,17.441333484145318,neg_rural_chad_0046,chad,negative,non-camp,neg_rural_0124,,,,,,rural
18.956193664390085,22.816123561779097,neg_rural_chad_0047,chad,negative,non-camp,neg_rural_0125,,,,,,rural
13.758024509282816,16.830465104954484,neg_rural_chad_0048,chad,negative,non-camp,neg_rural_0126,,,,,,rural
17.18594547366093,19.587818105566974,neg_rural_chad_0049,chad,negative,non-camp,neg_rural_0127,,,,,,rural
13.990331041773002,19.806688179286972,neg_rural_chad_0050,chad,negative,non-camp,neg_rural_0128,,,,,,rural
22.41545572675958,18.39425190227806,neg_rural_chad_0051,chad,negative,non-camp,neg_rural_0129,,,,,,rural
10.589842313817607,17.44197899975803,neg_rural_chad_0052,chad,negative,non-camp,neg_rural_0130,,,,,,rural
13.749652791315828,14.850574537566096,neg_rural_chad_0053,chad,negative,non-camp,neg_rural_0131,,,,,,rural
10.047572723878424,20.678438632835423,neg_rural_chad_0054,chad,negative,non-camp,neg_rural_0132,,,,,,rural
12.875038844884532,23.525080066241657,neg_rural_chad_0055,chad,negative,non-camp,neg_rural_0133,,,,,,rural
11.339983893191304,14.51167503875378,neg_rural_chad_0056,chad,negative,non-camp,neg_rural_0134,,,,,,rural
12.247172978690433,14.960120808473734,neg_urban_chad_0000,chad,negative,non-camp,neg_urban_0078,,,,,,urban
9.032751716592372,18.27687580855359,neg_urban_chad_0001,chad,negative,non-camp,neg_urban_0079,,,,,,urban
12.098629990848837,14.953398342347631,neg_urban_chad_0002,chad,negative,non-camp,neg_urban_0080,,,,,,urban
8.976262322116193,18.38333688251746,neg_urban_chad_0003,chad,negative,non-camp,neg_urban_0081,,,,,,urban
12.164906912270958,15.038382360386302,neg_urban_chad_0004,chad,negative,non-camp,neg_urban_0082,,,,,,urban
8.999849146650662,18.300877064597852,neg_urban_chad_0005,chad,negative,non-camp,neg_urban_0083,,,,,,urban
12.205329278938605,15.175615887015262,neg_urban_chad_0006,chad,negative,non-camp,neg_urban_0084,,,,,,urban
12.254591067283917,15.21444469897027,neg_urban_chad_0007,chad,negative,non-camp,neg_urban_0085,,,,,,urban
9.303079687796474,18.23585597058104,neg_urban_chad_0008,chad,negative,non-camp,neg_urban_0086,,,,,,urban
9.009605672934011,18.319607949531374,neg_urban_chad_0009,chad,negative,non-camp,neg_urban_0087,,,,,,urban
11.964912039933973,15.16448690480877,neg_urban_chad_0010,chad,negative,non-camp,neg_urban_0088,,,,,,urban
9.182032224467832,18.405251184828796,neg_urban_chad_0011,chad,negative,non-camp,neg_urban_0089,,,,,,urban
9.051171970784072,18.267712328993614,neg_urban_chad_0012,chad,negative,non-camp,neg_urban_0090,,,,,,urban
12.236695936806127,15.070322029622037,neg_urban_chad_0013,chad,negative,non-camp,neg_urban_0091,,,,,,urban
9.066571830647609,18.34365094935178,neg_urban_chad_0014,chad,negative,non-camp,neg_urban_0092,,,,,,urban
9.105747787193552,18.483605389827854,neg_urban_chad_0015,chad,negative,non-camp,neg_urban_0093,,,,,,urban
12.004452869905052,15.198953988425714,neg_urban_chad_0016,chad,negative,non-camp,neg_urban_0094,,,,,,urban
9.003435921479728,18.532603949672506,neg_urban_chad_0017,chad,negative,non-camp,neg_urban_0095,,,,,,urban
9.055234332014473,18.514732272984464,neg_urban_chad_0018,chad,negative,non-camp,neg_urban_0096,,,,,,urban
11.994617146044591,15.008884455271588,neg_urban_chad_0019,chad,negative,non-camp,neg_urban_0097,,,,,,urban
12.018293230288355,15.115688272480954,neg_urban_chad_0020,chad,negative,non-camp,neg_urban_0098,,,,,,urban
12.236480473784793,15.174847050348005,neg_urban_chad_0021,chad,negative,non-camp,neg_urban_0099,,,,,,urban
9.151106141943615,18.299426305391634,neg_urban_chad_0022,chad,negative,non-camp,neg_urban_0100,,,,,,urban
12.018126740558051,14.918051462626693,neg_urban_chad_0023,chad,negative,non-camp,neg_urban_0101,,,,,,urban
12.249675978298008,15.139849136797968,neg_urban_chad_0024,chad,negative,non-camp,neg_urban_0102,,,,,,urban
9.146358147663584,18.386618849584274,neg_urban_chad_0025,chad,negative,non-camp,neg_urban_0103,,,,,,urban
12.123164484887752,15.016442710491168,neg_urban_chad_0026,chad,negative,non-camp,neg_urban_0104,,,,,,urban
9.007431739841145,18.255238987032673,neg_urban_chad_0027,chad,negative,non-camp,neg_urban_0105,,,,,,urban
12.103531073451085,15.203153988965868,neg_urban_chad_0028,chad,negative,non-camp,neg_urban_0106,,,,,,urban
9.01888767597564,18.409589958734376,neg_urban_chad_0029,chad,negative,non-camp,neg_urban_0107,,,,,,urban
9.051146458205578,18.220819648354023,neg_urban_chad_0030,chad,negative,non-camp,neg_urban_0108,,,,,,urban
11.972823191866475,15.190065426746509,neg_urban_chad_0031,chad,negative,non-camp,neg_urban_0109,,,,,,urban
12.148926516289253,15.027405087516138,neg_urban_chad_0032,chad,negative,non-camp,neg_urban_0110,,,,,,urban
12.0741624482883,15.051478992884583,neg_urban_chad_0033,chad,negative,non-camp,neg_urban_0111,,,,,,urban
9.315897403467048,18.504590832733392,neg_urban_chad_0034,chad,negative,non-camp,neg_urban_0112,,,,,,urban
12.196981267783345,15.028753346925022,neg_urban_chad_0035,chad,negative,non-camp,neg_urban_0113,,,,,,urban
9.291439708978485,18.332899344257424,neg_urban_chad_0036,chad,negative,non-camp,neg_urban_0114,,,,,,urban
11.948038408290895,14.983265323651825,neg_urban_chad_0037,chad,negative,non-camp,neg_urban_0115,,,,,,urban
12.154175148195755,15.130301890508148,neg_urban_chad_0038,chad,negative,non-camp,neg_urban_0116,,,,,,urban
9.245708738190457,18.286303659988995,neg_urban_chad_0039,chad,negative,non-camp,neg_urban_0117,,,,,,urban
12.087676257051333,15.090044913735099,neg_urban_chad_0040,chad,negative,non-camp,neg_urban_0118,,,,,,urban
8.960831158131228,18.567612659428026,neg_urban_chad_0041,chad,negative,non-camp,neg_urban_0119,,,,,,urban
11.952342718354455,15.024974334953145,neg_urban_chad_0042,chad,negative,non-camp,neg_urban_0120,,,,,,urban
11.976450820585534,14.914837615656726,neg_urban_chad_0043,chad,negative,non-camp,neg_urban_0121,,,,,,urban
9.101453860965284,18.5418668820558,neg_urban_chad_0044,chad,negative,non-camp,neg_urban_0122,,,,,,urban
9.074896338058906,18.471424846218206,neg_urban_chad_0045,chad,negative,non-camp,neg_urban_0123,,,,,,urban
9.19758246840654,18.425890328417758,neg_urban_chad_0046,chad,negative,non-camp,neg_urban_0124,,,,,,urban
12.100202230193238,15.202021994064797,neg_urban_chad_0047,chad,negative,non-camp,neg_urban_0125,,,,,,urban
9.023804780449739,18.45411386191674,neg_urban_chad_0048,chad,negative,non-camp,neg_urban_0126,,,,,,urban
12.234562722070846,14.874491346378372,neg_urban_chad_0049,chad,negative,non-camp,neg_urban_0127,,,,,,urban
9.281295568287439,18.479862702812234,neg_urban_chad_0050,chad,negative,non-camp,neg_urban_0128,,,,,,urban
12.287050777939145,15.051308972175008,neg_urban_chad_0051,chad,negative,non-camp,neg_urban_0129,,,,,,urban
9.068892901209654,18.55111281587976,neg_urban_chad_0052,chad,negative,non-camp,neg_urban_0130,,,,,,urban
9.091880775880353,18.475863856567187,neg_urban_chad_0053,chad,negative,non-camp,neg_urban_0131,,,,,,urban
12.132254814822678,15.119121712607756,neg_urban_chad_0054,chad,negative,non-camp,neg_urban_0132,,,,,,urban
12.113216294630487,15.186551077687422,neg_urban_chad_0055,chad,negative,non-camp,neg_urban_0133,,,,,,urban
12.162945847331596,14.983250475988019,neg_urban_chad_0056,chad,negative,non-camp,neg_urban_0134,,,,,,urban
20.760560669845752,14.794747902828364,neg_barren_chad_0000,chad,negative,non-camp,neg_barren_0078,,,,,,barren
21.852954100873877,20.37260178475234,neg_barren_chad_0001,chad,negative,non-camp,neg_barren_0079,,,,,,barren
7.534938236980948,16.908538253333845,neg_barren_chad_0002,chad,negative,non-camp,neg_barren_0080,,,,,,barren
22.38446128247889,22.53243812670125,neg_barren_chad_0003,chad,negative,non-camp,neg_barren_0081,,,,,,barren
21.854679509946877,14.83219032041563,neg_barren_chad_0004,chad,negative,non-camp,neg_barren_0082,,,,,,barren
19.312957545409112,16.455473672289884,neg_barren_chad_0005,chad,negative,non-camp,neg_barren_0083,,,,,,barren
11.812300149619766,15.602560955441678,neg_barren_chad_0006,chad,negative,non-camp,neg_barren_0084,,,,,,barren
10.808781459272204,23.50427359315301,neg_barren_chad_0007,chad,negative,non-camp,neg_barren_0085,,,,,,barren
8.66527858972451,20.05628499230375,neg_barren_chad_0008,chad,negative,non-camp,neg_barren_0086,,,,,,barren
23.33534466049227,17.678589703273097,neg_barren_chad_0009,chad,negative,non-camp,neg_barren_0087,,,,,,barren
7.551562078011481,17.682647027798975,neg_barren_chad_0010,chad,negative,non-camp,neg_barren_0088,,,,,,barren
10.37092241561288,18.14471859374963,neg_barren_chad_0011,chad,negative,non-camp,neg_barren_0089,,,,,,barren
11.54168695863514,16.86293104535554,neg_barren_chad_0012,chad,negative,non-camp,neg_barren_0090,,,,,,barren
9.792625902012098,20.1270923262095,neg_barren_chad_0013,chad,negative,non-camp,neg_barren_0091,,,,,,barren
19.819916618678562,23.080434425240796,neg_barren_chad_0014,chad,negative,non-camp,neg_barren_0092,,,,,,barren
11.490479820314784,23.770492655950832,neg_barren_chad_0015,chad,negative,non-camp,neg_barren_0093,,,,,,barren
11.112696698783283,21.500073668366607,neg_barren_chad_0016,chad,negative,non-camp,neg_barren_0094,,,,,,barren
20.839339890252045,15.999582687849003,neg_barren_chad_0017,chad,negative,non-camp,neg_barren_0095,,,,,,barren
8.829604613699512,16.18472255416579,neg_barren_chad_0018,chad,negative,non-camp,neg_barren_0096,,,,,,barren
9.409145410644882,15.774560090607478,neg_barren_chad_0019,chad,negative,non-camp,neg_barren_0097,,,,,,barren
11.573317322370887,15.235875942207034,neg_barren_chad_0020,chad,negative,non-camp,neg_barren_0098,,,,,,barren
20.26143223884658,21.867789099718323,neg_barren_chad_0021,chad,negative,non-camp,neg_barren_0099,,,,,,barren
8.104394523767384,21.62375703945753,neg_barren_chad_0022,chad,negative,non-camp,neg_barren_0100,,,,,,barren
20.52047062052181,23.985358193075474,neg_barren_chad_0023,chad,negative,non-camp,neg_barren_0101,,,,,,barren
19.386487087120337,17.922087501717737,neg_barren_chad_0024,chad,negative,non-camp,neg_barren_0102,,,,,,barren
11.920722457930854,23.798046662462852,neg_barren_chad_0025,chad,negative,non-camp,neg_barren_0103,,,,,,barren
19.309802075821988,21.796470865124817,neg_barren_chad_0026,chad,negative,non-camp,neg_barren_0104,,,,,,barren
22.89693003280905,20.456162798622284,neg_barren_chad_0027,chad,negative,non-camp,neg_barren_0105,,,,,,barren
22.645638155490005,15.32703268148504,neg_barren_chad_0028,chad,negative,non-camp,neg_barren_0106,,,,,,barren
21.299144211870463,18.74306754981533,neg_barren_chad_0029,chad,negative,non-camp,neg_barren_0107,,,,,,barren
10.574854387577032,23.916202318210416,neg_barren_chad_0030,chad,negative,non-camp,neg_barren_0108,,,,,,barren
9.920554510858983,14.472446385697898,neg_barren_chad_0031,chad,negative,non-camp,neg_barren_0109,,,,,,barren
12.130917567674278,16.821976861733585,neg_barren_chad_0032,chad,negative,non-camp,neg_barren_0110,,,,,,barren
20.687203569888634,14.011443697484466,neg_barren_chad_0033,chad,negative,non-camp,neg_barren_0111,,,,,,barren
9.13708094941385,21.761994599869716,neg_barren_chad_0034,chad,negative,non-camp,neg_barren_0112,,,,,,barren
11.38437146802945,17.857492959359938,neg_barren_chad_0035,chad,negative,non-camp,neg_barren_0113,,,,,,barren
22.243586204740865,21.908630738363875,neg_barren_chad_0036,chad,negative,non-camp,neg_barren_0114,,,,,,barren
22.93622798683286,14.98535856970722,neg_barren_chad_0037,chad,negative,non-camp,neg_barren_0115,,,,,,barren
7.901545403963946,15.086623747235084,neg_barren_chad_0038,chad,negative,non-camp,neg_barren_0116,,,,,,barren
7.764291260340155,14.026058777743163,neg_barren_chad_0039,chad,negative,non-camp,neg_barren_0117,,,,,,barren
20.742628916511546,21.626789470007182,neg_barren_chad_0040,chad,negative,non-camp,neg_barren_0118,,,,,,barren
21.779793283855504,22.137530652392442,neg_barren_chad_0041,chad,negative,non-camp,neg_barren_0119,,,,,,barren
19.352386518347203,22.534234252224245,neg_barren_chad_0042,chad,negative,non-camp,neg_barren_0120,,,,,,barren
10.028537303366889,22.096174728965615,neg_barren_chad_0043,chad,negative,non-camp,neg_barren_0121,,,,,,barren
20.541694730659835,21.239008265800106,neg_barren_chad_0044,chad,negative,non-camp,neg_barren_0122,,,,,,barren
22.26043577602435,18.77900070423527,neg_barren_chad_0045,chad,negative,non-camp,neg_barren_0123,,,,,,barren
9.671856300628754,17.34403270253574,neg_barren_chad_0046,chad,negative,non-camp,neg_barren_0124,,,,,,barren
19.647845976912375,21.3831982353168,neg_barren_chad_0047,chad,negative,non-camp,neg_barren_0125,,,,,,barren
19.05997322758287,15.32634807368303,neg_barren_chad_0048,chad,negative,non-camp,neg_barren_0126,,,,,,barren
22.600385912341537,17.666274745183458,neg_barren_chad_0049,chad,negative,non-camp,neg_barren_0127,,,,,,barren
8.099025671168311,20.351774364554064,neg_barren_chad_0050,chad,negative,non-camp,neg_barren_0128,,,,,,barren
20.534186002676044,22.684636616039487,neg_barren_chad_0051,chad,negative,non-camp,neg_barren_0129,,,,,,barren
11.63234157899238,15.494926150239952,neg_barren_chad_0052,chad,negative,non-camp,neg_barren_0130,,,,,,barren
21.798122841293587,16.51405011465016,neg_barren_chad_0053,chad,negative,non-camp,neg_barren_0131,,,,,,barren
10.160518385838722,19.271069332203943,neg_barren_chad_0054,chad,negative,non-camp,neg_barren_0132,,,,,,barren
10.85268890268008,13.749863865421482,neg_barren_chad_0055,chad,negative,non-camp,neg_barren_0133,,,,,,barren
21.536285247146242,18.589602556302562,neg_barren_chad_0056,chad,negative,non-camp,neg_barren_0134,,,,,,barren
12.056018465534299,15.05186560873148,neg_informal_chad_0000,chad,negative,non-camp,neg_informal_0078,,,,,,informal
12.105791031873286,15.092661148465794,neg_informal_chad_0001,chad,negative,non-camp,neg_informal_0079,,,,,,informal
12.086122306789004,15.048536948085712,neg_informal_chad_0002,chad,negative,non-camp,neg_informal_0080,,,,,,informal
12.05706967614951,15.062191847076926,neg_informal_chad_0003,chad,negative,non-camp,neg_informal_0081,,,,,,informal
12.061474961856439,15.066409513704723,neg_informal_chad_0004,chad,negative,non-camp,neg_informal_0082,,,,,,informal
12.097665238250963,15.01660792109194,neg_informal_chad_0005,chad,negative,non-camp,neg_informal_0083,,,,,,informal
12.030106746502275,15.031227713884075,neg_informal_chad_0006,chad,negative,non-camp,neg_informal_0084,,,,,,informal
12.119451149771878,15.074629076322857,neg_informal_chad_0007,chad,negative,non-camp,neg_informal_0085,,,,,,informal
12.047196035193702,15.099026396182362,neg_informal_chad_0008,chad,negative,non-camp,neg_informal_0086,,,,,,informal
12.076995594028734,15.057609175667867,neg_informal_chad_0009,chad,negative,non-camp,neg_informal_0087,,,,,,informal
12.123554194384266,15.015948669218334,neg_informal_chad_0010,chad,negative,non-camp,neg_informal_0088,,,,,,informal
12.051517827462872,15.068577132515474,neg_informal_chad_0011,chad,negative,non-camp,neg_informal_0089,,,,,,informal
12.0495486509582,15.077952700920896,neg_informal_chad_0012,chad,negative,non-camp,neg_informal_0090,,,,,,informal
12.051409228933672,15.019915697059881,neg_informal_chad_0013,chad,negative,non-camp,neg_informal_0091,,,,,,informal
12.050698515964084,15.052273403427206,neg_informal_chad_0014,chad,negative,non-camp,neg_informal_0092,,,,,,informal
12.047613829917308,15.023469202492334,neg_informal_chad_0015,chad,negative,non-camp,neg_informal_0093,,,,,,informal
12.116028188621895,15.042039720359732,neg_informal_chad_0016,chad,negative,non-camp,neg_informal_0094,,,,,,informal
12.066075868651826,15.015527040950124,neg_informal_chad_0017,chad,negative,non-camp,neg_informal_0095,,,,,,informal
12.065736962350206,15.036480717732159,neg_informal_chad_0018,chad,negative,non-camp,neg_informal_0096,,,,,,informal
12.091048506734179,15.03053902976724,neg_informal_chad_0019,chad,negative,non-camp,neg_informal_0097,,,,,,informal
12.118836545306284,15.102966662091957,neg_informal_chad_0020,chad,negative,non-camp,neg_informal_0098,,,,,,informal
12.03998310571768,15.020740295628858,neg_informal_chad_0021,chad,negative,non-camp,neg_informal_0099,,,,,,informal
12.041532643811099,15.071956925631032,neg_informal_chad_0022,chad,negative,non-camp,neg_informal_0100,,,,,,informal
12.042196896420963,15.095238231793028,neg_informal_chad_0023,chad,negative,non-camp,neg_informal_0101,,,,,,informal
12.105427151493789,15.091980885823803,neg_informal_chad_0024,chad,negative,non-camp,neg_informal_0102,,,,,,informal
12.082606052688602,15.109667721151915,neg_informal_chad_0025,chad,negative,non-camp,neg_informal_0103,,,,,,informal
12.034417510294416,15.050126496418612,neg_informal_chad_0026,chad,negative,non-camp,neg_informal_0104,,,,,,informal
12.062393666893763,15.104864549871264,neg_informal_chad_0027,chad,negative,non-camp,neg_informal_0105,,,,,,informal
12.08768609584976,15.090619096544472,neg_informal_chad_0028,chad,negative,non-camp,neg_informal_0106,,,,,,informal
12.047034119365852,15.107863414390044,neg_informal_chad_0029,chad,negative,non-camp,neg_informal_0107,,,,,,informal
12.079863954687632,15.059367207627066,neg_informal_chad_0030,chad,negative,non-camp,neg_informal_0108,,,,,,informal
12.127088472854574,15.048073236121715,neg_informal_chad_0031,chad,negative,non-camp,neg_informal_0109,,,,,,informal
12.069752502455499,15.068475270280494,neg_informal_chad_0032,chad,negative,non-camp,neg_informal_0110,,,,,,informal
12.042805261054779,15.042108562641186,neg_informal_chad_0033,chad,negative,non-camp,neg_informal_0111,,,,,,informal
12.049320832244513,15.020328347910706,neg_informal_chad_0034,chad,negative,non-camp,neg_informal_0112,,,,,,informal
12.116614460633102,15.068933116612747,neg_informal_chad_0035,chad,negative,non-camp,neg_informal_0113,,,,,,informal
12.06586727915279,15.050866937736672,neg_informal_chad_0036,chad,negative,non-camp,neg_informal_0114,,,,,,informal
12.073151900368735,15.073314918214471,neg_informal_chad_0037,chad,negative,non-camp,neg_informal_0115,,,,,,informal
12.1226769391489,15.103277961965698,neg_informal_chad_0038,chad,negative,non-camp,neg_informal_0116,,,,,,informal
12.069149197953067,15.042926245959777,neg_informal_chad_0039,chad,negative,non-camp,neg_informal_0117,,,,,,informal
12.075104650018526,15.06679342304285,neg_informal_chad_0040,chad,negative,non-camp,neg_informal_0118,,,,,,informal
12.076181791144975,15.075875340981671,neg_informal_chad_0041,chad,negative,non-camp,neg_informal_0119,,,,,,informal
12.085439902337976,15.042071554669407,neg_informal_chad_0042,chad,negative,non-camp,neg_informal_0120,,,,,,informal
12.064573080576263,15.047859278755974,neg_informal_chad_0043,chad,negative,non-camp,neg_informal_0121,,,,,,informal
12.039463976824939,15.026606263241398,neg_informal_chad_0044,chad,negative,non-camp,neg_informal_0122,,,,,,informal
12.10231138021454,15.048909671152208,neg_informal_chad_0045,chad,negative,non-camp,neg_informal_0123,,,,,,informal
12.051453897256014,15.066267241057487,neg_informal_chad_0046,chad,negative,non-camp,neg_informal_0124,,,,,,informal
12.105553954247343,15.035742236234537,neg_informal_chad_0047,chad,negative,non-camp,neg_informal_0125,,,,,,informal
12.112678988192375,15.102750485962506,neg_informal_chad_0048,chad,negative,non-camp,neg_informal_0126,,,,,,informal
12.089739452907384,15.076894765899159,neg_informal_chad_0049,chad,negative,non-camp,neg_informal_0127,,,,,,informal
12.035257599032306,15.104551989102191,neg_informal_chad_0050,chad,negative,non-camp,neg_informal_0128,,,,,,informal
12.069248473426494,15.102390040054544,neg_informal_chad_0051,chad,negative,non-camp,neg_informal_0129,,,,,,informal
12.087897752475024,15.010461879884334,neg_informal_chad_0052,chad,negative,non-camp,neg_informal_0130,,,,,,informal
12.033854199932344,15.078041880566992,neg_informal_chad_0053,chad,negative,non-camp,neg_informal_0131,,,,,,informal
12.086266801383193,15.012653243720608,neg_informal_chad_0054,chad,negative,non-camp,neg_informal_0132,,,,,,informal
12.10434599612224,15.095214533706919,neg_informal_chad_0055,chad,negative,non-camp,neg_informal_0133,,,,,,informal
12.079641748243931,15.056575744035726,neg_informal_chad_0056,chad,negative,non-camp,neg_informal_0134,,,,,,informal
35.83448058565815,42.79450729743983,neg_rural_turkey_0000,turkey,negative,non-camp,neg_rural_0135,,,,,,rural
37.883511220500466,43.66037802595587,neg_rural_turkey_0001,turkey,negative,non-camp,neg_rural_0136,,,,,,rural
38.15028170161573,40.71173235992863,neg_rural_turkey_0002,turkey,negative,non-camp,neg_rural_0137,,,,,,rural
40.68191979130236,40.067950501155046,neg_rural_turkey_0003,turkey,negative,non-camp,neg_rural_0138,,,,,,rural
39.17987391963918,44.47490996272831,neg_rural_turkey_0004,turkey,negative,non-camp,neg_rural_0139,,,,,,rural
41.870553446999565,43.44303594400259,neg_rural_turkey_0005,turkey,negative,non-camp,neg_rural_0140,,,,,,rural
36.98193854441971,40.98616332643485,neg_rural_turkey_0006,turkey,negative,non-camp,neg_rural_0141,,,,,,rural
41.332328775329884,38.91996100262001,neg_rural_turkey_0007,turkey,negative,non-camp,neg_rural_0142,,,,,,rural
36.43696884539418,43.02305128105526,neg_rural_turkey_0008,turkey,negative,non-camp,neg_rural_0143,,,,,,rural
38.83511037358168,40.705291195376276,neg_rural_turkey_0009,turkey,negative,non-camp,neg_rural_0144,,,,,,rural
41.98750906680242,41.107787446644274,neg_rural_turkey_0010,turkey,negative,non-camp,neg_rural_0145,,,,,,rural
38.47737012969644,38.87785305776366,neg_rural_turkey_0011,turkey,negative,non-camp,neg_rural_0146,,,,,,rural
38.431001543720484,36.51295138187948,neg_rural_turkey_0012,turkey,negative,non-camp,neg_rural_0147,,,,,,rural
40.8069285180307,43.274538466958184,neg_rural_turkey_0013,turkey,negative,non-camp,neg_rural_0148,,,,,,rural
41.308305814909325,35.62532134196278,neg_rural_turkey_0014,turkey,negative,non-camp,neg_rural_0149,,,,,,rural
39.07888189573353,39.75855171800611,neg_rural_turkey_0015,turkey,negative,non-camp,neg_rural_0150,,,,,,rural
40.1477986483443,36.93588198140487,neg_rural_turkey_0016,turkey,negative,non-camp,neg_rural_0151,,,,,,rural
40.01048366700947,38.94129967402384,neg_rural_turkey_0017,turkey,negative,non-camp,neg_rural_0152,,,,,,rural
37.04273732014107,36.0544342035542,neg_urban_turkey_0000,turkey,negative,non-camp,neg_urban_0135,,,,,,urban
37.07801032183365,38.21715750502779,neg_urban_turkey_0001,turkey,negative,non-camp,neg_urban_0136,,,,,,urban
36.87026451550448,36.10785074908443,neg_urban_turkey_0002,turkey,negative,non-camp,neg_urban_0137,,,,,,urban
36.85485165374979,36.381035126462656,neg_urban_turkey_0003,turkey,negative,non-camp,neg_urban_0138,,,,,,urban
36.965797862138494,36.33122905690243,neg_urban_turkey_0004,turkey,negative,non-camp,neg_urban_0139,,,,,,urban
36.84906470080099,36.2746010084566,neg_urban_turkey_0005,turkey,negative,non-camp,neg_urban_0140,,,,,,urban
37.20370727122684,38.368324396228026,neg_urban_turkey_0006,turkey,negative,non-camp,neg_urban_0141,,,,,,urban
36.97518748874966,36.05292359896265,neg_urban_turkey_0007,turkey,negative,non-camp,neg_urban_0142,,,,,,urban
37.01245627046414,36.39767547884326,neg_urban_turkey_0008,turkey,negative,non-camp,neg_urban_0143,,,,,,urban
36.83454372238318,36.294086921306615,neg_urban_turkey_0009,turkey,negative,non-camp,neg_urban_0144,,,,,,urban
36.99863535201089,38.46507609522621,neg_urban_turkey_0010,turkey,negative,non-camp,neg_urban_0145,,,,,,urban
37.156914676723986,36.3414912677636,neg_urban_turkey_0011,turkey,negative,non-camp,neg_urban_0146,,,,,,urban
36.862301577610936,36.061536761434226,neg_urban_turkey_0012,turkey,negative,non-camp,neg_urban_0147,,,,,,urban
36.87607276155085,36.23256333507131,neg_urban_turkey_0013,turkey,negative,non-camp,neg_urban_0148,,,,,,urban
37.219668148836334,38.344281320877755,neg_urban_turkey_0014,turkey,negative,non-camp,neg_urban_0149,,,,,,urban
37.05020577974744,38.1627221814534,neg_urban_turkey_0015,turkey,negative,non-camp,neg_urban_0150,,,,,,urban
37.168750835690176,36.15183550662919,neg_urban_turkey_0016,turkey,negative,non-camp,neg_urban_0151,,,,,,urban
36.992977028662544,38.487174350160934,neg_urban_turkey_0017,turkey,negative,non-camp,neg_urban_0152,,,,,,urban
41.849202746547235,42.053732607373604,neg_barren_turkey_0000,turkey,negative,non-camp,neg_barren_0135,,,,,,barren
37.64444635129532,43.31625376185859,neg_barren_turkey_0001,turkey,negative,non-camp,neg_barren_0136,,,,,,barren
36.039907635334835,42.880412512569514,neg_barren_turkey_0002,turkey,negative,non-camp,neg_barren_0137,,,,,,barren
36.82720667470093,43.84986281741283,neg_barren_turkey_0003,turkey,negative,non-camp,neg_barren_0138,,,,,,barren
37.13214443055161,39.93962086103477,neg_barren_turkey_0004,turkey,negative,non-camp,neg_barren_0139,,,,,,barren
40.940185354151815,38.79903087798303,neg_barren_turkey_0005,turkey,negative,non-camp,neg_barren_0140,,,,,,barren
40.37963361462476,36.127899201448116,neg_barren_turkey_0006,turkey,negative,non-camp,neg_barren_0141,,,,,,barren
36.643077767619225,44.14843419231943,neg_barren_turkey_0007,turkey,negative,non-camp,neg_barren_0142,,,,,,barren
35.86648260632855,36.88071940838431,neg_barren_turkey_0008,turkey,negative,non-camp,neg_barren_0143,,,,,,barren
42.05414108609646,37.455819725825364,neg_barren_turkey_0009,turkey,negative,non-camp,neg_barren_0144,,,,,,barren
37.569374400799965,44.58561166119496,neg_barren_turkey_0010,turkey,negative,non-camp,neg_barren_0145,,,,,,barren
40.30283234668757,36.843857225854926,neg_barren_turkey_0011,turkey,negative,non-camp,neg_barren_0146,,,,,,barren
40.57878481566452,40.74455531821511,neg_barren_turkey_0012,turkey,negative,non-camp,neg_barren_0147,,,,,,barren
36.8153436901823,41.28430183297136,neg_barren_turkey_0013,turkey,negative,non-camp,neg_barren_0148,,,,,,barren
41.72310304307358,41.20721573995248,neg_barren_turkey_0014,turkey,negative,non-camp,neg_barren_0149,,,,,,barren
37.59331347224093,38.670267292111966,neg_barren_turkey_0015,turkey,negative,non-camp,neg_barren_0150,,,,,,barren
40.63700573046272,39.51571071735287,neg_barren_turkey_0016,turkey,negative,non-camp,neg_barren_0151,,,,,,barren
36.51500556428575,42.645268208454475,neg_barren_turkey_0017,turkey,negative,non-camp,neg_barren_0152,,,,,,barren
37.05404766921707,36.2182808770431,neg_informal_turkey_0000,turkey,negative,non-camp,neg_informal_0135,,,,,,informal
37.11531918850228,38.36728533946849,neg_informal_turkey_0001,turkey,negative,non-camp,neg_informal_0136,,,,,,informal
37.0434759746809,36.22286456026621,neg_informal_turkey_0002,turkey,negative,non-camp,neg_informal_0137,,,,,,informal
37.06688730416127,38.39366696918651,neg_informal_turkey_0003,turkey,negative,non-camp,neg_informal_0138,,,,,,informal
37.06879035790365,38.31073123628325,neg_informal_turkey_0004,turkey,negative,non-camp,neg_informal_0139,,,,,,informal
37.10195495981097,38.350819291477826,neg_informal_turkey_0005,turkey,negative,non-camp,neg_informal_0140,,,,,,informal
37.04366674893388,36.29948148928296,neg_informal_turkey_0006,turkey,negative,non-camp,neg_informal_0141,,,,,,informal
37.04779465807398,36.24217660627146,neg_informal_turkey_0007,turkey,negative,non-camp,neg_informal_0142,,,,,,informal
37.006682575470144,36.25929566311496,neg_informal_turkey_0008,turkey,negative,non-camp,neg_informal_0143,,,,,,informal
37.0637608980229,36.20508334619485,neg_informal_turkey_0009,turkey,negative,non-camp,neg_informal_0144,,,,,,informal
37.0981387101253,36.246900507901266,neg_informal_turkey_0010,turkey,negative,non-camp,neg_informal_0145,,,,,,informal
37.04755611732329,36.20603308185742,neg_informal_turkey_0011,turkey,negative,non-camp,neg_informal_0146,,,,,,informal
37.132221354609385,38.36481837296672,neg_informal_turkey_0012,turkey,negative,non-camp,neg_informal_0147,,,,,,informal
37.09281698635089,38.36379367442466,neg_informal_turkey_0013,turkey,negative,non-camp,neg_informal_0148,,,,,,informal
37.135622900379666,38.36310654428719,neg_informal_turkey_0014,turkey,negative,non-camp,neg_informal_0149,,,,,,informal
37.06625295943662,36.26718541886141,neg_informal_turkey_0015,turkey,negative,non-camp,neg_informal_0150,,,,,,informal
37.09605869625066,36.237091232154164,neg_informal_turkey_0016,turkey,negative,non-camp,neg_informal_0151,,,,,,informal
37.131212296118704,38.35057623147428,neg_informal_turkey_0017,turkey,negative,non-camp,neg_informal_0152,,,,,,informal
36.00023119650982,38.78166503326092,neg_rural_syria_0000,syria,negative,non-camp,neg_rural_0153,,,,,,rural
33.38963066048163,40.683057592921536,neg_rural_syria_0001,syria,negative,non-camp,neg_rural_0154,,,,,,rural
32.9670873976154,37.04256719911851,neg_rural_syria_0002,syria,negative,non-camp,neg_rural_0155,,,,,,rural
35.450393163748885,40.69681686927919,neg_rural_syria_0003,syria,negative,non-camp,neg_rural_0156,,,,,,rural
36.79238631320776,37.53542607278984,neg_rural_syria_0004,syria,negative,non-camp,neg_rural_0157,,,,,,rural
32.86472853558878,42.087270752420714,neg_rural_syria_0005,syria,negative,non-camp,neg_rural_0158,,,,,,rural
33.08365967099093,37.0364621018159,neg_rural_syria_0006,syria,negative,non-camp,neg_rural_0159,,,,,,rural
33.76956056232792,39.24574641781508,neg_rural_syria_0007,syria,negative,non-camp,neg_rural_0160,,,,,,rural
36.73295608583073,40.785236511380916,neg_rural_syria_0008,syria,negative,non-camp,neg_rural_0161,,,,,,rural
35.857869344751606,36.886702581920986,neg_rural_syria_0009,syria,negative,non-camp,neg_rural_0162,,,,,,rural
34.10198998394513,38.906176807737275,neg_rural_syria_0010,syria,negative,non-camp,neg_rural_0163,,,,,,rural
33.048604026962785,37.54104181616364,neg_rural_syria_0011,syria,negative,non-camp,neg_rural_0164,,,,,,rural
33.854749351803754,36.5676594808714,neg_rural_syria_0012,syria,negative,non-camp,neg_rural_0165,,,,,,rural
35.06670085646037,40.415487788851124,neg_rural_syria_0013,syria,negative,non-camp,neg_rural_0166,,,,,,rural
32.66035747369908,38.924279857742576,neg_rural_syria_0014,syria,negative,non-camp,neg_rural_0167,,,,,,rural
36.22887808829165,40.7016142588233,neg_rural_syria_0015,syria,negative,non-camp,neg_rural_0168,,,,,,rural
36.39351621205596,38.70528261691624,neg_rural_syria_0016,syria,negative,non-camp,neg_rural_0169,,,,,,rural
36.4209909840257,37.32341545428704,neg_rural_syria_0017,syria,negative,non-camp,neg_rural_0170,,,,,,rural
34.11766091270175,36.894528138942555,neg_rural_syria_0018,syria,negative,non-camp,neg_rural_0171,,,,,,rural
34.65209754253715,38.331119749286856,neg_rural_syria_0019,syria,negative,non-camp,neg_rural_0172,,,,,,rural
33.5170448532357,40.726859523477,neg_rural_syria_0020,syria,negative,non-camp,neg_rural_0173,,,,,,rural
33.88237232827935,37.53687683877126,neg_rural_syria_0021,syria,negative,non-camp,neg_rural_0174,,,,,,rural
32.965760557560984,38.64255253400098,neg_rural_syria_0022,syria,negative,non-camp,neg_rural_0175,,,,,,rural
33.827852790474886,38.17935712333085,neg_rural_syria_0023,syria,negative,non-camp,neg_rural_0176,,,,,,rural
33.49234628572897,40.802615562200536,neg_rural_syria_0024,syria,negative,non-camp,neg_rural_0177,,,,,,rural
36.96931677024713,39.03622613957399,neg_rural_syria_0025,syria,negative,non-camp,neg_rural_0178,,,,,,rural
35.531422100937576,41.49536736220067,neg_rural_syria_0026,syria,negative,non-camp,neg_rural_0179,,,,,,rural
37.31413648304163,39.80601978830068,neg_rural_syria_0027,syria,negative,non-camp,neg_rural_0180,,,,,,rural
36.76779512736474,41.77133092206058,neg_rural_syria_0028,syria,negative,non-camp,neg_rural_0181,,,,,,rural
36.275171953916185,38.789803064546916,neg_rural_syria_0029,syria,negative,non-camp,neg_rural_0182,,,,,,rural
32.71658154212374,35.82526499923129,neg_rural_syria_0030,syria,negative,non-camp,neg_rural_0183,,,,,,rural
34.700775172747456,39.01213479334056,neg_rural_syria_0031,syria,negative,non-camp,neg_rural_0184,,,,,,rural
34.35088556319349,39.503994559600486,neg_rural_syria_0032,syria,negative,non-camp,neg_rural_0185,,,,,,rural
35.076335143555184,41.291842853277736,neg_rural_syria_0033,syria,negative,non-camp,neg_rural_0186,,,,,,rural
32.85437208734394,37.21968325626293,neg_rural_syria_0034,syria,negative,non-camp,neg_rural_0187,,,,,,rural
36.28295494458775,41.36659353570954,neg_rural_syria_0035,syria,negative,non-camp,neg_rural_0188,,,,,,rural
37.294069310240545,41.53359402913798,neg_rural_syria_0036,syria,negative,non-camp,neg_rural_0189,,,,,,rural
36.76839402543238,37.81355729791517,neg_rural_syria_0037,syria,negative,non-camp,neg_rural_0190,,,,,,rural
34.32232478638698,37.50544679810487,neg_rural_syria_0038,syria,negative,non-camp,neg_rural_0191,,,,,,rural
35.347559984945505,41.97244365901888,neg_rural_syria_0039,syria,negative,non-camp,neg_rural_0192,,,,,,rural
34.03665084142321,39.42963186733046,neg_rural_syria_0040,syria,negative,non-camp,neg_rural_0193,,,,,,rural
33.79446114857196,36.85086782532623,neg_rural_syria_0041,syria,negative,non-camp,neg_rural_0194,,,,,,rural
33.28787950439147,36.10591599462394,neg_rural_syria_0042,syria,negative,non-camp,neg_rural_0195,,,,,,rural
37.06596055027638,38.40317819266081,neg_rural_syria_0043,syria,negative,non-camp,neg_rural_0196,,,,,,rural
36.48894566893056,40.25765428811334,neg_rural_syria_0044,syria,negative,non-camp,neg_rural_0197,,,,,,rural
33.27152501866954,36.88857856221672,neg_rural_syria_0045,syria,negative,non-camp,neg_rural_0198,,,,,,rural
36.378060889567834,37.48297999272612,neg_rural_syria_0046,syria,negative,non-camp,neg_rural_0199,,,,,,rural
35.705320158416896,41.14439601436602,neg_rural_syria_0047,syria,negative,non-camp,neg_rural_0200,,,,,,rural
33.48863450596238,37.55954104062073,neg_rural_syria_0048,syria,negative,non-camp,neg_rural_0201,,,,,,rural
37.1422396195574,37.48222005160542,neg_rural_syria_0049,syria,negative,non-camp,neg_rural_0202,,,,,,rural
34.46408481999924,38.60055385099416,neg_rural_syria_0050,syria,negative,non-camp,neg_rural_0203,,,,,,rural
33.577704097147716,40.886768635671025,neg_rural_syria_0051,syria,negative,non-camp,neg_rural_0204,,,,,,rural
36.17696520957807,38.239597974730415,neg_rural_syria_0052,syria,negative,non-camp,neg_rural_0205,,,,,,rural
36.49398021331448,37.139079063097356,neg_rural_syria_0053,syria,negative,non-camp,neg_rural_0206,,,,,,rural
32.331571936095074,39.52397463129124,neg_rural_syria_0054,syria,negative,non-camp,neg_rural_0207,,,,,,rural
37.29032963998642,35.97737110344705,neg_rural_syria_0055,syria,negative,non-camp,neg_rural_0208,,,,,,rural
33.35207034927939,39.17597151896398,neg_rural_syria_0056,syria,negative,non-camp,neg_rural_0209,,,,,,rural
36.367803089588804,36.31301975379986,neg_rural_syria_0057,syria,negative,non-camp,neg_rural_0210,,,,,,rural
34.29012561533206,40.69552483219505,neg_rural_syria_0058,syria,negative,non-camp,neg_rural_0211,,,,,,rural
34.17143147411587,36.977650560367756,neg_rural_syria_0059,syria,negative,non-camp,neg_rural_0212,,,,,,rural
33.2894340952569,38.450924920853865,neg_rural_syria_0060,syria,negative,non-camp,neg_rural_0213,,,,,,rural
34.71187954477752,41.459684022654656,neg_rural_syria_0061,syria,negative,non-camp,neg_rural_0214,,,,,,rural
35.52768461702565,40.31807701707324,neg_rural_syria_0062,syria,negative,non-camp,neg_rural_0215,,,,,,rural
37.234765729394894,38.46287731240449,neg_rural_syria_0063,syria,negative,non-camp,neg_rural_0216,,,,,,rural
34.33080556027814,41.869490805053914,neg_rural_syria_0064,syria,negative,non-camp,neg_rural_0217,,,,,,rural
33.541836690895344,40.58056954037709,neg_rural_syria_0065,syria,negative,non-camp,neg_rural_0218,,,,,,rural
36.090411422472854,36.37126806298665,neg_rural_syria_0066,syria,negative,non-camp,neg_rural_0219,,,,,,rural
34.65583934252486,37.05574605900155,neg_rural_syria_0067,syria,negative,non-camp,neg_rural_0220,,,,,,rural
33.238730116740456,38.80909521568276,neg_rural_syria_0068,syria,negative,non-camp,neg_rural_0221,,,,,,rural
33.760042834615405,41.0217625811883,neg_rural_syria_0069,syria,negative,non-camp,neg_rural_0222,,,,,,rural
36.85710050586632,41.06611923122052,neg_rural_syria_0070,syria,negative,non-camp,neg_rural_0223,,,,,,rural
33.64281467183454,37.545735061966134,neg_rural_syria_0071,syria,negative,non-camp,neg_rural_0224,,,,,,rural
33.58618903408851,36.619353719734534,neg_rural_syria_0072,syria,negative,non-camp,neg_rural_0225,,,,,,rural
37.038429824199596,38.397638335726086,neg_rural_syria_0073,syria,negative,non-camp,neg_rural_0226,,,,,,rural
33.43569426747483,41.3588291963849,neg_rural_syria_0074,syria,negative,non-camp,neg_rural_0227,,,,,,rural
34.30996846631553,35.95387796199038,neg_rural_syria_0075,syria,negative,non-camp,neg_rural_0228,,,,,,rural
33.12132726695065,39.97740726677209,neg_rural_syria_0076,syria,negative,non-camp,neg_rural_0229,,,,,,rural
36.23235542360034,37.12482302733483,neg_rural_syria_0077,syria,negative,non-camp,neg_rural_0230,,,,,,rural
36.90615190222337,41.387640819547414,neg_rural_syria_0078,syria,negative,non-camp,neg_rural_0231,,,,,,rural
36.560387577846015,37.236223237682765,neg_rural_syria_0079,syria,negative,non-camp,neg_rural_0232,,,,,,rural
32.56318530313679,41.49704077295401,neg_rural_syria_0080,syria,negative,non-camp,neg_rural_0233,,,,,,rural
33.84205914598022,39.841983098615685,neg_rural_syria_0081,syria,negative,non-camp,neg_rural_0234,,,,,,rural
36.117434087340655,36.57443310168406,neg_rural_syria_0082,syria,negative,non-camp,neg_rural_0235,,,,,,rural
36.22200015614043,41.9704863166807,neg_rural_syria_0083,syria,negative,non-camp,neg_rural_0236,,,,,,rural
33.592214987668704,36.268840189453,neg_urban_syria_0000,syria,negative,non-camp,neg_urban_0153,,,,,,urban
33.51988474682612,36.37811753401403,neg_urban_syria_0001,syria,negative,non-camp,neg_urban_0154,,,,,,urban
36.3153821397891,37.23976703021164,neg_urban_syria_0002,syria,negative,non-camp,neg_urban_0155,,,,,,urban
36.0624238043261,37.05580187057034,neg_urban_syria_0003,syria,negative,non-camp,neg_urban_0156,,,,,,urban
33.511034977312924,36.29189969202552,neg_urban_syria_0004,syria,negative,non-camp,neg_urban_0157,,,,,,urban
36.16223666151724,37.25328089732201,neg_urban_syria_0005,syria,negative,non-camp,neg_urban_0158,,,,,,urban
36.348735350125,37.058821019252605,neg_urban_syria_0006,syria,negative,non-camp,neg_urban_0159,,,,,,urban
36.264069866916216,37.15831257974055,neg_urban_syria_0007,syria,negative,non-camp,neg_urban_0160,,,,,,urban
36.0878708841947,37.25628361308977,neg_urban_syria_0008,syria,negative,non-camp,neg_urban_0161,,,,,,urban
33.5898610796041,36.440429598785265,neg_urban_syria_0009,syria,negative,non-camp,neg_urban_0162,,,,,,urban
36.374306695381286,37.096738242726126,neg_urban_syria_0010,syria,negative,non-camp,neg_urban_0163,,,,,,urban
33.500615785549705,36.46518634887076,neg_urban_syria_0011,syria,negative,non-camp,neg_urban_0164,,,,,,urban
36.05377081664278,37.118454969147,neg_urban_syria_0012,syria,negative,non-camp,neg_urban_0165,,,,,,urban
36.12225847178955,37.253605426229996,neg_urban_syria_0013,syria,negative,non-camp,neg_urban_0166,,,,,,urban
36.1578019386009,37.32279227436045,neg_urban_syria_0014,syria,negative,non-camp,neg_urban_0167,,,,,,urban
33.43847532875854,36.38726952087363,neg_urban_syria_0015,syria,negative,non-camp,neg_urban_0168,,,,,,urban
36.14126835577998,37.18829062247759,neg_urban_syria_0016,syria,negative,non-camp,neg_urban_0169,,,,,,urban
33.62865434727085,36.118802302717526,neg_urban_syria_0017,syria,negative,non-camp,neg_urban_0170,,,,,,urban
36.09925684081483,37.22629041181189,neg_urban_syria_0018,syria,negative,non-camp,neg_urban_0171,,,,,,urban
33.50841782815241,36.12987558441487,neg_urban_syria_0019,syria,negative,non-camp,neg_urban_0172,,,,,,urban
36.145379318046125,37.28143608348783,neg_urban_syria_0020,syria,negative,non-camp,neg_urban_0173,,,,,,urban
36.16271704473134,37.310253383561474,neg_urban_syria_0021,syria,negative,non-camp,neg_urban_0174,,,,,,urban
33.3483170644362,36.37989407037607,neg_urban_syria_0022,syria,negative,non-camp,neg_urban_0175,,,,,,urban
36.33197917957533,37.23858447242537,neg_urban_syria_0023,syria,negative,non-camp,neg_urban_0176,,,,,,urban
33.64885386150901,36.187732924555256,neg_urban_syria_0024,syria,negative,non-camp,neg_urban_0177,,,,,,urban
36.300537179686934,37.058451907478194,neg_urban_syria_0025,syria,negative,non-camp,neg_urban_0178,,,,,,urban
36.1030686698962,36.97978556805913,neg_urban_syria_0026,syria,negative,non-camp,neg_urban_0179,,,,,,urban
33.585606076819666,36.338801727443666,neg_urban_syria_0027,syria,negative,non-camp,neg_urban_0180,,,,,,urban
36.2878381001702,37.16138065073036,neg_urban_syria_0028,syria,negative,non-camp,neg_urban_0181,,,,,,urban
33.49183160680447,36.34055811635731,neg_urban_syria_0029,syria,negative,non-camp,neg_urban_0182,,,,,,urban
33.40255259114126,36.42970113020535,neg_urban_syria_0030,syria,negative,non-camp,neg_urban_0183,,,,,,urban
36.14584290012274,37.178299346852505,neg_urban_syria_0031,syria,negative,non-camp,neg_urban_0184,,,,,,urban
36.070769827982005,37.3200446492561,neg_urban_syria_0032,syria,negative,non-camp,neg_urban_0185,,,,,,urban
33.66188310233971,36.22957869717324,neg_urban_syria_0033,syria,negative,non-camp,neg_urban_0186,,,,,,urban
36.08088849465783,37.04623797884787,neg_urban_syria_0034,syria,negative,non-camp,neg_urban_0187,,,,,,urban
33.373239826836496,36.135669632306545,neg_urban_syria_0035,syria,negative,non-camp,neg_urban_0188,,,,,,urban
33.68633630491375,36.13666076601287,neg_urban_syria_0036,syria,negative,non-camp,neg_urban_0189,,,,,,urban
33.62781165441266,36.31888647802746,neg_urban_syria_0037,syria,negative,non-camp,neg_urban_0190,,,,,,urban
33.60879019364496,36.33712832279816,neg_urban_syria_0038,syria,negative,non-camp,neg_urban_0191,,,,,,urban
33.5598483099953,36.29796503344513,neg_urban_syria_0039,syria,negative,non-camp,neg_urban_0192,,,,,,urban
36.27658988975407,37.13106139064516,neg_urban_syria_0040,syria,negative,non-camp,neg_urban_0193,,,,,,urban
36.18835488288208,37.03109707783548,neg_urban_syria_0041,syria,negative,non-camp,neg_urban_0194,,,,,,urban
33.616765822728965,36.20385336128094,neg_urban_syria_0042,syria,negative,non-camp,neg_urban_0195,,,,,,urban
33.41868680704196,36.413145254638,neg_urban_syria_0043,syria,negative,non-camp,neg_urban_0196,,,,,,urban
33.44887246641518,36.356977953022124,neg_urban_syria_0044,syria,negative,non-camp,neg_urban_0197,,,,,,urban
36.04798808009302,37.24540878586409,neg_urban_syria_0045,syria,negative,non-camp,neg_urban_0198,,,,,,urban
36.130759567896455,37.047984051106255,neg_urban_syria_0046,syria,negative,non-camp,neg_urban_0199,,,,,,urban
33.657526784183965,36.21620691513646,neg_urban_syria_0047,syria,negative,non-camp,neg_urban_0200,,,,,,urban
36.224780169938356,37.074340280985815,neg_urban_syria_0048,syria,negative,non-camp,neg_urban_0201,,,,,,urban
33.55387033103556,36.329720739964465,neg_urban_syria_0049,syria,negative,non-camp,neg_urban_0202,,,,,,urban
36.24447669307139,37.018628725198305,neg_urban_syria_0050,syria,negative,non-camp,neg_urban_0203,,,,,,urban
33.572910128296876,36.355731723998076,neg_urban_syria_0051,syria,negative,non-camp,neg_urban_0204,,,,,,urban
36.04666539898594,37.13086198326909,neg_urban_syria_0052,syria,negative,non-camp,neg_urban_0205,,,,,,urban
33.36121613411155,36.19005245404285,neg_urban_syria_0053,syria,negative,non-camp,neg_urban_0206,,,,,,urban
33.48874654744729,36.37744627154891,neg_urban_syria_0054,syria,negative,non-camp,neg_urban_0207,,,,,,urban
36.31870996764497,37.16648738286621,neg_urban_syria_0055,syria,negative,non-camp,neg_urban_0208,,,,,,urban
33.60375180666646,36.28012015400127,neg_urban_syria_0056,syria,negative,non-camp,neg_urban_0209,,,,,,urban
36.243098980176676,37.3040694189397,neg_urban_syria_0057,syria,negative,non-camp,neg_urban_0210,,,,,,urban
33.507052529308645,36.300316713718985,neg_urban_syria_0058,syria,negative,non-camp,neg_urban_0211,,,,,,urban
36.285505449427184,36.99586612077504,neg_urban_syria_0059,syria,negative,non-camp,neg_urban_0212,,,,,,urban
36.20564747786791,37.14337297211417,neg_urban_syria_0060,syria,negative,non-camp,neg_urban_0213,,,,,,urban
36.19766236895708,37.13859539248996,neg_urban_syria_0061,syria,negative,non-camp,neg_urban_0214,,,,,,urban
36.3663919958725,37.132207526896316,neg_urban_syria_0062,syria,negative,non-camp,neg_urban_0215,,,,,,urban
36.09808980421008,37.00426751380131,neg_urban_syria_0063,syria,negative,non-camp,neg_urban_0216,,,,,,urban
33.330204526533215,36.26550043796017,neg_urban_syria_0064,syria,negative,non-camp,neg_urban_0217,,,,,,urban
33.59404791940794,36.12157367160903,neg_urban_syria_0065,syria,negative,non-camp,neg_urban_0218,,,,,,urban
36.22519384529385,37.02554192514885,neg_urban_syria_0066,syria,negative,non-camp,neg_urban_0219,,,,,,urban
33.3902513998719,36.335590118371094,neg_urban_syria_0067,syria,negative,non-camp,neg_urban_0220,,,,,,urban
36.13744581037906,37.200962077347164,neg_urban_syria_0068,syria,negative,non-camp,neg_urban_0221,,,,,,urban
33.6034714988303,36.19304448511803,neg_urban_syria_0069,syria,negative,non-camp,neg_urban_0222,,,,,,urban
33.65608506704913,36.29007547375281,neg_urban_syria_0070,syria,negative,non-camp,neg_urban_0223,,,,,,urban
33.63590286890444,36.46957829994373,neg_urban_syria_0071,syria,negative,non-camp,neg_urban_0224,,,,,,urban
36.10062043961383,37.073281268882845,neg_urban_syria_0072,syria,negative,non-camp,neg_urban_0225,,,,,,urban
33.42463367957752,36.31968010695417,neg_urban_syria_0073,syria,negative,non-camp,neg_urban_0226,,,,,,urban
33.6876681083325,36.46650011135339,neg_urban_syria_0074,syria,negative,non-camp,neg_urban_0227,,,,,,urban
33.56004979569528,36.41958939573258,neg_urban_syria_0075,syria,negative,non-camp,neg_urban_0228,,,,,,urban
36.35585604504327,37.04338982583864,neg_urban_syria_0076,syria,negative,non-camp,neg_urban_0229,,,,,,urban
33.629821339678145,36.21915274758845,neg_urban_syria_0077,syria,negative,non-camp,neg_urban_0230,,,,,,urban
36.178331255292974,37.32482359654432,neg_urban_syria_0078,syria,negative,non-camp,neg_urban_0231,,,,,,urban
33.65619845187546,36.3974414041381,neg_urban_syria_0079,syria,negative,non-camp,neg_urban_0232,,,,,,urban
36.11688698026021,37.085506026664184,neg_urban_syria_0080,syria,negative,non-camp,neg_urban_0233,,,,,,urban
36.22187985484233,37.15198101496854,neg_urban_syria_0081,syria,negative,non-camp,neg_urban_0234,,,,,,urban
36.249201300769876,37.116996288147874,neg_urban_syria_0082,syria,negative,non-camp,neg_urban_0235,,,,,,urban
36.14007797353221,37.08904371890068,neg_urban_syria_0083,syria,negative,non-camp,neg_urban_0236,,,,,,urban
36.100634451673464,41.38446905361624,neg_barren_syria_0000,syria,negative,non-camp,neg_barren_0153,,,,,,barren
36.15948528318891,40.777211726149105,neg_barren_syria_0001,syria,negative,non-camp,neg_barren_0154,,,,,,barren
32.34179748516921,37.826967305862524,neg_barren_syria_0002,syria,negative,non-camp,neg_barren_0155,,,,,,barren
36.80277691005721,37.55170673059748,neg_barren_syria_0003,syria,negative,non-camp,neg_barren_0156,,,,,,barren
35.899567288764096,39.594303804405044,neg_barren_syria_0004,syria,negative,non-camp,neg_barren_0157,,,,,,barren
37.092734546043545,36.754944814253456,neg_barren_syria_0005,syria,negative,non-camp,neg_barren_0158,,,,,,barren
32.978366106100154,38.669391131404474,neg_barren_syria_0006,syria,negative,non-camp,neg_barren_0159,,,,,,barren
36.085442076072766,41.740001897377894,neg_barren_syria_0007,syria,negative,non-camp,neg_barren_0160,,,,,,barren
32.53550948610706,37.070584414376995,neg_barren_syria_0008,syria,negative,non-camp,neg_barren_0161,,,,,,barren
33.39939968383705,39.71218254514237,neg_barren_syria_0009,syria,negative,non-camp,neg_barren_0162,,,,,,barren
33.05257759630366,37.71981093486923,neg_barren_syria_0010,syria,negative,non-camp,neg_barren_0163,,,,,,barren
36.357578439380916,37.21460984521341,neg_barren_syria_0011,syria,negative,non-camp,neg_barren_0164,,,,,,barren
36.34637537782838,40.45798625574689,neg_barren_syria_0012,syria,negative,non-camp,neg_barren_0165,,,,,,barren
36.47708530534852,40.009102613656125,neg_barren_syria_0013,syria,negative,non-camp,neg_barren_0166,,,,,,barren
33.47730259914074,41.11806130629425,neg_barren_syria_0014,syria,negative,non-camp,neg_barren_0167,,,,,,barren
32.46450493730556,38.88364947706904,neg_barren_syria_0015,syria,negative,non-camp,neg_barren_0168,,,,,,barren
32.67908575633061,36.00339510552753,neg_barren_syria_0016,syria,negative,non-camp,neg_barren_0169,,,,,,barren
36.500706285804156,38.47677592490364,neg_barren_syria_0017,syria,negative,non-camp,neg_barren_0170,,,,,,barren
37.05609656065329,41.88507321378659,neg_barren_syria_0018,syria,negative,non-camp,neg_barren_0171,,,,,,barren
37.21414809209753,35.8389539881067,neg_barren_syria_0019,syria,negative,non-camp,neg_barren_0172,,,,,,barren
33.740748971491605,35.80026540768606,neg_barren_syria_0020,syria,negative,non-camp,neg_barren_0173,,,,,,barren
33.76821296357248,41.7533087773264,neg_barren_syria_0021,syria,negative,non-camp,neg_barren_0174,,,,,,barren
33.13713622906356,36.24051989163669,neg_barren_syria_0022,syria,negative,non-camp,neg_barren_0175,,,,,,barren
33.232583868480944,39.814146716294005,neg_barren_syria_0023,syria,negative,non-camp,neg_barren_0176,,,,,,barren
36.676478490711226,36.742841328713524,neg_barren_syria_0024,syria,negative,non-camp,neg_barren_0177,,,,,,barren
32.42275101294937,40.580339908511654,neg_barren_syria_0025,syria,negative,non-camp,neg_barren_0178,,,,,,barren
33.02012042237943,39.11547023793995,neg_barren_syria_0026,syria,negative,non-camp,neg_barren_0179,,,,,,barren
37.27409625133956,40.602609000566574,neg_barren_syria_0027,syria,negative,non-camp,neg_barren_0180,,,,,,barren
36.0797355015082,37.182400084065925,neg_barren_syria_0028,syria,negative,non-camp,neg_barren_0181,,,,,,barren
37.23368030567245,40.60941466276772,neg_barren_syria_0029,syria,negative,non-camp,neg_barren_0182,,,,,,barren
37.108920383528606,38.23881548324448,neg_barren_syria_0030,syria,negative,non-camp,neg_barren_0183,,,,,,barren
32.67327449576564,39.84027967549588,neg_barren_syria_0031,syria,negative,non-camp,neg_barren_0184,,,,,,barren
32.69761469574914,40.33489109330179,neg_barren_syria_0032,syria,negative,non-camp,neg_barren_0185,,,,,,barren
32.536349225726234,36.30875925606649,neg_barren_syria_0033,syria,negative,non-camp,neg_barren_0186,,,,,,barren
32.820623129466796,36.194488219261494,neg_barren_syria_0034,syria,negative,non-camp,neg_barren_0187,,,,,,barren
36.949917331504864,37.61891518676516,neg_barren_syria_0035,syria,negative,non-camp,neg_barren_0188,,,,,,barren
37.0880861991724,39.18367893566151,neg_barren_syria_0036,syria,negative,non-camp,neg_barren_0189,,,,,,barren
32.980923406692,42.06681457599029,neg_barren_syria_0037,syria,negative,non-camp,neg_barren_0190,,,,,,barren
32.48419599457483,41.6147193015905,neg_barren_syria_0038,syria,negative,non-camp,neg_barren_0191,,,,,,barren
32.381200877614425,37.628714474325996,neg_barren_syria_0039,syria,negative,non-camp,neg_barren_0192,,,,,,barren
36.47993937671478,38.479596121482444,neg_barren_syria_0040,syria,negative,non-camp,neg_barren_0193,,,,,,barren
32.7302934026411,35.93341030525866,neg_barren_syria_0041,syria,negative,non-camp,neg_barren_0194,,,,,,barren
32.87169815833218,40.05789109160871,neg_barren_syria_0042,syria,negative,non-camp,neg_barren_0195,,,,,,barren
35.837707365006956,37.37363969091605,neg_barren_syria_0043,syria,negative,non-camp,neg_barren_0196,,,,,,barren
36.40929017717521,41.11661501812129,neg_barren_syria_0044,syria,negative,non-camp,neg_barren_0197,,,,,,barren
36.61425309294343,39.672813845665004,neg_barren_syria_0045,syria,negative,non-camp,neg_barren_0198,,,,,,barren
36.59124546539982,38.01657618759626,neg_barren_syria_0046,syria,negative,non-camp,neg_barren_0199,,,,,,barren
35.96773195993836,40.93358496721998,neg_barren_syria_0047,syria,negative,non-camp,neg_barren_0200,,,,,,barren
32.34347003740629,39.72514260032358,neg_barren_syria_0048,syria,negative,non-camp,neg_barren_0201,,,,,,barren
32.73806580574079,40.96512019518902,neg_barren_syria_0049,syria,negative,non-camp,neg_barren_0202,,,,,,barren
33.70653143630342,42.25349204361613,neg_barren_syria_0050,syria,negative,non-camp,neg_barren_0203,,,,,,barren
36.48574145482359,39.36293866527093,neg_barren_syria_0051,syria,negative,non-camp,neg_barren_0204,,,,,,barren
36.32243760313232,42.29773200205804,neg_barren_syria_0052,syria,negative,non-camp,neg_barren_0205,,,,,,barren
36.49711942108115,41.33207978064319,neg_barren_syria_0053,syria,negative,non-camp,neg_barren_0206,,,,,,barren
36.538137149640995,42.23378466694795,neg_barren_syria_0054,syria,negative,non-camp,neg_barren_0207,,,,,,barren
36.013774732156186,36.064465134498164,neg_barren_syria_0055,syria,negative,non-camp,neg_barren_0208,,,,,,barren
32.70951154815243,39.07706561771991,neg_barren_syria_0056,syria,negative,non-camp,neg_barren_0209,,,,,,barren
36.45375364618756,41.91450275820583,neg_barren_syria_0057,syria,negative,non-camp,neg_barren_0210,,,,,,barren
33.7696161331589,37.44384534400108,neg_barren_syria_0058,syria,negative,non-camp,neg_barren_0211,,,,,,barren
33.60187478008942,38.70536068132793,neg_barren_syria_0059,syria,negative,non-camp,neg_barren_0212,,,,,,barren
37.102779471217076,38.31666386269158,neg_barren_syria_0060,syria,negative,non-camp,neg_barren_0213,,,,,,barren
33.777720180821966,36.961978743074056,neg_barren_syria_0061,syria,negative,non-camp,neg_barren_0214,,,,,,barren
35.86369760890497,38.32963914800095,neg_barren_syria_0062,syria,negative,non-camp,neg_barren_0215,,,,,,barren
36.83909250791806,36.92760091538057,neg_barren_syria_0063,syria,negative,non-camp,neg_barren_0216,,,,,,barren
32.70600356856855,38.08575077524719,neg_barren_syria_0064,syria,negative,non-camp,neg_barren_0217,,,,,,barren
37.098491946716294,39.52919116677041,neg_barren_syria_0065,syria,negative,non-camp,neg_barren_0218,,,,,,barren
37.16983719104996,38.00205097158405,neg_barren_syria_0066,syria,negative,non-camp,neg_barren_0219,,,,,,barren
36.5603841366336,36.54542744257625,neg_barren_syria_0067,syria,negative,non-camp,neg_barren_0220,,,,,,barren
33.718171654060825,39.75950378871691,neg_barren_syria_0068,syria,negative,non-camp,neg_barren_0221,,,,,,barren
33.38252067469085,42.332100995421165,neg_barren_syria_0069,syria,negative,non-camp,neg_barren_0222,,,,,,barren
36.06177339651778,39.17765378452938,neg_barren_syria_0070,syria,negative,non-camp,neg_barren_0223,,,,,,barren
32.57740246990911,39.80330873050097,neg_barren_syria_0071,syria,negative,non-camp,neg_barren_0224,,,,,,barren
37.211285608888694,37.482064690289604,neg_barren_syria_0072,syria,negative,non-camp,neg_barren_0225,,,,,,barren
35.97969891053671,37.32005799554241,neg_barren_syria_0073,syria,negative,non-camp,neg_barren_0226,,,,,,barren
35.86631342924509,37.580503049210236,neg_barren_syria_0074,syria,negative,non-camp,neg_barren_0227,,,,,,barren
36.38606725393408,38.285217130790755,neg_barren_syria_0075,syria,negative,non-camp,neg_barren_0228,,,,,,barren
36.12077779313517,40.75928518659466,neg_barren_syria_0076,syria,negative,non-camp,neg_barren_0229,,,,,,barren
33.705574841111165,39.07810090788154,neg_barren_syria_0077,syria,negative,non-camp,neg_barren_0230,,,,,,barren
32.782816098260874,40.87443666132679,neg_barren_syria_0078,syria,negative,non-camp,neg_barren_0231,,,,,,barren
33.57894135344642,41.68406048413125,neg_barren_syria_0079,syria,negative,non-camp,neg_barren_0232,,,,,,barren
36.96961397886512,41.09061553378055,neg_barren_syria_0080,syria,negative,non-camp,neg_barren_0233,,,,,,barren
37.213651092741244,36.348314407580105,neg_barren_syria_0081,syria,negative,non-camp,neg_barren_0234,,,,,,barren
33.46744634939278,36.34118422946002,neg_barren_syria_0082,syria,negative,non-camp,neg_barren_0235,,,,,,barren
32.36137165462518,40.84944508329826,neg_barren_syria_0083,syria,negative,non-camp,neg_barren_0236,,,,,,barren
36.209922292165906,37.13024102530914,neg_informal_syria_0000,syria,negative,non-camp,neg_informal_0153,,,,,,informal
36.13978832802149,37.09759238420408,neg_informal_syria_0001,syria,negative,non-camp,neg_informal_0154,,,,,,informal
36.171417752159265,37.074245795282806,neg_informal_syria_0002,syria,negative,non-camp,neg_informal_0155,,,,,,informal
36.15652134561125,37.109273501210176,neg_informal_syria_0003,syria,negative,non-camp,neg_informal_0156,,,,,,informal
33.472510263199226,36.35794117334877,neg_informal_syria_0004,syria,negative,non-camp,neg_informal_0157,,,,,,informal
33.519374312871626,36.312597096481284,neg_informal_syria_0005,syria,negative,non-camp,neg_informal_0158,,,,,,informal
33.462780772069394,36.32025120493351,neg_informal_syria_0006,syria,negative,non-camp,neg_informal_0159,,,,,,informal
33.45573723130551,36.32026793247961,neg_informal_syria_0007,syria,negative,non-camp,neg_informal_0160,,,,,,informal
33.44518017330788,36.305192994302296,neg_informal_syria_0008,syria,negative,non-camp,neg_informal_0161,,,,,,informal
36.171340824438985,37.152391236105075,neg_informal_syria_0009,syria,negative,non-camp,neg_informal_0162,,,,,,informal
36.155672176153516,37.166977157883096,neg_informal_syria_0010,syria,negative,non-camp,neg_informal_0163,,,,,,informal
33.52675930259974,36.35381365548303,neg_informal_syria_0011,syria,negative,non-camp,neg_informal_0164,,,,,,informal
36.144210392585165,37.1226460090635,neg_informal_syria_0012,syria,negative,non-camp,neg_informal_0165,,,,,,informal
36.21182273526273,37.128416214918325,neg_informal_syria_0013,syria,negative,non-camp,neg_informal_0166,,,,,,informal
33.45634493143569,36.36295989720072,neg_informal_syria_0014,syria,negative,non-camp,neg_informal_0167,,,,,,informal
36.18638624034713,37.14210405546667,neg_informal_syria_0015,syria,negative,non-camp,neg_informal_0168,,,,,,informal
33.43588485373324,36.32978560332062,neg_informal_syria_0016,syria,negative,non-camp,neg_informal_0169,,,,,,informal
33.4367527314418,36.32122429711066,neg_informal_syria_0017,syria,negative,non-camp,neg_informal_0170,,,,,,informal
36.15585571781487,37.13629244515369,neg_informal_syria_0018,syria,negative,non-camp,neg_informal_0171,,,,,,informal
33.52370514306705,36.35947285817147,neg_informal_syria_0019,syria,negative,non-camp,neg_informal_0172,,,,,,informal
33.448597441987566,36.30232658843651,neg_informal_syria_0020,syria,negative,non-camp,neg_informal_0173,,,,,,informal
33.50180623366342,36.31426560151603,neg_informal_syria_0021,syria,negative,non-camp,neg_informal_0174,,,,,,informal
36.1456291321961,37.080415149380286,neg_informal_syria_0022,syria,negative,non-camp,neg_informal_0175,,,,,,informal
36.17553521214435,37.15725317491485,neg_informal_syria_0023,syria,negative,non-camp,neg_informal_0176,,,,,,informal
36.178237600462914,37.162235763854596,neg_informal_syria_0024,syria,negative,non-camp,neg_informal_0177,,,,,,informal
36.14140191913346,37.16296321877242,neg_informal_syria_0025,syria,negative,non-camp,neg_informal_0178,,,,,,informal
33.524749304504475,36.301471744746536,neg_informal_syria_0026,syria,negative,non-camp,neg_informal_0179,,,,,,informal
33.475245023483474,36.31161616800673,neg_informal_syria_0027,syria,negative,non-camp,neg_informal_0180,,,,,,informal
33.44900452159596,36.35983753839394,neg_informal_syria_0028,syria,negative,non-camp,neg_informal_0181,,,,,,informal
36.200527240947764,37.0767155677735,neg_informal_syria_0029,syria,negative,non-camp,neg_informal_0182,,,,,,informal
33.43387513315284,36.33537304725769,neg_informal_syria_0030,syria,negative,non-camp,neg_informal_0183,,,,,,informal
33.495545939272,36.279402120216886,neg_informal_syria_0031,syria,negative,non-camp,neg_informal_0184,,,,,,informal
33.524985137991585,36.34485144668931,neg_informal_syria_0032,syria,negative,non-camp,neg_informal_0185,,,,,,informal
33.44364705540445,36.30201609688929,neg_informal_syria_0033,syria,negative,non-camp,neg_informal_0186,,,,,,informal
36.166834416420635,37.12371726483268,neg_informal_syria_0034,syria,negative,non-camp,neg_informal_0187,,,,,,informal
33.436063074218936,36.30688783807375,neg_informal_syria_0035,syria,negative,non-camp,neg_informal_0188,,,,,,informal
33.455454931462725,36.30859212914632,neg_informal_syria_0036,syria,negative,non-camp,neg_informal_0189,,,,,,informal
33.45618963745647,36.33269523404323,neg_informal_syria_0037,syria,negative,non-camp,neg_informal_0190,,,,,,informal
33.4688153834578,36.30453833931695,neg_informal_syria_0038,syria,negative,non-camp,neg_informal_0191,,,,,,informal
36.207186054084396,37.10788679563479,neg_informal_syria_0039,syria,negative,non-camp,neg_informal_0192,,,,,,informal
36.18875194925558,37.16662026253682,neg_informal_syria_0040,syria,negative,non-camp,neg_informal_0193,,,,,,informal
33.52097975765175,36.349367262425645,neg_informal_syria_0041,syria,negative,non-camp,neg_informal_0194,,,,,,informal
36.13587186816501,37.11290988714692,neg_informal_syria_0042,syria,negative,non-camp,neg_informal_0195,,,,,,informal
36.22867119124482,37.11583762911615,neg_informal_syria_0043,syria,negative,non-camp,neg_informal_0196,,,,,,informal
36.13927854541267,37.12620091747129,neg_informal_syria_0044,syria,negative,non-camp,neg_informal_0197,,,,,,informal
33.50515195602794,36.32076769974618,neg_informal_syria_0045,syria,negative,non-camp,neg_informal_0198,,,,,,informal
33.50234313683772,36.35693618268785,neg_informal_syria_0046,syria,negative,non-camp,neg_informal_0199,,,,,,informal
36.19124393292532,37.14545702954396,neg_informal_syria_0047,syria,negative,non-camp,neg_informal_0200,,,,,,informal
36.21424550014527,37.1569053786277,neg_informal_syria_0048,syria,negative,non-camp,neg_informal_0201,,,,,,informal
33.485619029679775,36.29162693097975,neg_informal_syria_0049,syria,negative,non-camp,neg_informal_0202,,,,,,informal
33.516034589078174,36.33483976852034,neg_informal_syria_0050,syria,negative,non-camp,neg_informal_0203,,,,,,informal
33.44881042281213,36.303902362591984,neg_informal_syria_0051,syria,negative,non-camp,neg_informal_0204,,,,,,informal
33.50037776945402,36.290435954521165,neg_informal_syria_0052,syria,negative,non-camp,neg_informal_0205,,,,,,informal
36.21880287582275,37.14642103495801,neg_informal_syria_0053,syria,negative,non-camp,neg_informal_0206,,,,,,informal
33.44997949306581,36.299231154343,neg_informal_syria_0054,syria,negative,non-camp,neg_informal_0207,,,,,,informal
33.50081844867591,36.33105220042138,neg_informal_syria_0055,syria,negative,non-camp,neg_informal_0208,,,,,,informal
36.16076284854241,37.09991251441665,neg_informal_syria_0056,syria,negative,non-camp,neg_informal_0209,,,,,,informal
36.20284818669019,37.07431752250569,neg_informal_syria_0057,syria,negative,non-camp,neg_informal_0210,,,,,,informal
33.43048573377772,36.3429495087861,neg_informal_syria_0058,syria,negative,non-camp,neg_informal_0211,,,,,,informal
36.20565030477273,37.117164019062436,neg_informal_syria_0059,syria,negative,non-camp,neg_informal_0212,,,,,,informal
36.178604524956086,37.11361364226491,neg_informal_syria_0060,syria,negative,non-camp,neg_informal_0213,,,,,,informal
33.48217142141858,36.31311509571411,neg_informal_syria_0061,syria,negative,non-camp,neg_informal_0214,,,,,,informal
33.48981678800408,36.35981200805011,neg_informal_syria_0062,syria,negative,non-camp,neg_informal_0215,,,,,,informal
36.13787432898829,37.10846834726613,neg_informal_syria_0063,syria,negative,non-camp,neg_informal_0216,,,,,,informal
36.14807061957668,37.10521204739255,neg_informal_syria_0064,syria,negative,non-camp,neg_informal_0217,,,,,,informal
33.44745371316267,36.34640760534213,neg_informal_syria_0065,syria,negative,non-camp,neg_informal_0218,,,,,,informal
33.47962887428292,36.36192455822172,neg_informal_syria_0066,syria,negative,non-camp,neg_informal_0219,,,,,,informal
36.1366978013132,37.110327358293034,neg_informal_syria_0067,syria,negative,non-camp,neg_informal_0220,,,,,,informal
33.4380277320404,36.296272959641485,neg_informal_syria_0068,syria,negative,non-camp,neg_informal_0221,,,,,,informal
33.45089596074846,36.28981177414121,neg_informal_syria_0069,syria,negative,non-camp,neg_informal_0222,,,,,,informal
36.18736406687957,37.11979982907931,neg_informal_syria_0070,syria,negative,non-camp,neg_informal_0223,,,,,,informal
36.16767352782085,37.15267623598949,neg_informal_syria_0071,syria,negative,non-camp,neg_informal_0224,,,,,,informal
36.14385805514424,37.112839264584146,neg_informal_syria_0072,syria,negative,non-camp,neg_informal_0225,,,,,,informal
33.516823644028285,36.306957160635676,neg_informal_syria_0073,syria,negative,non-camp,neg_informal_0226,,,,,,informal
36.186774559909374,37.07691399450072,neg_informal_syria_0074,syria,negative,non-camp,neg_informal_0227,,,,,,informal
33.43691381624661,36.34278808919985,neg_informal_syria_0075,syria,negative,non-camp,neg_informal_0228,,,,,,informal
33.45880599687221,36.34237452901918,neg_informal_syria_0076,syria,negative,non-camp,neg_informal_0229,,,,,,informal
33.51625478004083,36.35355301981111,neg_informal_syria_0077,syria,negative,non-camp,neg_informal_0230,,,,,,informal
33.438892874305026,36.27237565064572,neg_informal_syria_0078,syria,negative,non-camp,neg_informal_0231,,,,,,informal
36.21536301731467,37.093470348905186,neg_informal_syria_0079,syria,negative,non-camp,neg_informal_0232,,,,,,informal
33.484827331785816,36.31262442031801,neg_informal_syria_0080,syria,negative,non-camp,neg_informal_0233,,,,,,informal
33.47888983014706,36.32006608406613,neg_informal_syria_0081,syria,negative,non-camp,neg_informal_0234,,,,,,informal
36.22890919394999,37.08501295567493,neg_informal_syria_0082,syria,negative,non-camp,neg_informal_0235,,,,,,informal
36.135174974560385,37.117764876957295,neg_informal_syria_0083,syria,negative,non-camp,neg_informal_0236,,,,,,informal
3.552108496418234,33.15867681082267,neg_rural_uganda_0000,uganda,negative,non-camp,neg_rural_0237,,,,,,rural
2.405723330386958,30.94824505241067,neg_rural_uganda_0001,uganda,negative,non-camp,neg_rural_0238,,,,,,rural
0.8858763107602892,31.516195849244777,neg_rural_uganda_0002,uganda,negative,non-camp,neg_rural_0239,,,,,,rural
1.4722262979005674,32.04225361579017,neg_rural_uganda_0003,uganda,negative,non-camp,neg_rural_0240,,,,,,rural
0.3633206056988394,31.180143368041435,neg_rural_uganda_0004,uganda,negative,non-camp,neg_rural_0241,,,,,,rural
-0.0701385175658038,31.507759857866173,neg_rural_uganda_0005,uganda,negative,non-camp,neg_rural_0242,,,,,,rural
-0.6453335757758543,34.29657366101966,neg_rural_uganda_0006,uganda,negative,non-camp,neg_rural_0243,,,,,,rural
1.9320805334505358,30.235825340766205,neg_rural_uganda_0007,uganda,negative,non-camp,neg_rural_0244,,,,,,rural
2.4549982049913077,34.16216557398885,neg_rural_uganda_0008,uganda,negative,non-camp,neg_rural_0245,,,,,,rural
-0.1460466693021243,30.328303268854953,neg_rural_uganda_0009,uganda,negative,non-camp,neg_rural_0246,,,,,,rural
-1.4508816343376132,29.75987686371067,neg_rural_uganda_0010,uganda,negative,non-camp,neg_rural_0247,,,,,,rural
2.844832685330016,34.92952482622932,neg_rural_uganda_0011,uganda,negative,non-camp,neg_rural_0248,,,,,,rural
-1.2441821618852233,33.61439027493941,neg_rural_uganda_0012,uganda,negative,non-camp,neg_rural_0249,,,,,,rural
-1.0903856547065276,32.75673053697017,neg_rural_uganda_0013,uganda,negative,non-camp,neg_rural_0250,,,,,,rural
2.809629109840956,31.475624184972556,neg_rural_uganda_0014,uganda,negative,non-camp,neg_rural_0251,,,,,,rural
-1.4376720896692168,32.77354143668984,neg_rural_uganda_0015,uganda,negative,non-camp,neg_rural_0252,,,,,,rural
4.1500943803981585,30.916895825611725,neg_rural_uganda_0016,uganda,negative,non-camp,neg_rural_0253,,,,,,rural
-0.4198997200328698,30.181592410144333,neg_rural_uganda_0017,uganda,negative,non-camp,neg_rural_0254,,,,,,rural
3.04989202316402,30.944720235769697,neg_urban_uganda_0000,uganda,negative,non-camp,neg_urban_0237,,,,,,urban
0.4111063785033835,32.72131493812623,neg_urban_uganda_0001,uganda,negative,non-camp,neg_urban_0238,,,,,,urban
3.1400781714032284,30.8190161499086,neg_urban_uganda_0002,uganda,negative,non-camp,neg_urban_0239,,,,,,urban
2.9570683052736886,30.848722736638543,neg_urban_uganda_0003,uganda,negative,non-camp,neg_urban_0240,,,,,,urban
3.1854999729227984,30.975482525824148,neg_urban_uganda_0004,uganda,negative,non-camp,neg_urban_0241,,,,,,urban
3.000088513218748,30.92347752640743,neg_urban_uganda_0005,uganda,negative,non-camp,neg_urban_0242,,,,,,urban
3.0253615511699117,30.76862334070854,neg_urban_uganda_0006,uganda,negative,non-camp,neg_urban_0243,,,,,,urban
0.3299490898176136,32.42425474984788,neg_urban_uganda_0007,uganda,negative,non-camp,neg_urban_0244,,,,,,urban
0.4753262945512001,32.44458372549961,neg_urban_uganda_0008,uganda,negative,non-camp,neg_urban_0245,,,,,,urban
0.4155156406179092,32.43489643504415,neg_urban_uganda_0009,uganda,negative,non-camp,neg_urban_0246,,,,,,urban
0.46410011586154737,32.66125234946011,neg_urban_uganda_0010,uganda,negative,non-camp,neg_urban_0247,,,,,,urban
0.38906494206283504,32.62738627518167,neg_urban_uganda_0011,uganda,negative,non-camp,neg_urban_0248,,,,,,urban
0.41264579578637073,32.69815122689616,neg_urban_uganda_0012,uganda,negative,non-camp,neg_urban_0249,,,,,,urban
3.0610234662975495,30.84608679468944,neg_urban_uganda_0013,uganda,negative,non-camp,neg_urban_0250,,,,,,urban
3.1010185182587744,31.07450977046708,neg_urban_uganda_0014,uganda,negative,non-camp,neg_urban_0251,,,,,,urban
0.3791641526363314,32.557366095191924,neg_urban_uganda_0015,uganda,negative,non-camp,neg_urban_0252,,,,,,urban
3.1222034915075065,31.089160261241908,neg_urban_uganda_0016,uganda,negative,non-camp,neg_urban_0253,,,,,,urban
0.21286590062135444,32.594197593119176,neg_urban_uganda_0017,uganda,negative,non-camp,neg_urban_0254,,,,,,urban
3.4673843315064894,29.769907262483503,neg_barren_uganda_0000,uganda,negative,non-camp,neg_barren_0237,,,,,,barren
3.486892828132109,32.7185524321773,neg_barren_uganda_0001,uganda,negative,non-camp,neg_barren_0238,,,,,,barren
-0.2684305904054449,33.02850961837471,neg_barren_uganda_0002,uganda,negative,non-camp,neg_barren_0239,,,,,,barren
-0.4316593146893484,32.45629214395463,neg_barren_uganda_0003,uganda,negative,non-camp,neg_barren_0240,,,,,,barren
-1.3269593428518016,31.00236097399036,neg_barren_uganda_0004,uganda,negative,non-camp,neg_barren_0241,,,,,,barren
-0.007191861663080834,33.23478355958396,neg_barren_uganda_0005,uganda,negative,non-camp,neg_barren_0242,,,,,,barren
3.5027901652599316,30.719558932004045,neg_barren_uganda_0006,uganda,negative,non-camp,neg_barren_0243,,,,,,barren
-0.08507614221004234,32.76400949924486,neg_barren_uganda_0007,uganda,negative,non-camp,neg_barren_0244,,,,,,barren
-0.921008632109508,31.9543751163872,neg_barren_uganda_0008,uganda,negative,non-camp,neg_barren_0245,,,,,,barren
-0.2631222340461623,32.35864512832714,neg_barren_uganda_0009,uganda,negative,non-camp,neg_barren_0246,,,,,,barren
2.5761493524734282,30.286540707295117,neg_barren_uganda_0010,uganda,negative,non-camp,neg_barren_0247,,,,,,barren
3.128485858972334,34.69279005891951,neg_barren_uganda_0011,uganda,negative,non-camp,neg_barren_0248,,,,,,barren
-1.098423320826715,30.081625756038328,neg_barren_uganda_0012,uganda,negative,non-camp,neg_barren_0249,,,,,,barren
3.8848993867923074,31.608385363757794,neg_barren_uganda_0013,uganda,negative,non-camp,neg_barren_0250,,,,,,barren
-0.1273744908230372,30.10951423334287,neg_barren_uganda_0014,uganda,negative,non-camp,neg_barren_0251,,,,,,barren
0.14005426836459933,31.711759411969545,neg_barren_uganda_0015,uganda,negative,non-camp,neg_barren_0252,,,,,,barren
4.068847600340972,34.360164548648655,neg_barren_uganda_0016,uganda,negative,non-camp,neg_barren_0253,,,,,,barren
-0.5556471642117435,30.664576065268687,neg_barren_uganda_0017,uganda,negative,non-camp,neg_barren_0254,,,,,,barren
0.33194507555446373,32.54986000383921,neg_informal_uganda_0000,uganda,negative,non-camp,neg_informal_0237,,,,,,informal
0.31830149564489973,32.59504962698027,neg_informal_uganda_0001,uganda,negative,non-camp,neg_informal_0238,,,,,,informal
0.33291504903457503,32.527719814021054,neg_informal_uganda_0002,uganda,negative,non-camp,neg_informal_0239,,,,,,informal
3.094035141253818,30.97370627248797,neg_informal_uganda_0003,uganda,negative,non-camp,neg_informal_0240,,,,,,informal
0.30324153197128695,32.56423174116715,neg_informal_uganda_0004,uganda,negative,non-camp,neg_informal_0241,,,,,,informal
3.0419765367098757,30.89194484359287,neg_informal_uganda_0005,uganda,negative,non-camp,neg_informal_0242,,,,,,informal
0.2596752898361096,32.52327321466762,neg_informal_uganda_0006,uganda,negative,non-camp,neg_informal_0243,,,,,,informal
0.264583230073568,32.52266986519147,neg_informal_uganda_0007,uganda,negative,non-camp,neg_informal_0244,,,,,,informal
3.0548614059322206,30.901513121807827,neg_informal_uganda_0008,uganda,negative,non-camp,neg_informal_0245,,,,,,informal
0.3063316241697962,32.53680932709966,neg_informal_uganda_0009,uganda,negative,non-camp,neg_informal_0246,,,,,,informal
0.3126159285840469,32.591220534040865,neg_informal_uganda_0010,uganda,negative,non-camp,neg_informal_0247,,,,,,informal
0.3413433659813064,32.59024899674229,neg_informal_uganda_0011,uganda,negative,non-camp,neg_informal_0248,,,,,,informal
0.3329087583335903,32.5631285917306,neg_informal_uganda_0012,uganda,negative,non-camp,neg_informal_0249,,,,,,informal
3.06392126599365,30.949049555121782,neg_informal_uganda_0013,uganda,negative,non-camp,neg_informal_0250,,,,,,informal
3.0016482200596157,30.975809257916065,neg_informal_uganda_0014,uganda,negative,non-camp,neg_informal_0251,,,,,,informal
3.078146583940242,30.917728183906135,neg_informal_uganda_0015,uganda,negative,non-camp,neg_informal_0252,,,,,,informal
3.0012397213915794,30.930973465987645,neg_informal_uganda_0016,uganda,negative,non-camp,neg_informal_0253,,,,,,informal
0.2936989288311452,32.53397170541621,neg_informal_uganda_0017,uganda,negative,non-camp,neg_informal_0254,,,,,,informal
5.675978268335069,30.039586379959758,neg_rural_south_sudan_0000,south_sudan,negative,non-camp,neg_rural_0255,,,,,,rural
6.773683722318074,35.57384785695311,neg_rural_south_sudan_0001,south_sudan,negative,non-camp,neg_rural_0256,,,,,,rural
5.003113942960651,27.43901625101486,neg_rural_south_sudan_0002,south_sudan,negative,non-camp,neg_rural_0257,,,,,,rural
6.062154120589996,30.236797794711823,neg_rural_south_sudan_0003,south_sudan,negative,non-camp,neg_rural_0258,,,,,,rural
7.8587022485237945,31.49319322245766,neg_rural_south_sudan_0004,south_sudan,negative,non-camp,neg_rural_0259,,,,,,rural
11.80251549252432,27.008115779528282,neg_rural_south_sudan_0005,south_sudan,negative,non-camp,neg_rural_0260,,,,,,rural
9.55175123098122,23.753252939594848,neg_rural_south_sudan_0006,south_sudan,negative,non-camp,neg_rural_0261,,,,,,rural
5.785899136419214,29.241133797237378,neg_rural_south_sudan_0007,south_sudan,negative,non-camp,neg_rural_0262,,,,,,rural
3.7612043992099267,31.167044951526023,neg_rural_south_sudan_0008,south_sudan,negative,non-camp,neg_rural_0263,,,,,,rural
9.425217823514947,32.78161375262397,neg_rural_south_sudan_0009,south_sudan,negative,non-camp,neg_rural_0264,,,,,,rural
8.010026917376358,30.995347758882623,neg_rural_south_sudan_0010,south_sudan,negative,non-camp,neg_rural_0265,,,,,,rural
6.955570948686764,23.9560754366571,neg_rural_south_sudan_0011,south_sudan,negative,non-camp,neg_rural_0266,,,,,,rural
4.36457873802699,31.633999011760316,neg_rural_south_sudan_0012,south_sudan,negative,non-camp,neg_rural_0267,,,,,,rural
12.201108871375542,23.637698521932837,neg_rural_south_sudan_0013,south_sudan,negative,non-camp,neg_rural_0268,,,,,,rural
8.36885559723085,32.8351194985608,neg_rural_south_sudan_0014,south_sudan,negative,non-camp,neg_rural_0269,,,,,,rural
10.72427974512144,30.26051331429523,neg_rural_south_sudan_0015,south_sudan,negative,non-camp,neg_rural_0270,,,,,,rural
8.91426482661092,32.156029065384665,neg_rural_south_sudan_0016,south_sudan,negative,non-camp,neg_rural_0271,,,,,,rural
11.005954684817517,24.969842110407264,neg_rural_south_sudan_0017,south_sudan,negative,non-camp,neg_rural_0272,,,,,,rural
11.594094217405056,23.76547771843014,neg_rural_south_sudan_0018,south_sudan,negative,non-camp,neg_rural_0273,,,,,,rural
10.806747820880535,24.400022736261814,neg_rural_south_sudan_0019,south_sudan,negative,non-camp,neg_rural_0274,,,,,,rural
5.19299685154307,23.48871577122797,neg_rural_south_sudan_0020,south_sudan,negative,non-camp,neg_rural_0275,,,,,,rural
7.385996173440356,27.622833926234577,neg_rural_south_sudan_0021,south_sudan,negative,non-camp,neg_rural_0276,,,,,,rural
4.942437975511489,29.08313791165687,neg_rural_south_sudan_0022,south_sudan,negative,non-camp,neg_rural_0277,,,,,,rural
7.010745227756608,33.04343951906126,neg_rural_south_sudan_0023,south_sudan,negative,non-camp,neg_rural_0278,,,,,,rural
11.304890178112784,31.603616319606196,neg_rural_south_sudan_0024,south_sudan,negative,non-camp,neg_rural_0279,,,,,,rural
4.578590901357084,27.135338841820232,neg_rural_south_sudan_0025,south_sudan,negative,non-camp,neg_rural_0280,,,,,,rural
11.48153509728245,24.550068507528696,neg_rural_south_sudan_0026,south_sudan,negative,non-camp,neg_rural_0281,,,,,,rural
7.049988594669732,35.23073278661086,neg_rural_south_sudan_0027,south_sudan,negative,non-camp,neg_rural_0282,,,,,,rural
11.808317362858,28.584151744881645,neg_rural_south_sudan_0028,south_sudan,negative,non-camp,neg_rural_0283,,,,,,rural
9.329722770864478,29.153887435408528,neg_rural_south_sudan_0029,south_sudan,negative,non-camp,neg_rural_0284,,,,,,rural
6.291245794197083,31.411369279049477,neg_urban_south_sudan_0000,south_sudan,negative,non-camp,neg_urban_0255,,,,,,urban
4.8911115692756955,31.513718814479503,neg_urban_south_sudan_0001,south_sudan,negative,non-camp,neg_urban_0256,,,,,,urban
4.9097788277368934,31.556440253886066,neg_urban_south_sudan_0002,south_sudan,negative,non-camp,neg_urban_0257,,,,,,urban
4.964933378801595,31.60742160802476,neg_urban_south_sudan_0003,south_sudan,negative,non-camp,neg_urban_0258,,,,,,urban
6.298242231354149,31.49760963904463,neg_urban_south_sudan_0004,south_sudan,negative,non-camp,neg_urban_0259,,,,,,urban
4.74109353867078,31.739919020667557,neg_urban_south_sudan_0005,south_sudan,negative,non-camp,neg_urban_0260,,,,,,urban
4.966304341964629,31.75477388062724,neg_urban_south_sudan_0006,south_sudan,negative,non-camp,neg_urban_0261,,,,,,urban
5.015454654341418,31.512201043387492,neg_urban_south_sudan_0007,south_sudan,negative,non-camp,neg_urban_0262,,,,,,urban
6.355456744686314,31.605636748886717,neg_urban_south_sudan_0008,south_sudan,negative,non-camp,neg_urban_0263,,,,,,urban
4.7738790825059425,31.51687316167191,neg_urban_south_sudan_0009,south_sudan,negative,non-camp,neg_urban_0264,,,,,,urban
6.198763362972987,31.719594203256996,neg_urban_south_sudan_0010,south_sudan,negative,non-camp,neg_urban_0265,,,,,,urban
4.837184585474189,31.505339845125903,neg_urban_south_sudan_0011,south_sudan,negative,non-camp,neg_urban_0266,,,,,,urban
4.966256915789515,31.50141786678135,neg_urban_south_sudan_0012,south_sudan,negative,non-camp,neg_urban_0267,,,,,,urban
6.293594604138615,31.606952855129983,neg_urban_south_sudan_0013,south_sudan,negative,non-camp,neg_urban_0268,,,,,,urban
6.330653494983738,31.504778126882233,neg_urban_south_sudan_0014,south_sudan,negative,non-camp,neg_urban_0269,,,,,,urban
6.28258776545575,31.68754993799423,neg_urban_south_sudan_0015,south_sudan,negative,non-camp,neg_urban_0270,,,,,,urban
6.259248695429833,31.704683486116387,neg_urban_south_sudan_0016,south_sudan,negative,non-camp,neg_urban_0271,,,,,,urban
4.821258627628869,31.723009646135445,neg_urban_south_sudan_0017,south_sudan,negative,non-camp,neg_urban_0272,,,,,,urban
6.288048713426492,31.563033259656326,neg_urban_south_sudan_0018,south_sudan,negative,non-camp,neg_urban_0273,,,,,,urban
6.161993334646135,31.603567729859442,neg_urban_south_sudan_0019,south_sudan,negative,non-camp,neg_urban_0274,,,,,,urban
6.0581392485167465,31.481279069863856,neg_urban_south_sudan_0020,south_sudan,negative,non-camp,neg_urban_0275,,,,,,urban
6.1085531665486235,31.576979720347083,neg_urban_south_sudan_0021,south_sudan,negative,non-camp,neg_urban_0276,,,,,,urban
6.342259082398546,31.425241195535904,neg_urban_south_sudan_0022,south_sudan,negative,non-camp,neg_urban_0277,,,,,,urban
6.226935463246441,31.56821841244124,neg_urban_south_sudan_0023,south_sudan,negative,non-camp,neg_urban_0278,,,,,,urban
6.189877056474616,31.609519686352307,neg_urban_south_sudan_0024,south_sudan,negative,non-camp,neg_urban_0279,,,,,,urban
4.839972002367432,31.72442071158491,neg_urban_south_sudan_0025,south_sudan,negative,non-camp,neg_urban_0280,,,,,,urban
6.288433276845629,31.522896257905227,neg_urban_south_sudan_0026,south_sudan,negative,non-camp,neg_urban_0281,,,,,,urban
6.32731424084162,31.455257193934706,neg_urban_south_sudan_0027,south_sudan,negative,non-camp,neg_urban_0282,,,,,,urban
6.2297656862230735,31.502712317695714,neg_urban_south_sudan_0028,south_sudan,negative,non-camp,neg_urban_0283,,,,,,urban
6.105962718569126,31.64170526870229,neg_urban_south_sudan_0029,south_sudan,negative,non-camp,neg_urban_0284,,,,,,urban
10.956752379003602,35.307567313631566,neg_barren_south_sudan_0000,south_sudan,negative,non-camp,neg_barren_0255,,,,,,barren
11.91381352565342,35.786676710860725,neg_barren_south_sudan_0001,south_sudan,negative,non-camp,neg_barren_0256,,,,,,barren
3.925398328023775,33.69392432638489,neg_barren_south_sudan_0002,south_sudan,negative,non-camp,neg_barren_0257,,,,,,barren
10.647417444710683,34.33287450020648,neg_barren_south_sudan_0003,south_sudan,negative,non-camp,neg_barren_0258,,,,,,barren
4.8884436217619305,28.292178953783583,neg_barren_south_sudan_0004,south_sudan,negative,non-camp,neg_barren_0259,,,,,,barren
5.35259081036408,29.299750548392076,neg_barren_south_sudan_0005,south_sudan,negative,non-camp,neg_barren_0260,,,,,,barren
4.09361354677391,25.5715977795744,neg_barren_south_sudan_0006,south_sudan,negative,non-camp,neg_barren_0261,,,,,,barren
6.041485149592147,26.533179732067698,neg_barren_south_sudan_0007,south_sudan,negative,non-camp,neg_barren_0262,,,,,,barren
9.981184475900749,34.20565007647314,neg_barren_south_sudan_0008,south_sudan,negative,non-camp,neg_barren_0263,,,,,,barren
10.93584363265283,35.835814699807585,neg_barren_south_sudan_0009,south_sudan,negative,non-camp,neg_barren_0264,,,,,,barren
11.075775987590834,29.848735924238873,neg_barren_south_sudan_0010,south_sudan,negative,non-camp,neg_barren_0265,,,,,,barren
4.42261404132604,28.573370399827013,neg_barren_south_sudan_0011,south_sudan,negative,non-camp,neg_barren_0266,,,,,,barren
11.55963998304394,33.25670845394374,neg_barren_south_sudan_0012,south_sudan,negative,non-camp,neg_barren_0267,,,,,,barren
10.647824819219345,34.61024149198717,neg_barren_south_sudan_0013,south_sudan,negative,non-camp,neg_barren_0268,,,,,,barren
10.39924256038441,30.383578986007375,neg_barren_south_sudan_0014,south_sudan,negative,non-camp,neg_barren_0269,,,,,,barren
10.329118621591382,29.195068936139194,neg_barren_south_sudan_0015,south_sudan,negative,non-camp,neg_barren_0270,,,,,,barren
11.005266257518645,32.280765975628455,neg_barren_south_sudan_0016,south_sudan,negative,non-camp,neg_barren_0271,,,,,,barren
3.734411993503644,34.00355176321132,neg_barren_south_sudan_0017,south_sudan,negative,non-camp,neg_barren_0272,,,,,,barren
11.622631501604213,27.95066953580589,neg_barren_south_sudan_0018,south_sudan,negative,non-camp,neg_barren_0273,,,,,,barren
4.031466371439032,25.77514291722983,neg_barren_south_sudan_0019,south_sudan,negative,non-camp,neg_barren_0274,,,,,,barren
9.701457038583197,26.25846970816699,neg_barren_south_sudan_0020,south_sudan,negative,non-camp,neg_barren_0275,,,,,,barren
5.688131630551743,24.45062490286201,neg_barren_south_sudan_0021,south_sudan,negative,non-camp,neg_barren_0276,,,,,,barren
5.583482660639595,34.31975053929414,neg_barren_south_sudan_0022,south_sudan,negative,non-camp,neg_barren_0277,,,,,,barren
5.259651801646657,30.008916349144247,neg_barren_south_sudan_0023,south_sudan,negative,non-camp,neg_barren_0278,,,,,,barren
5.902662869487338,24.697530237723022,neg_barren_south_sudan_0024,south_sudan,negative,non-camp,neg_barren_0279,,,,,,barren
9.805194305689163,35.25951270101992,neg_barren_south_sudan_0025,south_sudan,negative,non-camp,neg_barren_0280,,,,,,barren
11.387779235524995,33.962412006949066,neg_barren_south_sudan_0026,south_sudan,negative,non-camp,neg_barren_0281,,,,,,barren
3.9146789517046976,33.44190269753504,neg_barren_south_sudan_0027,south_sudan,negative,non-camp,neg_barren_0282,,,,,,barren
3.618297864233549,32.873672907921524,neg_barren_south_sudan_0028,south_sudan,negative,non-camp,neg_barren_0283,,,,,,barren
11.317566577609885,29.8707429324462,neg_barren_south_sudan_0029,south_sudan,negative,non-camp,neg_barren_0284,,,,,,barren
4.918844741383193,31.66465982162878,neg_informal_south_sudan_0000,south_sudan,negative,non-camp,neg_informal_0255,,,,,,informal
4.918458504154328,31.647801155417177,neg_informal_south_sudan_0001,south_sudan,negative,non-camp,neg_informal_0256,,,,,,informal
4.912273909582517,31.671668028449936,neg_informal_south_sudan_0002,south_sudan,negative,non-camp,neg_informal_0257,,,,,,informal
4.919940892538767,31.651868967150453,neg_informal_south_sudan_0003,south_sudan,negative,non-camp,neg_informal_0258,,,,,,informal
4.912428975940961,31.66216131370114,neg_informal_south_sudan_0004,south_sudan,negative,non-camp,neg_informal_0259,,,,,,informal
4.913756525877295,31.6702303204918,neg_informal_south_sudan_0005,south_sudan,negative,non-camp,neg_informal_0260,,,,,,informal
4.917126131626887,31.67189097228101,neg_informal_south_sudan_0006,south_sudan,negative,non-camp,neg_informal_0261,,,,,,informal
4.903611578459185,31.673298002664925,neg_informal_south_sudan_0007,south_sudan,negative,non-camp,neg_informal_0262,,,,,,informal
4.9028496948267914,31.677013651123822,neg_informal_south_sudan_0008,south_sudan,negative,non-camp,neg_informal_0263,,,,,,informal
4.905043118448637,31.67961272576386,neg_informal_south_sudan_0009,south_sudan,negative,non-camp,neg_informal_0264,,,,,,informal
4.918126225074399,31.647201572229957,neg_informal_south_sudan_0010,south_sudan,negative,non-camp,neg_informal_0265,,,,,,informal
4.919764859412151,31.671630203391498,neg_informal_south_sudan_0011,south_sudan,negative,non-camp,neg_informal_0266,,,,,,informal
4.910018589510485,31.668449814810447,neg_informal_south_sudan_0012,south_sudan,negative,non-camp,neg_informal_0267,,,,,,informal
4.919702636163917,31.583021920375135,neg_informal_south_sudan_0013,south_sudan,negative,non-camp,neg_informal_0268,,,,,,informal
4.915456784687281,31.661056061011816,neg_informal_south_sudan_0014,south_sudan,negative,non-camp,neg_informal_0269,,,,,,informal
4.91375623209066,31.676352136405917,neg_informal_south_sudan_0015,south_sudan,negative,non-camp,neg_informal_0270,,,,,,informal
4.912852813585224,31.670780205276245,neg_informal_south_sudan_0016,south_sudan,negative,non-camp,neg_informal_0271,,,,,,informal
4.9045949001452875,31.675203169855322,neg_informal_south_sudan_0017,south_sudan,negative,non-camp,neg_informal_0272,,,,,,informal
4.910559264924276,31.668080293803776,neg_informal_south_sudan_0018,south_sudan,negative,non-camp,neg_informal_0273,,,,,,informal
4.91108854030956,31.663797969823406,neg_informal_south_sudan_0019,south_sudan,negative,non-camp,neg_informal_0274,,,,,,informal
4.915396671714689,31.666624191975757,neg_informal_south_sudan_0020,south_sudan,negative,non-camp,neg_informal_0275,,,,,,informal
15.644029669356264,42.886001304615085,neg_rural_yemen_0000,yemen,negative,non-camp,neg_rural_0285,,,,,,rural
13.998325755013523,54.581971476328995,neg_rural_yemen_0001,yemen,negative,non-camp,neg_rural_0286,,,,,,rural
16.964959395428764,42.462079518870546,neg_rural_yemen_0002,yemen,negative,non-camp,neg_rural_0287,,,,,,rural
15.201451491097474,44.018974787533296,neg_rural_yemen_0003,yemen,negative,non-camp,neg_rural_0288,,,,,,rural
12.957088682610616,49.365531869799085,neg_rural_yemen_0004,yemen,negative,non-camp,neg_rural_0289,,,,,,rural
15.593969079621086,51.37069294014059,neg_rural_yemen_0005,yemen,negative,non-camp,neg_rural_0290,,,,,,rural
18.257989912517512,44.98479550514549,neg_rural_yemen_0006,yemen,negative,non-camp,neg_rural_0291,,,,,,rural
18.469414788055687,48.47655411277121,neg_rural_yemen_0007,yemen,negative,non-camp,neg_rural_0292,,,,,,rural
13.893372586295456,52.69526373638058,neg_rural_yemen_0008,yemen,negative,non-camp,neg_rural_0293,,,,,,rural
12.354801135219965,49.010885688077,neg_rural_yemen_0009,yemen,negative,non-camp,neg_rural_0294,,,,,,rural
17.081972376356468,45.413312833699564,neg_rural_yemen_0010,yemen,negative,non-camp,neg_rural_0295,,,,,,rural
18.05945931201057,44.902462330417265,neg_rural_yemen_0011,yemen,negative,non-camp,neg_rural_0296,,,,,,rural
17.896733808021683,42.820873684523725,neg_rural_yemen_0012,yemen,negative,non-camp,neg_rural_0297,,,,,,rural
13.21190110797349,46.713271594817556,neg_rural_yemen_0013,yemen,negative,non-camp,neg_rural_0298,,,,,,rural
17.994442483179455,43.67081364918169,neg_rural_yemen_0014,yemen,negative,non-camp,neg_rural_0299,,,,,,rural
18.141769472182325,44.76664474750666,neg_rural_yemen_0015,yemen,negative,non-camp,neg_rural_0300,,,,,,rural
15.227782866316304,46.34969178283055,neg_rural_yemen_0016,yemen,negative,non-camp,neg_rural_0301,,,,,,rural
12.923889701374067,53.96326634761133,neg_rural_yemen_0017,yemen,negative,non-camp,neg_rural_0302,,,,,,rural
12.757744184670797,45.10851925408823,neg_urban_yemen_0000,yemen,negative,non-camp,neg_urban_0285,,,,,,urban
12.780617730066794,45.08196794448047,neg_urban_yemen_0001,yemen,negative,non-camp,neg_urban_0286,,,,,,urban
12.923403230232873,45.11175245524988,neg_urban_yemen_0002,yemen,negative,non-camp,neg_urban_0287,,,,,,urban
15.40226694583975,44.24830194098325,neg_urban_yemen_0003,yemen,negative,non-camp,neg_urban_0288,,,,,,urban
12.755923634695073,45.08491504364696,neg_urban_yemen_0004,yemen,negative,non-camp,neg_urban_0289,,,,,,urban
12.869759515705466,44.92409738629272,neg_urban_yemen_0005,yemen,negative,non-camp,neg_urban_0290,,,,,,urban
12.772446644633012,44.95262971539689,neg_urban_yemen_0006,yemen,negative,non-camp,neg_urban_0291,,,,,,urban
12.948025526881947,45.17098548226666,neg_urban_yemen_0007,yemen,negative,non-camp,neg_urban_0292,,,,,,urban
15.354931502649173,44.12149482372284,neg_urban_yemen_0008,yemen,negative,non-camp,neg_urban_0293,,,,,,urban
12.756528390437973,45.14920583203217,neg_urban_yemen_0009,yemen,negative,non-camp,neg_urban_0294,,,,,,urban
12.95982651966514,44.98566973869635,neg_urban_yemen_0010,yemen,negative,non-camp,neg_urban_0295,,,,,,urban
12.696257695966112,44.89360464844504,neg_urban_yemen_0011,yemen,negative,non-camp,neg_urban_0296,,,,,,urban
15.311856630740056,44.036273018978086,neg_urban_yemen_0012,yemen,negative,non-camp,neg_urban_0297,,,,,,urban
12.69781046901816,44.91755059932741,neg_urban_yemen_0013,yemen,negative,non-camp,neg_urban_0298,,,,,,urban
15.43357727582026,44.06801772471245,neg_urban_yemen_0014,yemen,negative,non-camp,neg_urban_0299,,,,,,urban
12.679601221335943,44.89909262210976,neg_urban_yemen_0015,yemen,negative,non-camp,neg_urban_0300,,,,,,urban
12.603638391995252,45.117473801555974,neg_urban_yemen_0016,yemen,negative,non-camp,neg_urban_0301,,,,,,urban
15.353419497849599,44.070181776801974,neg_urban_yemen_0017,yemen,negative,non-camp,neg_urban_0302,,,,,,urban
12.369170255657597,47.111486675880975,neg_barren_yemen_0000,yemen,negative,non-camp,neg_barren_0285,,,,,,barren
12.616181322509,45.24592687740525,neg_barren_yemen_0001,yemen,negative,non-camp,neg_barren_0286,,,,,,barren
12.674993071415889,41.84695377379025,neg_barren_yemen_0002,yemen,negative,non-camp,neg_barren_0287,,,,,,barren
16.95891027840541,53.519026692883955,neg_barren_yemen_0003,yemen,negative,non-camp,neg_barren_0288,,,,,,barren
13.315090488279306,44.404457004798616,neg_barren_yemen_0004,yemen,negative,non-camp,neg_barren_0289,,,,,,barren
13.50988534848314,42.58816619641945,neg_barren_yemen_0005,yemen,negative,non-camp,neg_barren_0290,,,,,,barren
13.307647421175908,52.00904875896691,neg_barren_yemen_0006,yemen,negative,non-camp,neg_barren_0291,,,,,,barren
17.185272802090388,50.85052600691392,neg_barren_yemen_0007,yemen,negative,non-camp,neg_barren_0292,,,,,,barren
12.907931313991075,42.114919583320926,neg_barren_yemen_0008,yemen,negative,non-camp,neg_barren_0293,,,,,,barren
12.53599610438502,46.173341092220674,neg_barren_yemen_0009,yemen,negative,non-camp,neg_barren_0294,,,,,,barren
12.316606404609763,42.736585510202026,neg_barren_yemen_0010,yemen,negative,non-camp,neg_barren_0295,,,,,,barren
18.827694591114955,45.8174959187376,neg_barren_yemen_0011,yemen,negative,non-camp,neg_barren_0296,,,,,,barren
14.154749259719672,50.425831713142216,neg_barren_yemen_0012,yemen,negative,non-camp,neg_barren_0297,,,,,,barren
13.186741502580132,46.66092370062295,neg_barren_yemen_0013,yemen,negative,non-camp,neg_barren_0298,,,,,,barren
14.091821802190971,51.952126713697254,neg_barren_yemen_0014,yemen,negative,non-camp,neg_barren_0299,,,,,,barren
17.620163461610247,53.18105078624957,neg_barren_yemen_0015,yemen,negative,non-camp,neg_barren_0300,,,,,,barren
18.689092726145212,45.09283791847582,neg_barren_yemen_0016,yemen,negative,non-camp,neg_barren_0301,,,,,,barren
13.776457940461572,47.948945177180896,neg_barren_yemen_0017,yemen,negative,non-camp,neg_barren_0302,,,,,,barren
15.299228397614227,44.224476774346236,neg_informal_yemen_0000,yemen,negative,non-camp,neg_informal_0276,,,,,,informal
15.312068026048252,44.19100161823534,neg_informal_yemen_0001,yemen,negative,non-camp,neg_informal_0277,,,,,,informal
15.323508624110392,44.20830522170387,neg_informal_yemen_0002,yemen,negative,non-camp,neg_informal_0278,,,,,,informal
15.323568965404787,44.22917018112252,neg_informal_yemen_0003,yemen,negative,non-camp,neg_informal_0279,,,,,,informal
15.283606270943972,44.18573383331533,neg_informal_yemen_0004,yemen,negative,non-camp,neg_informal_0280,,,,,,informal
12.838771108704199,45.06937862269332,neg_informal_yemen_0005,yemen,negative,non-camp,neg_informal_0281,,,,,,informal
12.832448427123934,45.03226910189593,neg_informal_yemen_0006,yemen,negative,non-camp,neg_informal_0282,,,,,,informal
15.374213227392804,44.22859751130927,neg_informal_yemen_0007,yemen,negative,non-camp,neg_informal_0283,,,,,,informal
15.33579529826887,44.18754883377948,neg_informal_yemen_0008,yemen,negative,non-camp,neg_informal_0284,,,,,,informal
12.755878966156702,45.099237710395656,neg_informal_yemen_0009,yemen,negative,non-camp,neg_informal_0285,,,,,,informal
15.361814950841534,44.185625114472785,neg_informal_yemen_0010,yemen,negative,non-camp,neg_informal_0286,,,,,,informal
15.314292060642654,44.15231605858729,neg_informal_yemen_0011,yemen,negative,non-camp,neg_informal_0287,,,,,,informal
15.352178974130572,44.195666985655485,neg_informal_yemen_0012,yemen,negative,non-camp,neg_informal_0288,,,,,,informal
12.81230055720777,45.1079230214255,neg_informal_yemen_0013,yemen,negative,non-camp,neg_informal_0289,,,,,,informal
15.292239513547617,44.18584850106253,neg_informal_yemen_0014,yemen,negative,non-camp,neg_informal_0290,,,,,,informal
12.766679721382381,45.06315802109973,neg_informal_yemen_0015,yemen,negative,non-camp,neg_informal_0291,,,,,,informal
15.34059772585481,44.15573445388185,neg_informal_yemen_0016,yemen,negative,non-camp,neg_informal_0292,,,,,,informal
15.365634871563376,44.171138743667,neg_informal_yemen_0017,yemen,negative,non-camp,neg_informal_0293,,,,,,informal
